[
  {
    "postalCode": "7793402",
    "regionId": 36,
    "region": "徳島県",
    "locality": "吉野川市",
    "address1": "山川町忌部",
    "address2": "",
    "regionKana": "トクシマケン",
    "localityKana": "ヨシノガワシ",
    "address1Kana": "ヤマカワチョウイムベ",
    "address2Kana": ""
  },
  {
    "postalCode": "7793402",
    "regionId": 36,
    "region": "徳島県",
    "locality": "吉野川市",
    "address1": "山川町忌部山",
    "address2": "",
    "regionKana": "トクシマケン",
    "localityKana": "ヨシノガワシ",
    "address1Kana": "ヤマカワチョウイムベヤマ",
    "address2Kana": ""
  },
  {
    "postalCode": "7793402",
    "regionId": 36,
    "region": "徳島県",
    "locality": "吉野川市",
    "address1": "山川町岩戸",
    "address2": "",
    "regionKana": "トクシマケン",
    "localityKana": "ヨシノガワシ",
    "address1Kana": "ヤマカワチョウイワト",
    "address2Kana": ""
  },
  {
    "postalCode": "7793402",
    "regionId": 36,
    "region": "徳島県",
    "locality": "吉野川市",
    "address1": "山川町雲宮",
    "address2": "",
    "regionKana": "トクシマケン",
    "localityKana": "ヨシノガワシ",
    "address1Kana": "ヤマカワチョウクモミヤ",
    "address2Kana": ""
  },
  {
    "postalCode": "7793402",
    "regionId": 36,
    "region": "徳島県",
    "locality": "吉野川市",
    "address1": "山川町堤内",
    "address2": "",
    "regionKana": "トクシマケン",
    "localityKana": "ヨシノガワシ",
    "address1Kana": "ヤマカワチョウテイナイ",
    "address2Kana": ""
  },
  {
    "postalCode": "7793402",
    "regionId": 36,
    "region": "徳島県",
    "locality": "吉野川市",
    "address1": "山川町天神",
    "address2": "",
    "regionKana": "トクシマケン",
    "localityKana": "ヨシノガワシ",
    "address1Kana": "ヤマカワチョウテンジン",
    "address2Kana": ""
  },
  {
    "postalCode": "7793402",
    "regionId": 36,
    "region": "徳島県",
    "locality": "吉野川市",
    "address1": "山川町中須賀",
    "address2": "",
    "regionKana": "トクシマケン",
    "localityKana": "ヨシノガワシ",
    "address1Kana": "ヤマカワチョウナカスカ",
    "address2Kana": ""
  },
  {
    "postalCode": "7793402",
    "regionId": 36,
    "region": "徳島県",
    "locality": "吉野川市",
    "address1": "山川町流",
    "address2": "",
    "regionKana": "トクシマケン",
    "localityKana": "ヨシノガワシ",
    "address1Kana": "ヤマカワチョウナガレ",
    "address2Kana": ""
  },
  {
    "postalCode": "7793402",
    "regionId": 36,
    "region": "徳島県",
    "locality": "吉野川市",
    "address1": "山川町西久保",
    "address2": "",
    "regionKana": "トクシマケン",
    "localityKana": "ヨシノガワシ",
    "address1Kana": "ヤマカワチョウニシクボ",
    "address2Kana": ""
  },
  {
    "postalCode": "7793402",
    "regionId": 36,
    "region": "徳島県",
    "locality": "吉野川市",
    "address1": "山川町西麓",
    "address2": "",
    "regionKana": "トクシマケン",
    "localityKana": "ヨシノガワシ",
    "address1Kana": "ヤマカワチョウニシフモト",
    "address2Kana": ""
  },
  {
    "postalCode": "7793402",
    "regionId": 36,
    "region": "徳島県",
    "locality": "吉野川市",
    "address1": "山川町東麓",
    "address2": "",
    "regionKana": "トクシマケン",
    "localityKana": "ヨシノガワシ",
    "address1Kana": "ヤマカワチョウヒガシフモト",
    "address2Kana": ""
  },
  {
    "postalCode": "7793402",
    "regionId": 36,
    "region": "徳島県",
    "locality": "吉野川市",
    "address1": "山川町宮北",
    "address2": "",
    "regionKana": "トクシマケン",
    "localityKana": "ヨシノガワシ",
    "address1Kana": "ヤマカワチョウミヤキタ",
    "address2Kana": ""
  },
  {
    "postalCode": "7793402",
    "regionId": 36,
    "region": "徳島県",
    "locality": "吉野川市",
    "address1": "山川町宮島",
    "address2": "",
    "regionKana": "トクシマケン",
    "localityKana": "ヨシノガワシ",
    "address1Kana": "ヤマカワチョウミヤジマ",
    "address2Kana": ""
  },
  {
    "postalCode": "7793402",
    "regionId": 36,
    "region": "徳島県",
    "locality": "吉野川市",
    "address1": "山川町山路",
    "address2": "",
    "regionKana": "トクシマケン",
    "localityKana": "ヨシノガワシ",
    "address1Kana": "ヤマカワチョウヤマジ",
    "address2Kana": ""
  }
]