[
  {
    "postalCode": "7793403",
    "regionId": 36,
    "region": "徳島県",
    "locality": "吉野川市",
    "address1": "山川町春日",
    "address2": "",
    "regionKana": "トクシマケン",
    "localityKana": "ヨシノガワシ",
    "address1Kana": "ヤマカワチョウカスガ",
    "address2Kana": ""
  },
  {
    "postalCode": "7793403",
    "regionId": 36,
    "region": "徳島県",
    "locality": "吉野川市",
    "address1": "山川町北須賀",
    "address2": "",
    "regionKana": "トクシマケン",
    "localityKana": "ヨシノガワシ",
    "address1Kana": "ヤマカワチョウキタスガ",
    "address2Kana": ""
  },
  {
    "postalCode": "7793403",
    "regionId": 36,
    "region": "徳島県",
    "locality": "吉野川市",
    "address1": "山川町諏訪",
    "address2": "",
    "regionKana": "トクシマケン",
    "localityKana": "ヨシノガワシ",
    "address1Kana": "ヤマカワチョウスワ",
    "address2Kana": ""
  },
  {
    "postalCode": "7793403",
    "regionId": 36,
    "region": "徳島県",
    "locality": "吉野川市",
    "address1": "山川町堤外",
    "address2": "",
    "regionKana": "トクシマケン",
    "localityKana": "ヨシノガワシ",
    "address1Kana": "ヤマカワチョウテイガイ",
    "address2Kana": ""
  },
  {
    "postalCode": "7793403",
    "regionId": 36,
    "region": "徳島県",
    "locality": "吉野川市",
    "address1": "山川町八幡",
    "address2": "",
    "regionKana": "トクシマケン",
    "localityKana": "ヨシノガワシ",
    "address1Kana": "ヤマカワチョウハチマン",
    "address2Kana": ""
  },
  {
    "postalCode": "7793403",
    "regionId": 36,
    "region": "徳島県",
    "locality": "吉野川市",
    "address1": "山川町前川",
    "address2": "",
    "regionKana": "トクシマケン",
    "localityKana": "ヨシノガワシ",
    "address1Kana": "ヤマカワチョウマエガワ",
    "address2Kana": ""
  },
  {
    "postalCode": "7793403",
    "regionId": 36,
    "region": "徳島県",
    "locality": "吉野川市",
    "address1": "山川町三島",
    "address2": "",
    "regionKana": "トクシマケン",
    "localityKana": "ヨシノガワシ",
    "address1Kana": "ヤマカワチョウミシマ",
    "address2Kana": ""
  },
  {
    "postalCode": "7793403",
    "regionId": 36,
    "region": "徳島県",
    "locality": "吉野川市",
    "address1": "山川町若宮",
    "address2": "",
    "regionKana": "トクシマケン",
    "localityKana": "ヨシノガワシ",
    "address1Kana": "ヤマカワチョウワカミヤ",
    "address2Kana": ""
  }
]