[
  {
    "postalCode": "7793404",
    "regionId": 36,
    "region": "徳島県",
    "locality": "吉野川市",
    "address1": "山川町市久保",
    "address2": "",
    "regionKana": "トクシマケン",
    "localityKana": "ヨシノガワシ",
    "address1Kana": "ヤマカワチョウイチクボ",
    "address2Kana": ""
  },
  {
    "postalCode": "7793404",
    "regionId": 36,
    "region": "徳島県",
    "locality": "吉野川市",
    "address1": "山川町一里塚",
    "address2": "",
    "regionKana": "トクシマケン",
    "localityKana": "ヨシノガワシ",
    "address1Kana": "ヤマカワチョウイチリヅカ",
    "address2Kana": ""
  },
  {
    "postalCode": "7793404",
    "regionId": 36,
    "region": "徳島県",
    "locality": "吉野川市",
    "address1": "山川町大須賀",
    "address2": "",
    "regionKana": "トクシマケン",
    "localityKana": "ヨシノガワシ",
    "address1Kana": "ヤマカワチョウオオスカ",
    "address2Kana": ""
  },
  {
    "postalCode": "7793404",
    "regionId": 36,
    "region": "徳島県",
    "locality": "吉野川市",
    "address1": "山川町大塚",
    "address2": "",
    "regionKana": "トクシマケン",
    "localityKana": "ヨシノガワシ",
    "address1Kana": "ヤマカワチョウオオツカ",
    "address2Kana": ""
  },
  {
    "postalCode": "7793404",
    "regionId": 36,
    "region": "徳島県",
    "locality": "吉野川市",
    "address1": "山川町麻掛",
    "address2": "",
    "regionKana": "トクシマケン",
    "localityKana": "ヨシノガワシ",
    "address1Kana": "ヤマカワチョウオカケ",
    "address2Kana": ""
  },
  {
    "postalCode": "7793404",
    "regionId": 36,
    "region": "徳島県",
    "locality": "吉野川市",
    "address1": "山川町槻原",
    "address2": "",
    "regionKana": "トクシマケン",
    "localityKana": "ヨシノガワシ",
    "address1Kana": "ヤマカワチョウカエキバラ",
    "address2Kana": ""
  },
  {
    "postalCode": "7793404",
    "regionId": 36,
    "region": "徳島県",
    "locality": "吉野川市",
    "address1": "山川町川田",
    "address2": "",
    "regionKana": "トクシマケン",
    "localityKana": "ヨシノガワシ",
    "address1Kana": "ヤマカワチョウカワタ",
    "address2Kana": ""
  },
  {
    "postalCode": "7793404",
    "regionId": 36,
    "region": "徳島県",
    "locality": "吉野川市",
    "address1": "山川町川田市",
    "address2": "",
    "regionKana": "トクシマケン",
    "localityKana": "ヨシノガワシ",
    "address1Kana": "ヤマカワチョウカワタイチ",
    "address2Kana": ""
  },
  {
    "postalCode": "7793404",
    "regionId": 36,
    "region": "徳島県",
    "locality": "吉野川市",
    "address1": "山川町川田天神",
    "address2": "",
    "regionKana": "トクシマケン",
    "localityKana": "ヨシノガワシ",
    "address1Kana": "ヤマカワチョウカワタテンジン",
    "address2Kana": ""
  },
  {
    "postalCode": "7793404",
    "regionId": 36,
    "region": "徳島県",
    "locality": "吉野川市",
    "address1": "山川町北島",
    "address2": "",
    "regionKana": "トクシマケン",
    "localityKana": "ヨシノガワシ",
    "address1Kana": "ヤマカワチョウキタジマ",
    "address2Kana": ""
  },
  {
    "postalCode": "7793404",
    "regionId": 36,
    "region": "徳島県",
    "locality": "吉野川市",
    "address1": "山川町鼓山",
    "address2": "",
    "regionKana": "トクシマケン",
    "localityKana": "ヨシノガワシ",
    "address1Kana": "ヤマカワチョウツツミヤマ",
    "address2Kana": ""
  },
  {
    "postalCode": "7793404",
    "regionId": 36,
    "region": "徳島県",
    "locality": "吉野川市",
    "address1": "山川町引地",
    "address2": "",
    "regionKana": "トクシマケン",
    "localityKana": "ヨシノガワシ",
    "address1Kana": "ヤマカワチョウヒキチ",
    "address2Kana": ""
  },
  {
    "postalCode": "7793404",
    "regionId": 36,
    "region": "徳島県",
    "locality": "吉野川市",
    "address1": "山川町日知利子",
    "address2": "",
    "regionKana": "トクシマケン",
    "localityKana": "ヨシノガワシ",
    "address1Kana": "ヤマカワチョウヒヂリコ",
    "address2Kana": ""
  },
  {
    "postalCode": "7793404",
    "regionId": 36,
    "region": "徳島県",
    "locality": "吉野川市",
    "address1": "山川町藤生",
    "address2": "",
    "regionKana": "トクシマケン",
    "localityKana": "ヨシノガワシ",
    "address1Kana": "ヤマカワチョウフジショウ",
    "address2Kana": ""
  },
  {
    "postalCode": "7793404",
    "regionId": 36,
    "region": "徳島県",
    "locality": "吉野川市",
    "address1": "山川町舟戸",
    "address2": "",
    "regionKana": "トクシマケン",
    "localityKana": "ヨシノガワシ",
    "address1Kana": "ヤマカワチョウフナト",
    "address2Kana": ""
  },
  {
    "postalCode": "7793404",
    "regionId": 36,
    "region": "徳島県",
    "locality": "吉野川市",
    "address1": "山川町湯立",
    "address2": "",
    "regionKana": "トクシマケン",
    "localityKana": "ヨシノガワシ",
    "address1Kana": "ヤマカワチョウユダテ",
    "address2Kana": ""
  }
]