[
  {
    "postalCode": "7793405",
    "regionId": 36,
    "region": "徳島県",
    "locality": "吉野川市",
    "address1": "山川町赤刎",
    "address2": "",
    "regionKana": "トクシマケン",
    "localityKana": "ヨシノガワシ",
    "address1Kana": "ヤマカワチョウアカハネ",
    "address2Kana": ""
  },
  {
    "postalCode": "7793405",
    "regionId": 36,
    "region": "徳島県",
    "locality": "吉野川市",
    "address1": "山川町伊端穂",
    "address2": "",
    "regionKana": "トクシマケン",
    "localityKana": "ヨシノガワシ",
    "address1Kana": "ヤマカワチョウイズホ",
    "address2Kana": ""
  },
  {
    "postalCode": "7793405",
    "regionId": 36,
    "region": "徳島県",
    "locality": "吉野川市",
    "address1": "山川町井上",
    "address2": "",
    "regionKana": "トクシマケン",
    "localityKana": "ヨシノガワシ",
    "address1Kana": "ヤマカワチョウイノウエ",
    "address2Kana": ""
  },
  {
    "postalCode": "7793405",
    "regionId": 36,
    "region": "徳島県",
    "locality": "吉野川市",
    "address1": "山川町井傍",
    "address2": "",
    "regionKana": "トクシマケン",
    "localityKana": "ヨシノガワシ",
    "address1Kana": "ヤマカワチョウイノソバ",
    "address2Kana": ""
  },
  {
    "postalCode": "7793405",
    "regionId": 36,
    "region": "徳島県",
    "locality": "吉野川市",
    "address1": "山川町牛ノ子尾",
    "address2": "",
    "regionKana": "トクシマケン",
    "localityKana": "ヨシノガワシ",
    "address1Kana": "ヤマカワチョウウシノコオ",
    "address2Kana": ""
  },
  {
    "postalCode": "7793405",
    "regionId": 36,
    "region": "徳島県",
    "locality": "吉野川市",
    "address1": "山川町大藤谷",
    "address2": "",
    "regionKana": "トクシマケン",
    "localityKana": "ヨシノガワシ",
    "address1Kana": "ヤマカワチョウオオトダニ",
    "address2Kana": ""
  },
  {
    "postalCode": "7793405",
    "regionId": 36,
    "region": "徳島県",
    "locality": "吉野川市",
    "address1": "山川町大峰",
    "address2": "",
    "regionKana": "トクシマケン",
    "localityKana": "ヨシノガワシ",
    "address1Kana": "ヤマカワチョウオオミネ",
    "address2Kana": ""
  },
  {
    "postalCode": "7793405",
    "regionId": 36,
    "region": "徳島県",
    "locality": "吉野川市",
    "address1": "山川町大室",
    "address2": "",
    "regionKana": "トクシマケン",
    "localityKana": "ヨシノガワシ",
    "address1Kana": "ヤマカワチョウオオムロ",
    "address2Kana": ""
  },
  {
    "postalCode": "7793405",
    "regionId": 36,
    "region": "徳島県",
    "locality": "吉野川市",
    "address1": "山川町奥原",
    "address2": "",
    "regionKana": "トクシマケン",
    "localityKana": "ヨシノガワシ",
    "address1Kana": "ヤマカワチョウオクバラ",
    "address2Kana": ""
  },
  {
    "postalCode": "7793405",
    "regionId": 36,
    "region": "徳島県",
    "locality": "吉野川市",
    "address1": "山川町柿木谷",
    "address2": "",
    "regionKana": "トクシマケン",
    "localityKana": "ヨシノガワシ",
    "address1Kana": "ヤマカワチョウカキノキダニ",
    "address2Kana": ""
  },
  {
    "postalCode": "7793405",
    "regionId": 36,
    "region": "徳島県",
    "locality": "吉野川市",
    "address1": "山川町楮本",
    "address2": "",
    "regionKana": "トクシマケン",
    "localityKana": "ヨシノガワシ",
    "address1Kana": "ヤマカワチョウカシノモト",
    "address2Kana": ""
  },
  {
    "postalCode": "7793405",
    "regionId": 36,
    "region": "徳島県",
    "locality": "吉野川市",
    "address1": "山川町片岸",
    "address2": "",
    "regionKana": "トクシマケン",
    "localityKana": "ヨシノガワシ",
    "address1Kana": "ヤマカワチョウカタギシ",
    "address2Kana": ""
  },
  {
    "postalCode": "7793405",
    "regionId": 36,
    "region": "徳島県",
    "locality": "吉野川市",
    "address1": "山川町川田八幡",
    "address2": "",
    "regionKana": "トクシマケン",
    "localityKana": "ヨシノガワシ",
    "address1Kana": "ヤマカワチョウカワタハチマン",
    "address2Kana": ""
  },
  {
    "postalCode": "7793405",
    "regionId": 36,
    "region": "徳島県",
    "locality": "吉野川市",
    "address1": "山川町木戸口",
    "address2": "",
    "regionKana": "トクシマケン",
    "localityKana": "ヨシノガワシ",
    "address1Kana": "ヤマカワチョウキドグチ",
    "address2Kana": ""
  },
  {
    "postalCode": "7793405",
    "regionId": 36,
    "region": "徳島県",
    "locality": "吉野川市",
    "address1": "山川町黒岩",
    "address2": "",
    "regionKana": "トクシマケン",
    "localityKana": "ヨシノガワシ",
    "address1Kana": "ヤマカワチョウクロイワ",
    "address2Kana": ""
  },
  {
    "postalCode": "7793405",
    "regionId": 36,
    "region": "徳島県",
    "locality": "吉野川市",
    "address1": "山川町桑ノ峰",
    "address2": "",
    "regionKana": "トクシマケン",
    "localityKana": "ヨシノガワシ",
    "address1Kana": "ヤマカワチョウクワノミネ",
    "address2Kana": ""
  },
  {
    "postalCode": "7793405",
    "regionId": 36,
    "region": "徳島県",
    "locality": "吉野川市",
    "address1": "山川町高頭",
    "address2": "",
    "regionKana": "トクシマケン",
    "localityKana": "ヨシノガワシ",
    "address1Kana": "ヤマカワチョウコウズ",
    "address2Kana": ""
  },
  {
    "postalCode": "7793405",
    "regionId": 36,
    "region": "徳島県",
    "locality": "吉野川市",
    "address1": "山川町御饌免",
    "address2": "",
    "regionKana": "トクシマケン",
    "localityKana": "ヨシノガワシ",
    "address1Kana": "ヤマカワチョウゴセンメン",
    "address2Kana": ""
  },
  {
    "postalCode": "7793405",
    "regionId": 36,
    "region": "徳島県",
    "locality": "吉野川市",
    "address1": "山川町御旅館",
    "address2": "",
    "regionKana": "トクシマケン",
    "localityKana": "ヨシノガワシ",
    "address1Kana": "ヤマカワチョウゴリョカン",
    "address2Kana": ""
  },
  {
    "postalCode": "7793405",
    "regionId": 36,
    "region": "徳島県",
    "locality": "吉野川市",
    "address1": "山川町権現谷",
    "address2": "",
    "regionKana": "トクシマケン",
    "localityKana": "ヨシノガワシ",
    "address1Kana": "ヤマカワチョウゴンゲンダニ",
    "address2Kana": ""
  },
  {
    "postalCode": "7793405",
    "regionId": 36,
    "region": "徳島県",
    "locality": "吉野川市",
    "address1": "山川町坂口",
    "address2": "",
    "regionKana": "トクシマケン",
    "localityKana": "ヨシノガワシ",
    "address1Kana": "ヤマカワチョウサカグチ",
    "address2Kana": ""
  },
  {
    "postalCode": "7793405",
    "regionId": 36,
    "region": "徳島県",
    "locality": "吉野川市",
    "address1": "山川町貞田",
    "address2": "",
    "regionKana": "トクシマケン",
    "localityKana": "ヨシノガワシ",
    "address1Kana": "ヤマカワチョウサダタ",
    "address2Kana": ""
  },
  {
    "postalCode": "7793405",
    "regionId": 36,
    "region": "徳島県",
    "locality": "吉野川市",
    "address1": "山川町小路",
    "address2": "",
    "regionKana": "トクシマケン",
    "localityKana": "ヨシノガワシ",
    "address1Kana": "ヤマカワチョウショウジ",
    "address2Kana": ""
  },
  {
    "postalCode": "7793405",
    "regionId": 36,
    "region": "徳島県",
    "locality": "吉野川市",
    "address1": "山川町瀬津",
    "address2": "",
    "regionKana": "トクシマケン",
    "localityKana": "ヨシノガワシ",
    "address1Kana": "ヤマカワチョウセヅ",
    "address2Kana": ""
  },
  {
    "postalCode": "7793405",
    "regionId": 36,
    "region": "徳島県",
    "locality": "吉野川市",
    "address1": "山川町田ノ浦",
    "address2": "",
    "regionKana": "トクシマケン",
    "localityKana": "ヨシノガワシ",
    "address1Kana": "ヤマカワチョウタノウラ",
    "address2Kana": ""
  },
  {
    "postalCode": "7793405",
    "regionId": 36,
    "region": "徳島県",
    "locality": "吉野川市",
    "address1": "山川町塚穴",
    "address2": "",
    "regionKana": "トクシマケン",
    "localityKana": "ヨシノガワシ",
    "address1Kana": "ヤマカワチョウツカアナ",
    "address2Kana": ""
  },
  {
    "postalCode": "7793405",
    "regionId": 36,
    "region": "徳島県",
    "locality": "吉野川市",
    "address1": "山川町土仏西向",
    "address2": "",
    "regionKana": "トクシマケン",
    "localityKana": "ヨシノガワシ",
    "address1Kana": "ヤマカワチョウツチボトケニシムカイ",
    "address2Kana": ""
  },
  {
    "postalCode": "7793405",
    "regionId": 36,
    "region": "徳島県",
    "locality": "吉野川市",
    "address1": "山川町天神佐古",
    "address2": "",
    "regionKana": "トクシマケン",
    "localityKana": "ヨシノガワシ",
    "address1Kana": "ヤマカワチョウテンジンサコ",
    "address2Kana": ""
  },
  {
    "postalCode": "7793405",
    "regionId": 36,
    "region": "徳島県",
    "locality": "吉野川市",
    "address1": "山川町天王原",
    "address2": "",
    "regionKana": "トクシマケン",
    "localityKana": "ヨシノガワシ",
    "address1Kana": "ヤマカワチョウテンノウバラ",
    "address2Kana": ""
  },
  {
    "postalCode": "7793405",
    "regionId": 36,
    "region": "徳島県",
    "locality": "吉野川市",
    "address1": "山川町土橋",
    "address2": "",
    "regionKana": "トクシマケン",
    "localityKana": "ヨシノガワシ",
    "address1Kana": "ヤマカワチョウドバシ",
    "address2Kana": ""
  },
  {
    "postalCode": "7793405",
    "regionId": 36,
    "region": "徳島県",
    "locality": "吉野川市",
    "address1": "山川町土橋ノ上",
    "address2": "",
    "regionKana": "トクシマケン",
    "localityKana": "ヨシノガワシ",
    "address1Kana": "ヤマカワチョウドバシノウエ",
    "address2Kana": ""
  },
  {
    "postalCode": "7793405",
    "regionId": 36,
    "region": "徳島県",
    "locality": "吉野川市",
    "address1": "山川町中ノ郷",
    "address2": "",
    "regionKana": "トクシマケン",
    "localityKana": "ヨシノガワシ",
    "address1Kana": "ヤマカワチョウナカノゴウ",
    "address2Kana": ""
  },
  {
    "postalCode": "7793405",
    "regionId": 36,
    "region": "徳島県",
    "locality": "吉野川市",
    "address1": "山川町鍋倉",
    "address2": "",
    "regionKana": "トクシマケン",
    "localityKana": "ヨシノガワシ",
    "address1Kana": "ヤマカワチョウナベクラ",
    "address2Kana": ""
  },
  {
    "postalCode": "7793405",
    "regionId": 36,
    "region": "徳島県",
    "locality": "吉野川市",
    "address1": "山川町野宮谷",
    "address2": "",
    "regionKana": "トクシマケン",
    "localityKana": "ヨシノガワシ",
    "address1Kana": "ヤマカワチョウノミヤダニ",
    "address2Kana": ""
  },
  {
    "postalCode": "7793405",
    "regionId": 36,
    "region": "徳島県",
    "locality": "吉野川市",
    "address1": "山川町八ケ久保",
    "address2": "",
    "regionKana": "トクシマケン",
    "localityKana": "ヨシノガワシ",
    "address1Kana": "ヤマカワチョウハチガクボ",
    "address2Kana": ""
  },
  {
    "postalCode": "7793405",
    "regionId": 36,
    "region": "徳島県",
    "locality": "吉野川市",
    "address1": "山川町榛木原",
    "address2": "",
    "regionKana": "トクシマケン",
    "localityKana": "ヨシノガワシ",
    "address1Kana": "ヤマカワチョウハリノキバラ",
    "address2Kana": ""
  },
  {
    "postalCode": "7793405",
    "regionId": 36,
    "region": "徳島県",
    "locality": "吉野川市",
    "address1": "山川町一ツ石",
    "address2": "",
    "regionKana": "トクシマケン",
    "localityKana": "ヨシノガワシ",
    "address1Kana": "ヤマカワチョウヒトツイシ",
    "address2Kana": ""
  },
  {
    "postalCode": "7793405",
    "regionId": 36,
    "region": "徳島県",
    "locality": "吉野川市",
    "address1": "山川町平山",
    "address2": "",
    "regionKana": "トクシマケン",
    "localityKana": "ヨシノガワシ",
    "address1Kana": "ヤマカワチョウヒラヤマ",
    "address2Kana": ""
  },
  {
    "postalCode": "7793405",
    "regionId": 36,
    "region": "徳島県",
    "locality": "吉野川市",
    "address1": "山川町日鷲谷",
    "address2": "",
    "regionKana": "トクシマケン",
    "localityKana": "ヨシノガワシ",
    "address1Kana": "ヤマカワチョウヒワシダニ",
    "address2Kana": ""
  },
  {
    "postalCode": "7793405",
    "regionId": 36,
    "region": "徳島県",
    "locality": "吉野川市",
    "address1": "山川町宮谷",
    "address2": "",
    "regionKana": "トクシマケン",
    "localityKana": "ヨシノガワシ",
    "address1Kana": "ヤマカワチョウミヤダニ",
    "address2Kana": ""
  },
  {
    "postalCode": "7793405",
    "regionId": 36,
    "region": "徳島県",
    "locality": "吉野川市",
    "address1": "山川町村雲",
    "address2": "",
    "regionKana": "トクシマケン",
    "localityKana": "ヨシノガワシ",
    "address1Kana": "ヤマカワチョウムラクモ",
    "address2Kana": ""
  },
  {
    "postalCode": "7793405",
    "regionId": 36,
    "region": "徳島県",
    "locality": "吉野川市",
    "address1": "山川町茂草",
    "address2": "",
    "regionKana": "トクシマケン",
    "localityKana": "ヨシノガワシ",
    "address1Kana": "ヤマカワチョウモソウ",
    "address2Kana": ""
  },
  {
    "postalCode": "7793405",
    "regionId": 36,
    "region": "徳島県",
    "locality": "吉野川市",
    "address1": "山川町矢落",
    "address2": "",
    "regionKana": "トクシマケン",
    "localityKana": "ヨシノガワシ",
    "address1Kana": "ヤマカワチョウヤオチ",
    "address2Kana": ""
  },
  {
    "postalCode": "7793405",
    "regionId": 36,
    "region": "徳島県",
    "locality": "吉野川市",
    "address1": "山川町木綿麻山",
    "address2": "",
    "regionKana": "トクシマケン",
    "localityKana": "ヨシノガワシ",
    "address1Kana": "ヤマカワチョウユウマヤマ",
    "address2Kana": ""
  }
]