[
  {
    "postalCode": "7793406",
    "regionId": 36,
    "region": "徳島県",
    "locality": "吉野川市",
    "address1": "山川町榎谷",
    "address2": "",
    "regionKana": "トクシマケン",
    "localityKana": "ヨシノガワシ",
    "address1Kana": "ヤマカワチョウエノキダニ",
    "address2Kana": ""
  },
  {
    "postalCode": "7793406",
    "regionId": 36,
    "region": "徳島県",
    "locality": "吉野川市",
    "address1": "山川町大内",
    "address2": "",
    "regionKana": "トクシマケン",
    "localityKana": "ヨシノガワシ",
    "address1Kana": "ヤマカワチョウオオウチ",
    "address2Kana": ""
  },
  {
    "postalCode": "7793406",
    "regionId": 36,
    "region": "徳島県",
    "locality": "吉野川市",
    "address1": "山川町奥川田",
    "address2": "",
    "regionKana": "トクシマケン",
    "localityKana": "ヨシノガワシ",
    "address1Kana": "ヤマカワチョウオクカワタ",
    "address2Kana": ""
  },
  {
    "postalCode": "7793406",
    "regionId": 36,
    "region": "徳島県",
    "locality": "吉野川市",
    "address1": "山川町奥野井",
    "address2": "",
    "regionKana": "トクシマケン",
    "localityKana": "ヨシノガワシ",
    "address1Kana": "ヤマカワチョウオクノイ",
    "address2Kana": ""
  },
  {
    "postalCode": "7793406",
    "regionId": 36,
    "region": "徳島県",
    "locality": "吉野川市",
    "address1": "山川町皆瀬",
    "address2": "",
    "regionKana": "トクシマケン",
    "localityKana": "ヨシノガワシ",
    "address1Kana": "ヤマカワチョウカイゼ",
    "address2Kana": ""
  },
  {
    "postalCode": "7793406",
    "regionId": 36,
    "region": "徳島県",
    "locality": "吉野川市",
    "address1": "山川町楠根地",
    "address2": "",
    "regionKana": "トクシマケン",
    "localityKana": "ヨシノガワシ",
    "address1Kana": "ヤマカワチョウクスネジ",
    "address2Kana": ""
  },
  {
    "postalCode": "7793406",
    "regionId": 36,
    "region": "徳島県",
    "locality": "吉野川市",
    "address1": "山川町桑内",
    "address2": "",
    "regionKana": "トクシマケン",
    "localityKana": "ヨシノガワシ",
    "address1Kana": "ヤマカワチョウクワウチ",
    "address2Kana": ""
  },
  {
    "postalCode": "7793406",
    "regionId": 36,
    "region": "徳島県",
    "locality": "吉野川市",
    "address1": "山川町西野峰",
    "address2": "",
    "regionKana": "トクシマケン",
    "localityKana": "ヨシノガワシ",
    "address1Kana": "ヤマカワチョウニシノミネ",
    "address2Kana": ""
  },
  {
    "postalCode": "7793406",
    "regionId": 36,
    "region": "徳島県",
    "locality": "吉野川市",
    "address1": "山川町久宗",
    "address2": "",
    "regionKana": "トクシマケン",
    "localityKana": "ヨシノガワシ",
    "address1Kana": "ヤマカワチョウヒサムネ",
    "address2Kana": ""
  },
  {
    "postalCode": "7793406",
    "regionId": 36,
    "region": "徳島県",
    "locality": "吉野川市",
    "address1": "山川町馬見尾",
    "address2": "",
    "regionKana": "トクシマケン",
    "localityKana": "ヨシノガワシ",
    "address1Kana": "ヤマカワチョウマミオ",
    "address2Kana": ""
  }
]