[
  {
    "postalCode": "7793501",
    "regionId": 36,
    "region": "徳島県",
    "locality": "吉野川市",
    "address1": "美郷愛後",
    "address2": "",
    "regionKana": "トクシマケン",
    "localityKana": "ヨシノガワシ",
    "address1Kana": "ミサトアイゴ",
    "address2Kana": ""
  },
  {
    "postalCode": "7793501",
    "regionId": 36,
    "region": "徳島県",
    "locality": "吉野川市",
    "address1": "美郷穴地",
    "address2": "",
    "regionKana": "トクシマケン",
    "localityKana": "ヨシノガワシ",
    "address1Kana": "ミサトアナジ",
    "address2Kana": ""
  },
  {
    "postalCode": "7793501",
    "regionId": 36,
    "region": "徳島県",
    "locality": "吉野川市",
    "address1": "美郷一野山",
    "address2": "",
    "regionKana": "トクシマケン",
    "localityKana": "ヨシノガワシ",
    "address1Kana": "ミサトイチノヤマ",
    "address2Kana": ""
  },
  {
    "postalCode": "7793501",
    "regionId": 36,
    "region": "徳島県",
    "locality": "吉野川市",
    "address1": "美郷大神",
    "address2": "",
    "regionKana": "トクシマケン",
    "localityKana": "ヨシノガワシ",
    "address1Kana": "ミサトオオガミ",
    "address2Kana": ""
  },
  {
    "postalCode": "7793501",
    "regionId": 36,
    "region": "徳島県",
    "locality": "吉野川市",
    "address1": "美郷大平",
    "address2": "",
    "regionKana": "トクシマケン",
    "localityKana": "ヨシノガワシ",
    "address1Kana": "ミサトオオヒラ",
    "address2Kana": ""
  },
  {
    "postalCode": "7793501",
    "regionId": 36,
    "region": "徳島県",
    "locality": "吉野川市",
    "address1": "美郷柿谷",
    "address2": "",
    "regionKana": "トクシマケン",
    "localityKana": "ヨシノガワシ",
    "address1Kana": "ミサトカキダニ",
    "address2Kana": ""
  },
  {
    "postalCode": "7793501",
    "regionId": 36,
    "region": "徳島県",
    "locality": "吉野川市",
    "address1": "美郷倉羅",
    "address2": "",
    "regionKana": "トクシマケン",
    "localityKana": "ヨシノガワシ",
    "address1Kana": "ミサトクララ",
    "address2Kana": ""
  },
  {
    "postalCode": "7793501",
    "regionId": 36,
    "region": "徳島県",
    "locality": "吉野川市",
    "address1": "美郷古井",
    "address2": "",
    "regionKana": "トクシマケン",
    "localityKana": "ヨシノガワシ",
    "address1Kana": "ミサトコイ",
    "address2Kana": ""
  },
  {
    "postalCode": "7793501",
    "regionId": 36,
    "region": "徳島県",
    "locality": "吉野川市",
    "address1": "美郷重野尾",
    "address2": "",
    "regionKana": "トクシマケン",
    "localityKana": "ヨシノガワシ",
    "address1Kana": "ミサトシゲノオ",
    "address2Kana": ""
  },
  {
    "postalCode": "7793501",
    "regionId": 36,
    "region": "徳島県",
    "locality": "吉野川市",
    "address1": "美郷下浦",
    "address2": "",
    "regionKana": "トクシマケン",
    "localityKana": "ヨシノガワシ",
    "address1Kana": "ミサトシモウラ",
    "address2Kana": ""
  },
  {
    "postalCode": "7793501",
    "regionId": 36,
    "region": "徳島県",
    "locality": "吉野川市",
    "address1": "美郷下城戸",
    "address2": "",
    "regionKana": "トクシマケン",
    "localityKana": "ヨシノガワシ",
    "address1Kana": "ミサトシモジョウド",
    "address2Kana": ""
  },
  {
    "postalCode": "7793501",
    "regionId": 36,
    "region": "徳島県",
    "locality": "吉野川市",
    "address1": "美郷上戸峯",
    "address2": "",
    "regionKana": "トクシマケン",
    "localityKana": "ヨシノガワシ",
    "address1Kana": "ミサトジョウドミネ",
    "address2Kana": ""
  },
  {
    "postalCode": "7793501",
    "regionId": 36,
    "region": "徳島県",
    "locality": "吉野川市",
    "address1": "美郷平",
    "address2": "",
    "regionKana": "トクシマケン",
    "localityKana": "ヨシノガワシ",
    "address1Kana": "ミサトタイラ",
    "address2Kana": ""
  },
  {
    "postalCode": "7793501",
    "regionId": 36,
    "region": "徳島県",
    "locality": "吉野川市",
    "address1": "美郷滝ケ山",
    "address2": "",
    "regionKana": "トクシマケン",
    "localityKana": "ヨシノガワシ",
    "address1Kana": "ミサトタキガヤマ",
    "address2Kana": ""
  },
  {
    "postalCode": "7793501",
    "regionId": 36,
    "region": "徳島県",
    "locality": "吉野川市",
    "address1": "美郷田平",
    "address2": "",
    "regionKana": "トクシマケン",
    "localityKana": "ヨシノガワシ",
    "address1Kana": "ミサトタダイラ",
    "address2Kana": ""
  },
  {
    "postalCode": "7793501",
    "regionId": 36,
    "region": "徳島県",
    "locality": "吉野川市",
    "address1": "美郷照尾",
    "address2": "",
    "regionKana": "トクシマケン",
    "localityKana": "ヨシノガワシ",
    "address1Kana": "ミサトテラオ",
    "address2Kana": ""
  },
  {
    "postalCode": "7793501",
    "regionId": 36,
    "region": "徳島県",
    "locality": "吉野川市",
    "address1": "美郷張",
    "address2": "",
    "regionKana": "トクシマケン",
    "localityKana": "ヨシノガワシ",
    "address1Kana": "ミサトハリ",
    "address2Kana": ""
  },
  {
    "postalCode": "7793501",
    "regionId": 36,
    "region": "徳島県",
    "locality": "吉野川市",
    "address1": "美郷張峯",
    "address2": "",
    "regionKana": "トクシマケン",
    "localityKana": "ヨシノガワシ",
    "address1Kana": "ミサトハリミネ",
    "address2Kana": ""
  },
  {
    "postalCode": "7793501",
    "regionId": 36,
    "region": "徳島県",
    "locality": "吉野川市",
    "address1": "美郷宮倉",
    "address2": "",
    "regionKana": "トクシマケン",
    "localityKana": "ヨシノガワシ",
    "address1Kana": "ミサトミヤグラ",
    "address2Kana": ""
  },
  {
    "postalCode": "7793501",
    "regionId": 36,
    "region": "徳島県",
    "locality": "吉野川市",
    "address1": "美郷宗田",
    "address2": "",
    "regionKana": "トクシマケン",
    "localityKana": "ヨシノガワシ",
    "address1Kana": "ミサトムネダ",
    "address2Kana": ""
  }
]