[
  {
    "postalCode": "7793502",
    "regionId": 36,
    "region": "徳島県",
    "locality": "吉野川市",
    "address1": "美郷大岸",
    "address2": "",
    "regionKana": "トクシマケン",
    "localityKana": "ヨシノガワシ",
    "address1Kana": "ミサトオオギシ",
    "address2Kana": ""
  },
  {
    "postalCode": "7793502",
    "regionId": 36,
    "region": "徳島県",
    "locality": "吉野川市",
    "address1": "美郷大佐古",
    "address2": "",
    "regionKana": "トクシマケン",
    "localityKana": "ヨシノガワシ",
    "address1Kana": "ミサトオオザコ",
    "address2Kana": ""
  },
  {
    "postalCode": "7793502",
    "regionId": 36,
    "region": "徳島県",
    "locality": "吉野川市",
    "address1": "美郷奥分",
    "address2": "",
    "regionKana": "トクシマケン",
    "localityKana": "ヨシノガワシ",
    "address1Kana": "ミサトオクブン",
    "address2Kana": ""
  },
  {
    "postalCode": "7793502",
    "regionId": 36,
    "region": "徳島県",
    "locality": "吉野川市",
    "address1": "美郷樫平",
    "address2": "",
    "regionKana": "トクシマケン",
    "localityKana": "ヨシノガワシ",
    "address1Kana": "ミサトカシダイラ",
    "address2Kana": ""
  },
  {
    "postalCode": "7793502",
    "regionId": 36,
    "region": "徳島県",
    "locality": "吉野川市",
    "address1": "美郷川向",
    "address2": "",
    "regionKana": "トクシマケン",
    "localityKana": "ヨシノガワシ",
    "address1Kana": "ミサトカワムカイ",
    "address2Kana": ""
  },
  {
    "postalCode": "7793502",
    "regionId": 36,
    "region": "徳島県",
    "locality": "吉野川市",
    "address1": "美郷岸宗",
    "address2": "",
    "regionKana": "トクシマケン",
    "localityKana": "ヨシノガワシ",
    "address1Kana": "ミサトキシノムネ",
    "address2Kana": ""
  },
  {
    "postalCode": "7793502",
    "regionId": 36,
    "region": "徳島県",
    "locality": "吉野川市",
    "address1": "美郷小竹",
    "address2": "",
    "regionKana": "トクシマケン",
    "localityKana": "ヨシノガワシ",
    "address1Kana": "ミサトコダケ",
    "address2Kana": ""
  },
  {
    "postalCode": "7793502",
    "regionId": 36,
    "region": "徳島県",
    "locality": "吉野川市",
    "address1": "美郷下畠",
    "address2": "",
    "regionKana": "トクシマケン",
    "localityKana": "ヨシノガワシ",
    "address1Kana": "ミサトシモハタ",
    "address2Kana": ""
  },
  {
    "postalCode": "7793502",
    "regionId": 36,
    "region": "徳島県",
    "locality": "吉野川市",
    "address1": "美郷下林",
    "address2": "",
    "regionKana": "トクシマケン",
    "localityKana": "ヨシノガワシ",
    "address1Kana": "ミサトシモバヤシ",
    "address2Kana": ""
  },
  {
    "postalCode": "7793502",
    "regionId": 36,
    "region": "徳島県",
    "locality": "吉野川市",
    "address1": "美郷竹屋敷",
    "address2": "",
    "regionKana": "トクシマケン",
    "localityKana": "ヨシノガワシ",
    "address1Kana": "ミサトタケヤシキ",
    "address2Kana": ""
  },
  {
    "postalCode": "7793502",
    "regionId": 36,
    "region": "徳島県",
    "locality": "吉野川市",
    "address1": "美郷立石",
    "address2": "",
    "regionKana": "トクシマケン",
    "localityKana": "ヨシノガワシ",
    "address1Kana": "ミサトタテイシ",
    "address2Kana": ""
  },
  {
    "postalCode": "7793502",
    "regionId": 36,
    "region": "徳島県",
    "locality": "吉野川市",
    "address1": "美郷谷向",
    "address2": "",
    "regionKana": "トクシマケン",
    "localityKana": "ヨシノガワシ",
    "address1Kana": "ミサトタニムカイ",
    "address2Kana": ""
  },
  {
    "postalCode": "7793502",
    "regionId": 36,
    "region": "徳島県",
    "locality": "吉野川市",
    "address1": "美郷中畠",
    "address2": "",
    "regionKana": "トクシマケン",
    "localityKana": "ヨシノガワシ",
    "address1Kana": "ミサトナカハタ",
    "address2Kana": ""
  },
  {
    "postalCode": "7793502",
    "regionId": 36,
    "region": "徳島県",
    "locality": "吉野川市",
    "address1": "美郷中分",
    "address2": "",
    "regionKana": "トクシマケン",
    "localityKana": "ヨシノガワシ",
    "address1Kana": "ミサトナカブン",
    "address2Kana": ""
  },
  {
    "postalCode": "7793502",
    "regionId": 36,
    "region": "徳島県",
    "locality": "吉野川市",
    "address1": "美郷中村中筋",
    "address2": "",
    "regionKana": "トクシマケン",
    "localityKana": "ヨシノガワシ",
    "address1Kana": "ミサトナカムラナカスジ",
    "address2Kana": ""
  },
  {
    "postalCode": "7793502",
    "regionId": 36,
    "region": "徳島県",
    "locality": "吉野川市",
    "address1": "美郷西條",
    "address2": "",
    "regionKana": "トクシマケン",
    "localityKana": "ヨシノガワシ",
    "address1Kana": "ミサトニシジョウ",
    "address2Kana": ""
  },
  {
    "postalCode": "7793502",
    "regionId": 36,
    "region": "徳島県",
    "locality": "吉野川市",
    "address1": "美郷西谷",
    "address2": "",
    "regionKana": "トクシマケン",
    "localityKana": "ヨシノガワシ",
    "address1Kana": "ミサトニシタニ",
    "address2Kana": ""
  },
  {
    "postalCode": "7793502",
    "regionId": 36,
    "region": "徳島県",
    "locality": "吉野川市",
    "address1": "美郷西畠",
    "address2": "",
    "regionKana": "トクシマケン",
    "localityKana": "ヨシノガワシ",
    "address1Kana": "ミサトニシハタ",
    "address2Kana": ""
  },
  {
    "postalCode": "7793502",
    "regionId": 36,
    "region": "徳島県",
    "locality": "吉野川市",
    "address1": "美郷西槇山",
    "address2": "",
    "regionKana": "トクシマケン",
    "localityKana": "ヨシノガワシ",
    "address1Kana": "ミサトニシマキヤマ",
    "address2Kana": ""
  },
  {
    "postalCode": "7793502",
    "regionId": 36,
    "region": "徳島県",
    "locality": "吉野川市",
    "address1": "美郷日浦",
    "address2": "",
    "regionKana": "トクシマケン",
    "localityKana": "ヨシノガワシ",
    "address1Kana": "ミサトヒウラ",
    "address2Kana": ""
  },
  {
    "postalCode": "7793502",
    "regionId": 36,
    "region": "徳島県",
    "locality": "吉野川市",
    "address1": "美郷東",
    "address2": "",
    "regionKana": "トクシマケン",
    "localityKana": "ヨシノガワシ",
    "address1Kana": "ミサトヒガシ",
    "address2Kana": ""
  },
  {
    "postalCode": "7793502",
    "regionId": 36,
    "region": "徳島県",
    "locality": "吉野川市",
    "address1": "美郷東條",
    "address2": "",
    "regionKana": "トクシマケン",
    "localityKana": "ヨシノガワシ",
    "address1Kana": "ミサトヒガシジョウ",
    "address2Kana": ""
  },
  {
    "postalCode": "7793502",
    "regionId": 36,
    "region": "徳島県",
    "locality": "吉野川市",
    "address1": "美郷東槇山",
    "address2": "",
    "regionKana": "トクシマケン",
    "localityKana": "ヨシノガワシ",
    "address1Kana": "ミサトヒガシマキヤマ",
    "address2Kana": ""
  },
  {
    "postalCode": "7793502",
    "regionId": 36,
    "region": "徳島県",
    "locality": "吉野川市",
    "address1": "美郷槇山",
    "address2": "",
    "regionKana": "トクシマケン",
    "localityKana": "ヨシノガワシ",
    "address1Kana": "ミサトマキヤマ",
    "address2Kana": ""
  },
  {
    "postalCode": "7793502",
    "regionId": 36,
    "region": "徳島県",
    "locality": "吉野川市",
    "address1": "美郷松尾",
    "address2": "",
    "regionKana": "トクシマケン",
    "localityKana": "ヨシノガワシ",
    "address1Kana": "ミサトマツオ",
    "address2Kana": ""
  },
  {
    "postalCode": "7793502",
    "regionId": 36,
    "region": "徳島県",
    "locality": "吉野川市",
    "address1": "美郷矢ノ丸",
    "address2": "",
    "regionKana": "トクシマケン",
    "localityKana": "ヨシノガワシ",
    "address1Kana": "ミサトヤノマル",
    "address2Kana": ""
  }
]