[
  {
    "postalCode": "7793505",
    "regionId": 36,
    "region": "徳島県",
    "locality": "吉野川市",
    "address1": "美郷恵美子",
    "address2": "",
    "regionKana": "トクシマケン",
    "localityKana": "ヨシノガワシ",
    "address1Kana": "ミサトエビス",
    "address2Kana": ""
  },
  {
    "postalCode": "7793505",
    "regionId": 36,
    "region": "徳島県",
    "locality": "吉野川市",
    "address1": "美郷大鹿",
    "address2": "",
    "regionKana": "トクシマケン",
    "localityKana": "ヨシノガワシ",
    "address1Kana": "ミサトオオジカ",
    "address2Kana": ""
  },
  {
    "postalCode": "7793505",
    "regionId": 36,
    "region": "徳島県",
    "locality": "吉野川市",
    "address1": "美郷大野",
    "address2": "",
    "regionKana": "トクシマケン",
    "localityKana": "ヨシノガワシ",
    "address1Kana": "ミサトオオノ",
    "address2Kana": ""
  },
  {
    "postalCode": "7793505",
    "regionId": 36,
    "region": "徳島県",
    "locality": "吉野川市",
    "address1": "美郷奥丸",
    "address2": "",
    "regionKana": "トクシマケン",
    "localityKana": "ヨシノガワシ",
    "address1Kana": "ミサトオクマル",
    "address2Kana": ""
  },
  {
    "postalCode": "7793505",
    "regionId": 36,
    "region": "徳島県",
    "locality": "吉野川市",
    "address1": "美郷上谷",
    "address2": "",
    "regionKana": "トクシマケン",
    "localityKana": "ヨシノガワシ",
    "address1Kana": "ミサトカミダニ",
    "address2Kana": ""
  },
  {
    "postalCode": "7793505",
    "regionId": 36,
    "region": "徳島県",
    "locality": "吉野川市",
    "address1": "美郷栗木",
    "address2": "",
    "regionKana": "トクシマケン",
    "localityKana": "ヨシノガワシ",
    "address1Kana": "ミサトクリノキ",
    "address2Kana": ""
  },
  {
    "postalCode": "7793505",
    "regionId": 36,
    "region": "徳島県",
    "locality": "吉野川市",
    "address1": "美郷来見坂",
    "address2": "",
    "regionKana": "トクシマケン",
    "localityKana": "ヨシノガワシ",
    "address1Kana": "ミサトクルミザカ",
    "address2Kana": ""
  },
  {
    "postalCode": "7793505",
    "regionId": 36,
    "region": "徳島県",
    "locality": "吉野川市",
    "address1": "美郷暮石",
    "address2": "",
    "regionKana": "トクシマケン",
    "localityKana": "ヨシノガワシ",
    "address1Kana": "ミサトクレイシ",
    "address2Kana": ""
  },
  {
    "postalCode": "7793505",
    "regionId": 36,
    "region": "徳島県",
    "locality": "吉野川市",
    "address1": "美郷古土地",
    "address2": "",
    "regionKana": "トクシマケン",
    "localityKana": "ヨシノガワシ",
    "address1Kana": "ミサトコドチ",
    "address2Kana": ""
  },
  {
    "postalCode": "7793505",
    "regionId": 36,
    "region": "徳島県",
    "locality": "吉野川市",
    "address1": "美郷木屋浦",
    "address2": "",
    "regionKana": "トクシマケン",
    "localityKana": "ヨシノガワシ",
    "address1Kana": "ミサトコヤノウラ",
    "address2Kana": ""
  },
  {
    "postalCode": "7793505",
    "regionId": 36,
    "region": "徳島県",
    "locality": "吉野川市",
    "address1": "美郷山王",
    "address2": "",
    "regionKana": "トクシマケン",
    "localityKana": "ヨシノガワシ",
    "address1Kana": "ミサトサンノウ",
    "address2Kana": ""
  },
  {
    "postalCode": "7793505",
    "regionId": 36,
    "region": "徳島県",
    "locality": "吉野川市",
    "address1": "美郷菅草",
    "address2": "",
    "regionKana": "トクシマケン",
    "localityKana": "ヨシノガワシ",
    "address1Kana": "ミサトスゲソウ",
    "address2Kana": ""
  },
  {
    "postalCode": "7793505",
    "regionId": 36,
    "region": "徳島県",
    "locality": "吉野川市",
    "address1": "美郷月野",
    "address2": "",
    "regionKana": "トクシマケン",
    "localityKana": "ヨシノガワシ",
    "address1Kana": "ミサトツキノ",
    "address2Kana": ""
  },
  {
    "postalCode": "7793505",
    "regionId": 36,
    "region": "徳島県",
    "locality": "吉野川市",
    "address1": "美郷栩谷",
    "address2": "",
    "regionKana": "トクシマケン",
    "localityKana": "ヨシノガワシ",
    "address1Kana": "ミサトトチダニ",
    "address2Kana": ""
  },
  {
    "postalCode": "7793505",
    "regionId": 36,
    "region": "徳島県",
    "locality": "吉野川市",
    "address1": "美郷殿河",
    "address2": "",
    "regionKana": "トクシマケン",
    "localityKana": "ヨシノガワシ",
    "address1Kana": "ミサトトノカワ",
    "address2Kana": ""
  },
  {
    "postalCode": "7793505",
    "regionId": 36,
    "region": "徳島県",
    "locality": "吉野川市",
    "address1": "美郷土用地",
    "address2": "",
    "regionKana": "トクシマケン",
    "localityKana": "ヨシノガワシ",
    "address1Kana": "ミサトドヨウジ",
    "address2Kana": ""
  },
  {
    "postalCode": "7793505",
    "regionId": 36,
    "region": "徳島県",
    "locality": "吉野川市",
    "address1": "美郷中谷",
    "address2": "",
    "regionKana": "トクシマケン",
    "localityKana": "ヨシノガワシ",
    "address1Kana": "ミサトナカノタニ",
    "address2Kana": ""
  },
  {
    "postalCode": "7793505",
    "regionId": 36,
    "region": "徳島県",
    "locality": "吉野川市",
    "address1": "美郷花地",
    "address2": "",
    "regionKana": "トクシマケン",
    "localityKana": "ヨシノガワシ",
    "address1Kana": "ミサトハナジ",
    "address2Kana": ""
  },
  {
    "postalCode": "7793505",
    "regionId": 36,
    "region": "徳島県",
    "locality": "吉野川市",
    "address1": "美郷東山峠",
    "address2": "",
    "regionKana": "トクシマケン",
    "localityKana": "ヨシノガワシ",
    "address1Kana": "ミサトヒガシヤマトウゲ",
    "address2Kana": ""
  },
  {
    "postalCode": "7793505",
    "regionId": 36,
    "region": "徳島県",
    "locality": "吉野川市",
    "address1": "美郷丸山",
    "address2": "",
    "regionKana": "トクシマケン",
    "localityKana": "ヨシノガワシ",
    "address1Kana": "ミサトマルヤマ",
    "address2Kana": ""
  },
  {
    "postalCode": "7793505",
    "regionId": 36,
    "region": "徳島県",
    "locality": "吉野川市",
    "address1": "美郷湯下",
    "address2": "",
    "regionKana": "トクシマケン",
    "localityKana": "ヨシノガワシ",
    "address1Kana": "ミサトユゲ",
    "address2Kana": ""
  }
]