[
  {
    "postalCode": "7793620",
    "regionId": 36,
    "region": "徳島県",
    "locality": "美馬市",
    "address1": "脇町岩倉",
    "address2": "",
    "regionKana": "トクシマケン",
    "localityKana": "ミマシ",
    "address1Kana": "ワキマチイワクラ",
    "address2Kana": ""
  },
  {
    "postalCode": "7793620",
    "regionId": 36,
    "region": "徳島県",
    "locality": "美馬市",
    "address1": "脇町上ノ原",
    "address2": "",
    "regionKana": "トクシマケン",
    "localityKana": "ミマシ",
    "address1Kana": "ワキマチウエノハラ",
    "address2Kana": ""
  },
  {
    "postalCode": "7793620",
    "regionId": 36,
    "region": "徳島県",
    "locality": "美馬市",
    "address1": "脇町馬木",
    "address2": "",
    "regionKana": "トクシマケン",
    "localityKana": "ミマシ",
    "address1Kana": "ワキマチウマキ",
    "address2Kana": ""
  },
  {
    "postalCode": "7793620",
    "regionId": 36,
    "region": "徳島県",
    "locality": "美馬市",
    "address1": "脇町川原町",
    "address2": "",
    "regionKana": "トクシマケン",
    "localityKana": "ミマシ",
    "address1Kana": "ワキマチカワラマチ",
    "address2Kana": ""
  },
  {
    "postalCode": "7793620",
    "regionId": 36,
    "region": "徳島県",
    "locality": "美馬市",
    "address1": "脇町木ノ内",
    "address2": "",
    "regionKana": "トクシマケン",
    "localityKana": "ミマシ",
    "address1Kana": "ワキマチキノウチ",
    "address2Kana": ""
  },
  {
    "postalCode": "7793620",
    "regionId": 36,
    "region": "徳島県",
    "locality": "美馬市",
    "address1": "脇町新町",
    "address2": "",
    "regionKana": "トクシマケン",
    "localityKana": "ミマシ",
    "address1Kana": "ワキマチシンマチ",
    "address2Kana": ""
  },
  {
    "postalCode": "7793620",
    "regionId": 36,
    "region": "徳島県",
    "locality": "美馬市",
    "address1": "脇町助松",
    "address2": "",
    "regionKana": "トクシマケン",
    "localityKana": "ミマシ",
    "address1Kana": "ワキマチスケマツ",
    "address2Kana": ""
  },
  {
    "postalCode": "7793620",
    "regionId": 36,
    "region": "徳島県",
    "locality": "美馬市",
    "address1": "脇町田上",
    "address2": "",
    "regionKana": "トクシマケン",
    "localityKana": "ミマシ",
    "address1Kana": "ワキマチタネエ",
    "address2Kana": ""
  },
  {
    "postalCode": "7793620",
    "regionId": 36,
    "region": "徳島県",
    "locality": "美馬市",
    "address1": "脇町野村",
    "address2": "",
    "regionKana": "トクシマケン",
    "localityKana": "ミマシ",
    "address1Kana": "ワキマチノムラ",
    "address2Kana": ""
  },
  {
    "postalCode": "7793620",
    "regionId": 36,
    "region": "徳島県",
    "locality": "美馬市",
    "address1": "脇町別所",
    "address2": "",
    "regionKana": "トクシマケン",
    "localityKana": "ミマシ",
    "address1Kana": "ワキマチベッショ",
    "address2Kana": ""
  }
]