[
  {
    "postalCode": "7794801",
    "regionId": 36,
    "region": "徳島県",
    "locality": "三好市",
    "address1": "井川町旭町",
    "address2": "",
    "regionKana": "トクシマケン",
    "localityKana": "ミヨシシ",
    "address1Kana": "イカワチョウアサヒマチ",
    "address2Kana": ""
  },
  {
    "postalCode": "7794801",
    "regionId": 36,
    "region": "徳島県",
    "locality": "三好市",
    "address1": "井川町大佐古",
    "address2": "",
    "regionKana": "トクシマケン",
    "localityKana": "ミヨシシ",
    "address1Kana": "イカワチョウオオサコ",
    "address2Kana": ""
  },
  {
    "postalCode": "7794801",
    "regionId": 36,
    "region": "徳島県",
    "locality": "三好市",
    "address1": "井川町片山",
    "address2": "",
    "regionKana": "トクシマケン",
    "localityKana": "ミヨシシ",
    "address1Kana": "イカワチョウカタヤマ",
    "address2Kana": ""
  },
  {
    "postalCode": "7794801",
    "regionId": 36,
    "region": "徳島県",
    "locality": "三好市",
    "address1": "井川町才長谷",
    "address2": "",
    "regionKana": "トクシマケン",
    "localityKana": "ミヨシシ",
    "address1Kana": "イカワチョウサイハゼ",
    "address2Kana": ""
  },
  {
    "postalCode": "7794801",
    "regionId": 36,
    "region": "徳島県",
    "locality": "三好市",
    "address1": "井川町新町",
    "address2": "",
    "regionKana": "トクシマケン",
    "localityKana": "ミヨシシ",
    "address1Kana": "イカワチョウシンマチ",
    "address2Kana": ""
  },
  {
    "postalCode": "7794801",
    "regionId": 36,
    "region": "徳島県",
    "locality": "三好市",
    "address1": "井川町辻",
    "address2": "",
    "regionKana": "トクシマケン",
    "localityKana": "ミヨシシ",
    "address1Kana": "イカワチョウツジ",
    "address2Kana": ""
  },
  {
    "postalCode": "7794801",
    "regionId": 36,
    "region": "徳島県",
    "locality": "三好市",
    "address1": "井川町仲ノ町",
    "address2": "",
    "regionKana": "トクシマケン",
    "localityKana": "ミヨシシ",
    "address1Kana": "イカワチョウナカノマチ",
    "address2Kana": ""
  },
  {
    "postalCode": "7794801",
    "regionId": 36,
    "region": "徳島県",
    "locality": "三好市",
    "address1": "井川町浜西",
    "address2": "",
    "regionKana": "トクシマケン",
    "localityKana": "ミヨシシ",
    "address1Kana": "イカワチョウハマニシ",
    "address2Kana": ""
  },
  {
    "postalCode": "7794801",
    "regionId": 36,
    "region": "徳島県",
    "locality": "三好市",
    "address1": "井川町浜東",
    "address2": "",
    "regionKana": "トクシマケン",
    "localityKana": "ミヨシシ",
    "address1Kana": "イカワチョウハマヒガシ",
    "address2Kana": ""
  },
  {
    "postalCode": "7794801",
    "regionId": 36,
    "region": "徳島県",
    "locality": "三好市",
    "address1": "井川町本町",
    "address2": "",
    "regionKana": "トクシマケン",
    "localityKana": "ミヨシシ",
    "address1Kana": "イカワチョウホンマチ",
    "address2Kana": ""
  }
]