[
  {
    "postalCode": "7794803",
    "regionId": 36,
    "region": "徳島県",
    "locality": "三好市",
    "address1": "井川町島",
    "address2": "",
    "regionKana": "トクシマケン",
    "localityKana": "ミヨシシ",
    "address1Kana": "イカワチョウシマ",
    "address2Kana": ""
  },
  {
    "postalCode": "7794803",
    "regionId": 36,
    "region": "徳島県",
    "locality": "三好市",
    "address1": "井川町タクミ田",
    "address2": "",
    "regionKana": "トクシマケン",
    "localityKana": "ミヨシシ",
    "address1Kana": "イカワチョウタクミダ",
    "address2Kana": ""
  },
  {
    "postalCode": "7794803",
    "regionId": 36,
    "region": "徳島県",
    "locality": "三好市",
    "address1": "井川町田中",
    "address2": "",
    "regionKana": "トクシマケン",
    "localityKana": "ミヨシシ",
    "address1Kana": "イカワチョウタナカ",
    "address2Kana": ""
  },
  {
    "postalCode": "7794803",
    "regionId": 36,
    "region": "徳島県",
    "locality": "三好市",
    "address1": "井川町中岡",
    "address2": "",
    "regionKana": "トクシマケン",
    "localityKana": "ミヨシシ",
    "address1Kana": "イカワチョウナカオカ",
    "address2Kana": ""
  },
  {
    "postalCode": "7794803",
    "regionId": 36,
    "region": "徳島県",
    "locality": "三好市",
    "address1": "井川町中村西",
    "address2": "",
    "regionKana": "トクシマケン",
    "localityKana": "ミヨシシ",
    "address1Kana": "イカワチョウナカムラニシ",
    "address2Kana": ""
  },
  {
    "postalCode": "7794803",
    "regionId": 36,
    "region": "徳島県",
    "locality": "三好市",
    "address1": "井川町中村東",
    "address2": "",
    "regionKana": "トクシマケン",
    "localityKana": "ミヨシシ",
    "address1Kana": "イカワチョウナカムラヒガシ",
    "address2Kana": ""
  },
  {
    "postalCode": "7794803",
    "regionId": 36,
    "region": "徳島県",
    "locality": "三好市",
    "address1": "井川町中村南",
    "address2": "",
    "regionKana": "トクシマケン",
    "localityKana": "ミヨシシ",
    "address1Kana": "イカワチョウナカムラミナミ",
    "address2Kana": ""
  },
  {
    "postalCode": "7794803",
    "regionId": 36,
    "region": "徳島県",
    "locality": "三好市",
    "address1": "井川町野津後流",
    "address2": "",
    "regionKana": "トクシマケン",
    "localityKana": "ミヨシシ",
    "address1Kana": "イカワチョウノツゴナガレ",
    "address2Kana": ""
  },
  {
    "postalCode": "7794803",
    "regionId": 36,
    "region": "徳島県",
    "locality": "三好市",
    "address1": "井川町八幡",
    "address2": "",
    "regionKana": "トクシマケン",
    "localityKana": "ミヨシシ",
    "address1Kana": "イカワチョウハチマン",
    "address2Kana": ""
  },
  {
    "postalCode": "7794803",
    "regionId": 36,
    "region": "徳島県",
    "locality": "三好市",
    "address1": "井川町吉岡",
    "address2": "",
    "regionKana": "トクシマケン",
    "localityKana": "ミヨシシ",
    "address1Kana": "イカワチョウヨシオカ",
    "address2Kana": ""
  }
]