[
  {
    "postalCode": "0880342",
    "regionId": 1,
    "region": "北海道",
    "locality": "白糠郡白糠町",
    "address1": "御札部",
    "address2": "",
    "regionKana": "ホッカイドウ",
    "localityKana": "シラヌカグンシラヌカチョウ",
    "address1Kana": "オサッペ",
    "address2Kana": ""
  },
  {
    "postalCode": "0880342",
    "regionId": 1,
    "region": "北海道",
    "locality": "白糠郡白糠町",
    "address1": "御仁田",
    "address2": "",
    "regionKana": "ホッカイドウ",
    "localityKana": "シラヌカグンシラヌカチョウ",
    "address1Kana": "オニタ",
    "address2Kana": ""
  },
  {
    "postalCode": "0880342",
    "regionId": 1,
    "region": "北海道",
    "locality": "白糠郡白糠町",
    "address1": "川西",
    "address2": "",
    "regionKana": "ホッカイドウ",
    "localityKana": "シラヌカグンシラヌカチョウ",
    "address1Kana": "カワニシ",
    "address2Kana": ""
  },
  {
    "postalCode": "0880342",
    "regionId": 1,
    "region": "北海道",
    "locality": "白糠郡白糠町",
    "address1": "高台",
    "address2": "",
    "regionKana": "ホッカイドウ",
    "localityKana": "シラヌカグンシラヌカチョウ",
    "address1Kana": "タカダイ",
    "address2Kana": ""
  },
  {
    "postalCode": "0880342",
    "regionId": 1,
    "region": "北海道",
    "locality": "白糠郡白糠町",
    "address1": "鍛高",
    "address2": "",
    "regionKana": "ホッカイドウ",
    "localityKana": "シラヌカグンシラヌカチョウ",
    "address1Kana": "タンタカ",
    "address2Kana": ""
  },
  {
    "postalCode": "0880342",
    "regionId": 1,
    "region": "北海道",
    "locality": "白糠郡白糠町",
    "address1": "",
    "address2": "",
    "regionKana": "ホッカイドウ",
    "localityKana": "シラヌカグンシラヌカチョウ",
    "address1Kana": "",
    "address2Kana": ""
  },
  {
    "postalCode": "0880342",
    "regionId": 1,
    "region": "北海道",
    "locality": "白糠郡白糠町",
    "address1": "中茶路",
    "address2": "",
    "regionKana": "ホッカイドウ",
    "localityKana": "シラヌカグンシラヌカチョウ",
    "address1Kana": "ナカチャロ",
    "address2Kana": ""
  },
  {
    "postalCode": "0880342",
    "regionId": 1,
    "region": "北海道",
    "locality": "白糠郡白糠町",
    "address1": "松川",
    "address2": "",
    "regionKana": "ホッカイドウ",
    "localityKana": "シラヌカグンシラヌカチョウ",
    "address1Kana": "マツカワ",
    "address2Kana": ""
  }
]