[
  {
    "postalCode": "0691317",
    "regionId": 1,
    "region": "北海道",
    "locality": "夕張郡長沼町",
    "address1": "東１線北",
    "address2": "",
    "regionKana": "ホッカイドウ",
    "localityKana": "ユウバリグンナガヌマチョウ",
    "address1Kana": "ヒガシ1センキタ",
    "address2Kana": ""
  },
  {
    "postalCode": "0691317",
    "regionId": 1,
    "region": "北海道",
    "locality": "夕張郡長沼町",
    "address1": "東２線北",
    "address2": "",
    "regionKana": "ホッカイドウ",
    "localityKana": "ユウバリグンナガヌマチョウ",
    "address1Kana": "ヒガシ2センキタ",
    "address2Kana": ""
  },
  {
    "postalCode": "0691317",
    "regionId": 1,
    "region": "北海道",
    "locality": "夕張郡長沼町",
    "address1": "東３線北",
    "address2": "",
    "regionKana": "ホッカイドウ",
    "localityKana": "ユウバリグンナガヌマチョウ",
    "address1Kana": "ヒガシ3センキタ",
    "address2Kana": ""
  },
  {
    "postalCode": "0691317",
    "regionId": 1,
    "region": "北海道",
    "locality": "夕張郡長沼町",
    "address1": "東４線北",
    "address2": "",
    "regionKana": "ホッカイドウ",
    "localityKana": "ユウバリグンナガヌマチョウ",
    "address1Kana": "ヒガシ4センキタ",
    "address2Kana": ""
  },
  {
    "postalCode": "0691317",
    "regionId": 1,
    "region": "北海道",
    "locality": "夕張郡長沼町",
    "address1": "東５線北",
    "address2": "",
    "regionKana": "ホッカイドウ",
    "localityKana": "ユウバリグンナガヌマチョウ",
    "address1Kana": "ヒガシ5センキタ",
    "address2Kana": ""
  },
  {
    "postalCode": "0691317",
    "regionId": 1,
    "region": "北海道",
    "locality": "夕張郡長沼町",
    "address1": "東６線北",
    "address2": "",
    "regionKana": "ホッカイドウ",
    "localityKana": "ユウバリグンナガヌマチョウ",
    "address1Kana": "ヒガシ6センキタ",
    "address2Kana": ""
  },
  {
    "postalCode": "0691317",
    "regionId": 1,
    "region": "北海道",
    "locality": "夕張郡長沼町",
    "address1": "東７線北",
    "address2": "",
    "regionKana": "ホッカイドウ",
    "localityKana": "ユウバリグンナガヌマチョウ",
    "address1Kana": "ヒガシ7センキタ",
    "address2Kana": ""
  },
  {
    "postalCode": "0691317",
    "regionId": 1,
    "region": "北海道",
    "locality": "夕張郡長沼町",
    "address1": "東８線北",
    "address2": "",
    "regionKana": "ホッカイドウ",
    "localityKana": "ユウバリグンナガヌマチョウ",
    "address1Kana": "ヒガシ8センキタ",
    "address2Kana": ""
  },
  {
    "postalCode": "0691317",
    "regionId": 1,
    "region": "北海道",
    "locality": "夕張郡長沼町",
    "address1": "東９線北",
    "address2": "",
    "regionKana": "ホッカイドウ",
    "localityKana": "ユウバリグンナガヌマチョウ",
    "address1Kana": "ヒガシ9センキタ",
    "address2Kana": ""
  },
  {
    "postalCode": "0691317",
    "regionId": 1,
    "region": "北海道",
    "locality": "夕張郡長沼町",
    "address1": "東１０線北",
    "address2": "",
    "regionKana": "ホッカイドウ",
    "localityKana": "ユウバリグンナガヌマチョウ",
    "address1Kana": "ヒガシ10センキタ",
    "address2Kana": ""
  },
  {
    "postalCode": "0691317",
    "regionId": 1,
    "region": "北海道",
    "locality": "夕張郡長沼町",
    "address1": "東１１線北",
    "address2": "",
    "regionKana": "ホッカイドウ",
    "localityKana": "ユウバリグンナガヌマチョウ",
    "address1Kana": "ヒガシ11センキタ",
    "address2Kana": ""
  }
]