[
  {
    "postalCode": "0294204",
    "regionId": 3,
    "region": "岩手県",
    "locality": "奥州市",
    "address1": "前沢下谷起",
    "address2": "",
    "regionKana": "イワテケン",
    "localityKana": "オウシュウシ",
    "address1Kana": "マエサワシタヤギ",
    "address2Kana": ""
  },
  {
    "postalCode": "0294204",
    "regionId": 3,
    "region": "岩手県",
    "locality": "奥州市",
    "address1": "前沢島",
    "address2": "",
    "regionKana": "イワテケン",
    "localityKana": "オウシュウシ",
    "address1Kana": "マエサワシマ",
    "address2Kana": ""
  },
  {
    "postalCode": "0294204",
    "regionId": 3,
    "region": "岩手県",
    "locality": "奥州市",
    "address1": "前沢宿",
    "address2": "",
    "regionKana": "イワテケン",
    "localityKana": "オウシュウシ",
    "address1Kana": "マエサワシュク",
    "address2Kana": ""
  },
  {
    "postalCode": "0294204",
    "regionId": 3,
    "region": "岩手県",
    "locality": "奥州市",
    "address1": "前沢高畑",
    "address2": "",
    "regionKana": "イワテケン",
    "localityKana": "オウシュウシ",
    "address1Kana": "マエサワタカハタケ",
    "address2Kana": ""
  },
  {
    "postalCode": "0294204",
    "regionId": 3,
    "region": "岩手県",
    "locality": "奥州市",
    "address1": "前沢田中",
    "address2": "",
    "regionKana": "イワテケン",
    "localityKana": "オウシュウシ",
    "address1Kana": "マエサワタナカ",
    "address2Kana": ""
  },
  {
    "postalCode": "0294204",
    "regionId": 3,
    "region": "岩手県",
    "locality": "奥州市",
    "address1": "前沢道場",
    "address2": "",
    "regionKana": "イワテケン",
    "localityKana": "オウシュウシ",
    "address1Kana": "マエサワドウバ",
    "address2Kana": ""
  },
  {
    "postalCode": "0294204",
    "regionId": 3,
    "region": "岩手県",
    "locality": "奥州市",
    "address1": "前沢鳥待小屋",
    "address2": "",
    "regionKana": "イワテケン",
    "localityKana": "オウシュウシ",
    "address1Kana": "マエサワトリマチゴヤ",
    "address2Kana": ""
  },
  {
    "postalCode": "0294204",
    "regionId": 3,
    "region": "岩手県",
    "locality": "奥州市",
    "address1": "前沢中久保",
    "address2": "",
    "regionKana": "イワテケン",
    "localityKana": "オウシュウシ",
    "address1Kana": "マエサワナカクボ",
    "address2Kana": ""
  },
  {
    "postalCode": "0294204",
    "regionId": 3,
    "region": "岩手県",
    "locality": "奥州市",
    "address1": "前沢長檀",
    "address2": "",
    "regionKana": "イワテケン",
    "localityKana": "オウシュウシ",
    "address1Kana": "マエサワナガダン",
    "address2Kana": ""
  },
  {
    "postalCode": "0294204",
    "regionId": 3,
    "region": "岩手県",
    "locality": "奥州市",
    "address1": "前沢中村",
    "address2": "",
    "regionKana": "イワテケン",
    "localityKana": "オウシュウシ",
    "address1Kana": "マエサワナカムラ",
    "address2Kana": ""
  },
  {
    "postalCode": "0294204",
    "regionId": 3,
    "region": "岩手県",
    "locality": "奥州市",
    "address1": "前沢古川",
    "address2": "",
    "regionKana": "イワテケン",
    "localityKana": "オウシュウシ",
    "address1Kana": "マエサワフルカワ",
    "address2Kana": ""
  },
  {
    "postalCode": "0294204",
    "regionId": 3,
    "region": "岩手県",
    "locality": "奥州市",
    "address1": "前沢南前沢",
    "address2": "",
    "regionKana": "イワテケン",
    "localityKana": "オウシュウシ",
    "address1Kana": "マエサワミナミマエサワ",
    "address2Kana": ""
  },
  {
    "postalCode": "0294204",
    "regionId": 3,
    "region": "岩手県",
    "locality": "奥州市",
    "address1": "前沢向田",
    "address2": "",
    "regionKana": "イワテケン",
    "localityKana": "オウシュウシ",
    "address1Kana": "マエサワムカイダ",
    "address2Kana": ""
  },
  {
    "postalCode": "0294204",
    "regionId": 3,
    "region": "岩手県",
    "locality": "奥州市",
    "address1": "前沢本杉",
    "address2": "",
    "regionKana": "イワテケン",
    "localityKana": "オウシュウシ",
    "address1Kana": "マエサワモトスギ",
    "address2Kana": ""
  },
  {
    "postalCode": "0294204",
    "regionId": 3,
    "region": "岩手県",
    "locality": "奥州市",
    "address1": "前沢谷地",
    "address2": "",
    "regionKana": "イワテケン",
    "localityKana": "オウシュウシ",
    "address1Kana": "マエサワヤチ",
    "address2Kana": ""
  },
  {
    "postalCode": "0294204",
    "regionId": 3,
    "region": "岩手県",
    "locality": "奥州市",
    "address1": "前沢八幡",
    "address2": "",
    "regionKana": "イワテケン",
    "localityKana": "オウシュウシ",
    "address1Kana": "マエサワヤワタ",
    "address2Kana": ""
  },
  {
    "postalCode": "0294204",
    "regionId": 3,
    "region": "岩手県",
    "locality": "奥州市",
    "address1": "前沢八幡前",
    "address2": "",
    "regionKana": "イワテケン",
    "localityKana": "オウシュウシ",
    "address1Kana": "マエサワヤワタマエ",
    "address2Kana": ""
  }
]