[
  {
    "postalCode": "0294205",
    "regionId": 3,
    "region": "岩手県",
    "locality": "奥州市",
    "address1": "前沢合ノ沢",
    "address2": "",
    "regionKana": "イワテケン",
    "localityKana": "オウシュウシ",
    "address1Kana": "マエサワアイノサワ",
    "address2Kana": ""
  },
  {
    "postalCode": "0294205",
    "regionId": 3,
    "region": "岩手県",
    "locality": "奥州市",
    "address1": "前沢安寺沢",
    "address2": "",
    "regionKana": "イワテケン",
    "localityKana": "オウシュウシ",
    "address1Kana": "マエサワアテラサワ",
    "address2Kana": ""
  },
  {
    "postalCode": "0294205",
    "regionId": 3,
    "region": "岩手県",
    "locality": "奥州市",
    "address1": "前沢石田",
    "address2": "",
    "regionKana": "イワテケン",
    "localityKana": "オウシュウシ",
    "address1Kana": "マエサワイシダ",
    "address2Kana": ""
  },
  {
    "postalCode": "0294205",
    "regionId": 3,
    "region": "岩手県",
    "locality": "奥州市",
    "address1": "前沢一ノ沢",
    "address2": "",
    "regionKana": "イワテケン",
    "localityKana": "オウシュウシ",
    "address1Kana": "マエサワイチノサワ",
    "address2Kana": ""
  },
  {
    "postalCode": "0294205",
    "regionId": 3,
    "region": "岩手県",
    "locality": "奥州市",
    "address1": "前沢鵜ノ木",
    "address2": "",
    "regionKana": "イワテケン",
    "localityKana": "オウシュウシ",
    "address1Kana": "マエサワウノキ",
    "address2Kana": ""
  },
  {
    "postalCode": "0294205",
    "regionId": 3,
    "region": "岩手県",
    "locality": "奥州市",
    "address1": "前沢鵜ノ木田",
    "address2": "",
    "regionKana": "イワテケン",
    "localityKana": "オウシュウシ",
    "address1Kana": "マエサワウノキダ",
    "address2Kana": ""
  },
  {
    "postalCode": "0294205",
    "regionId": 3,
    "region": "岩手県",
    "locality": "奥州市",
    "address1": "前沢うるし野",
    "address2": "",
    "regionKana": "イワテケン",
    "localityKana": "オウシュウシ",
    "address1Kana": "マエサワウルシノ",
    "address2Kana": ""
  },
  {
    "postalCode": "0294205",
    "regionId": 3,
    "region": "岩手県",
    "locality": "奥州市",
    "address1": "前沢大袋",
    "address2": "",
    "regionKana": "イワテケン",
    "localityKana": "オウシュウシ",
    "address1Kana": "マエサワオオブクロ",
    "address2Kana": ""
  },
  {
    "postalCode": "0294205",
    "regionId": 3,
    "region": "岩手県",
    "locality": "奥州市",
    "address1": "前沢沖田",
    "address2": "",
    "regionKana": "イワテケン",
    "localityKana": "オウシュウシ",
    "address1Kana": "マエサワオキタ",
    "address2Kana": ""
  },
  {
    "postalCode": "0294205",
    "regionId": 3,
    "region": "岩手県",
    "locality": "奥州市",
    "address1": "前沢小沢口",
    "address2": "",
    "regionKana": "イワテケン",
    "localityKana": "オウシュウシ",
    "address1Kana": "マエサワオサワグチ",
    "address2Kana": ""
  },
  {
    "postalCode": "0294205",
    "regionId": 3,
    "region": "岩手県",
    "locality": "奥州市",
    "address1": "前沢川内",
    "address2": "",
    "regionKana": "イワテケン",
    "localityKana": "オウシュウシ",
    "address1Kana": "マエサワカワウチ",
    "address2Kana": ""
  },
  {
    "postalCode": "0294205",
    "regionId": 3,
    "region": "岩手県",
    "locality": "奥州市",
    "address1": "前沢衣関",
    "address2": "",
    "regionKana": "イワテケン",
    "localityKana": "オウシュウシ",
    "address1Kana": "マエサワキヌトメ",
    "address2Kana": ""
  },
  {
    "postalCode": "0294205",
    "regionId": 3,
    "region": "岩手県",
    "locality": "奥州市",
    "address1": "前沢里",
    "address2": "",
    "regionKana": "イワテケン",
    "localityKana": "オウシュウシ",
    "address1Kana": "マエサワサト",
    "address2Kana": ""
  },
  {
    "postalCode": "0294205",
    "regionId": 3,
    "region": "岩手県",
    "locality": "奥州市",
    "address1": "前沢清水",
    "address2": "",
    "regionKana": "イワテケン",
    "localityKana": "オウシュウシ",
    "address1Kana": "マエサワシミズ",
    "address2Kana": ""
  },
  {
    "postalCode": "0294205",
    "regionId": 3,
    "region": "岩手県",
    "locality": "奥州市",
    "address1": "前沢蛇ノ鼻",
    "address2": "",
    "regionKana": "イワテケン",
    "localityKana": "オウシュウシ",
    "address1Kana": "マエサワジャノハナ",
    "address2Kana": ""
  },
  {
    "postalCode": "0294205",
    "regionId": 3,
    "region": "岩手県",
    "locality": "奥州市",
    "address1": "前沢白鳥舘",
    "address2": "",
    "regionKana": "イワテケン",
    "localityKana": "オウシュウシ",
    "address1Kana": "マエサワシロトリダテ",
    "address2Kana": ""
  },
  {
    "postalCode": "0294205",
    "regionId": 3,
    "region": "岩手県",
    "locality": "奥州市",
    "address1": "前沢新城",
    "address2": "",
    "regionKana": "イワテケン",
    "localityKana": "オウシュウシ",
    "address1Kana": "マエサワシンジョウ",
    "address2Kana": ""
  },
  {
    "postalCode": "0294205",
    "regionId": 3,
    "region": "岩手県",
    "locality": "奥州市",
    "address1": "前沢堤田",
    "address2": "",
    "regionKana": "イワテケン",
    "localityKana": "オウシュウシ",
    "address1Kana": "マエサワツツミダ",
    "address2Kana": ""
  },
  {
    "postalCode": "0294205",
    "regionId": 3,
    "region": "岩手県",
    "locality": "奥州市",
    "address1": "前沢照井舘",
    "address2": "",
    "regionKana": "イワテケン",
    "localityKana": "オウシュウシ",
    "address1Kana": "マエサワテルイダテ",
    "address2Kana": ""
  },
  {
    "postalCode": "0294205",
    "regionId": 3,
    "region": "岩手県",
    "locality": "奥州市",
    "address1": "前沢徳沢",
    "address2": "",
    "regionKana": "イワテケン",
    "localityKana": "オウシュウシ",
    "address1Kana": "マエサワトクサワ",
    "address2Kana": ""
  },
  {
    "postalCode": "0294205",
    "regionId": 3,
    "region": "岩手県",
    "locality": "奥州市",
    "address1": "前沢永沢",
    "address2": "",
    "regionKana": "イワテケン",
    "localityKana": "オウシュウシ",
    "address1Kana": "マエサワナガサワ",
    "address2Kana": ""
  },
  {
    "postalCode": "0294205",
    "regionId": 3,
    "region": "岩手県",
    "locality": "奥州市",
    "address1": "前沢長根",
    "address2": "",
    "regionKana": "イワテケン",
    "localityKana": "オウシュウシ",
    "address1Kana": "マエサワナガネ",
    "address2Kana": ""
  },
  {
    "postalCode": "0294205",
    "regionId": 3,
    "region": "岩手県",
    "locality": "奥州市",
    "address1": "前沢中屋敷",
    "address2": "",
    "regionKana": "イワテケン",
    "localityKana": "オウシュウシ",
    "address1Kana": "マエサワナカヤシキ",
    "address2Kana": ""
  },
  {
    "postalCode": "0294205",
    "regionId": 3,
    "region": "岩手県",
    "locality": "奥州市",
    "address1": "前沢浪洗",
    "address2": "",
    "regionKana": "イワテケン",
    "localityKana": "オウシュウシ",
    "address1Kana": "マエサワナミアライ",
    "address2Kana": ""
  },
  {
    "postalCode": "0294205",
    "regionId": 3,
    "region": "岩手県",
    "locality": "奥州市",
    "address1": "前沢二ノ沢",
    "address2": "",
    "regionKana": "イワテケン",
    "localityKana": "オウシュウシ",
    "address1Kana": "マエサワニノサワ",
    "address2Kana": ""
  },
  {
    "postalCode": "0294205",
    "regionId": 3,
    "region": "岩手県",
    "locality": "奥州市",
    "address1": "前沢沼尻",
    "address2": "",
    "regionKana": "イワテケン",
    "localityKana": "オウシュウシ",
    "address1Kana": "マエサワヌマジリ",
    "address2Kana": ""
  },
  {
    "postalCode": "0294205",
    "regionId": 3,
    "region": "岩手県",
    "locality": "奥州市",
    "address1": "前沢沼ノ沢",
    "address2": "",
    "regionKana": "イワテケン",
    "localityKana": "オウシュウシ",
    "address1Kana": "マエサワヌマノサワ",
    "address2Kana": ""
  },
  {
    "postalCode": "0294205",
    "regionId": 3,
    "region": "岩手県",
    "locality": "奥州市",
    "address1": "前沢日向",
    "address2": "",
    "regionKana": "イワテケン",
    "localityKana": "オウシュウシ",
    "address1Kana": "マエサワヒナタ",
    "address2Kana": ""
  },
  {
    "postalCode": "0294205",
    "regionId": 3,
    "region": "岩手県",
    "locality": "奥州市",
    "address1": "前沢福養",
    "address2": "",
    "regionKana": "イワテケン",
    "localityKana": "オウシュウシ",
    "address1Kana": "マエサワフクヨウ",
    "address2Kana": ""
  },
  {
    "postalCode": "0294205",
    "regionId": 3,
    "region": "岩手県",
    "locality": "奥州市",
    "address1": "前沢干場",
    "address2": "",
    "regionKana": "イワテケン",
    "localityKana": "オウシュウシ",
    "address1Kana": "マエサワホシバ",
    "address2Kana": ""
  },
  {
    "postalCode": "0294205",
    "regionId": 3,
    "region": "岩手県",
    "locality": "奥州市",
    "address1": "前沢前野",
    "address2": "",
    "regionKana": "イワテケン",
    "localityKana": "オウシュウシ",
    "address1Kana": "マエサワマエノ",
    "address2Kana": ""
  },
  {
    "postalCode": "0294205",
    "regionId": 3,
    "region": "岩手県",
    "locality": "奥州市",
    "address1": "前沢南陣場",
    "address2": "",
    "regionKana": "イワテケン",
    "localityKana": "オウシュウシ",
    "address1Kana": "マエサワミナミジンバ",
    "address2Kana": ""
  },
  {
    "postalCode": "0294205",
    "regionId": 3,
    "region": "岩手県",
    "locality": "奥州市",
    "address1": "前沢南塔ケ崎",
    "address2": "",
    "regionKana": "イワテケン",
    "localityKana": "オウシュウシ",
    "address1Kana": "マエサワミナミトウガサキ",
    "address2Kana": ""
  },
  {
    "postalCode": "0294205",
    "regionId": 3,
    "region": "岩手県",
    "locality": "奥州市",
    "address1": "前沢南中島",
    "address2": "",
    "regionKana": "イワテケン",
    "localityKana": "オウシュウシ",
    "address1Kana": "マエサワミナミナカジマ",
    "address2Kana": ""
  },
  {
    "postalCode": "0294205",
    "regionId": 3,
    "region": "岩手県",
    "locality": "奥州市",
    "address1": "前沢箕輪",
    "address2": "",
    "regionKana": "イワテケン",
    "localityKana": "オウシュウシ",
    "address1Kana": "マエサワミノワ",
    "address2Kana": ""
  },
  {
    "postalCode": "0294205",
    "regionId": 3,
    "region": "岩手県",
    "locality": "奥州市",
    "address1": "前沢両手沢",
    "address2": "",
    "regionKana": "イワテケン",
    "localityKana": "オウシュウシ",
    "address1Kana": "マエサワモロテザワ",
    "address2Kana": ""
  },
  {
    "postalCode": "0294205",
    "regionId": 3,
    "region": "岩手県",
    "locality": "奥州市",
    "address1": "前沢谷記",
    "address2": "",
    "regionKana": "イワテケン",
    "localityKana": "オウシュウシ",
    "address1Kana": "マエサワヤギ",
    "address2Kana": ""
  },
  {
    "postalCode": "0294205",
    "regionId": 3,
    "region": "岩手県",
    "locality": "奥州市",
    "address1": "前沢谷起",
    "address2": "",
    "regionKana": "イワテケン",
    "localityKana": "オウシュウシ",
    "address1Kana": "マエサワヤギ",
    "address2Kana": ""
  },
  {
    "postalCode": "0294205",
    "regionId": 3,
    "region": "岩手県",
    "locality": "奥州市",
    "address1": "前沢谷記田",
    "address2": "",
    "regionKana": "イワテケン",
    "localityKana": "オウシュウシ",
    "address1Kana": "マエサワヤギタ",
    "address2Kana": ""
  },
  {
    "postalCode": "0294205",
    "regionId": 3,
    "region": "岩手県",
    "locality": "奥州市",
    "address1": "前沢谷起田",
    "address2": "",
    "regionKana": "イワテケン",
    "localityKana": "オウシュウシ",
    "address1Kana": "マエサワヤギタ",
    "address2Kana": ""
  },
  {
    "postalCode": "0294205",
    "regionId": 3,
    "region": "岩手県",
    "locality": "奥州市",
    "address1": "前沢櫓前",
    "address2": "",
    "regionKana": "イワテケン",
    "localityKana": "オウシュウシ",
    "address1Kana": "マエサワヤグラマエ",
    "address2Kana": ""
  },
  {
    "postalCode": "0294205",
    "regionId": 3,
    "region": "岩手県",
    "locality": "奥州市",
    "address1": "前沢六本松",
    "address2": "",
    "regionKana": "イワテケン",
    "localityKana": "オウシュウシ",
    "address1Kana": "マエサワロッポンマツ",
    "address2Kana": ""
  }
]