[
  {
    "postalCode": "0294206",
    "regionId": 3,
    "region": "岩手県",
    "locality": "奥州市",
    "address1": "前沢赤坂",
    "address2": "",
    "regionKana": "イワテケン",
    "localityKana": "オウシュウシ",
    "address1Kana": "マエサワアカサカ",
    "address2Kana": ""
  },
  {
    "postalCode": "0294206",
    "regionId": 3,
    "region": "岩手県",
    "locality": "奥州市",
    "address1": "前沢裏新田",
    "address2": "",
    "regionKana": "イワテケン",
    "localityKana": "オウシュウシ",
    "address1Kana": "マエサワウラシンデン",
    "address2Kana": ""
  },
  {
    "postalCode": "0294206",
    "regionId": 3,
    "region": "岩手県",
    "locality": "奥州市",
    "address1": "前沢狐石",
    "address2": "",
    "regionKana": "イワテケン",
    "localityKana": "オウシュウシ",
    "address1Kana": "マエサワキツネイシ",
    "address2Kana": ""
  },
  {
    "postalCode": "0294206",
    "regionId": 3,
    "region": "岩手県",
    "locality": "奥州市",
    "address1": "前沢駒水",
    "address2": "",
    "regionKana": "イワテケン",
    "localityKana": "オウシュウシ",
    "address1Kana": "マエサワコマスイ",
    "address2Kana": ""
  },
  {
    "postalCode": "0294206",
    "regionId": 3,
    "region": "岩手県",
    "locality": "奥州市",
    "address1": "前沢陣場",
    "address2": "",
    "regionKana": "イワテケン",
    "localityKana": "オウシュウシ",
    "address1Kana": "マエサワジンバ",
    "address2Kana": ""
  },
  {
    "postalCode": "0294206",
    "regionId": 3,
    "region": "岩手県",
    "locality": "奥州市",
    "address1": "前沢太郎ケ沢",
    "address2": "",
    "regionKana": "イワテケン",
    "localityKana": "オウシュウシ",
    "address1Kana": "マエサワタロウガサワ",
    "address2Kana": ""
  },
  {
    "postalCode": "0294206",
    "regionId": 3,
    "region": "岩手県",
    "locality": "奥州市",
    "address1": "前沢日除松",
    "address2": "",
    "regionKana": "イワテケン",
    "localityKana": "オウシュウシ",
    "address1Kana": "マエサワヒヨケマツ",
    "address2Kana": ""
  },
  {
    "postalCode": "0294206",
    "regionId": 3,
    "region": "岩手県",
    "locality": "奥州市",
    "address1": "前沢簾森",
    "address2": "",
    "regionKana": "イワテケン",
    "localityKana": "オウシュウシ",
    "address1Kana": "マエサワミスモリ",
    "address2Kana": ""
  },
  {
    "postalCode": "0294206",
    "regionId": 3,
    "region": "岩手県",
    "locality": "奥州市",
    "address1": "前沢養ケ森",
    "address2": "",
    "regionKana": "イワテケン",
    "localityKana": "オウシュウシ",
    "address1Kana": "マエサワヨウガモリ",
    "address2Kana": ""
  }
]