[
  {
    "postalCode": "0294207",
    "regionId": 3,
    "region": "岩手県",
    "locality": "奥州市",
    "address1": "前沢赤面",
    "address2": "",
    "regionKana": "イワテケン",
    "localityKana": "オウシュウシ",
    "address1Kana": "マエサワアカツラ",
    "address2Kana": ""
  },
  {
    "postalCode": "0294207",
    "regionId": 3,
    "region": "岩手県",
    "locality": "奥州市",
    "address1": "前沢一本杉",
    "address2": "",
    "regionKana": "イワテケン",
    "localityKana": "オウシュウシ",
    "address1Kana": "マエサワイッポンスギ",
    "address2Kana": ""
  },
  {
    "postalCode": "0294207",
    "regionId": 3,
    "region": "岩手県",
    "locality": "奥州市",
    "address1": "前沢大桜",
    "address2": "",
    "regionKana": "イワテケン",
    "localityKana": "オウシュウシ",
    "address1Kana": "マエサワオオザクラ",
    "address2Kana": ""
  },
  {
    "postalCode": "0294207",
    "regionId": 3,
    "region": "岩手県",
    "locality": "奥州市",
    "address1": "前沢五十人町",
    "address2": "",
    "regionKana": "イワテケン",
    "localityKana": "オウシュウシ",
    "address1Kana": "マエサワゴジュウニンマチ",
    "address2Kana": ""
  },
  {
    "postalCode": "0294207",
    "regionId": 3,
    "region": "岩手県",
    "locality": "奥州市",
    "address1": "前沢下小路",
    "address2": "",
    "regionKana": "イワテケン",
    "localityKana": "オウシュウシ",
    "address1Kana": "マエサワシモコウジ",
    "address2Kana": ""
  },
  {
    "postalCode": "0294207",
    "regionId": 3,
    "region": "岩手県",
    "locality": "奥州市",
    "address1": "前沢平小路",
    "address2": "",
    "regionKana": "イワテケン",
    "localityKana": "オウシュウシ",
    "address1Kana": "マエサワタイラコウジ",
    "address2Kana": ""
  },
  {
    "postalCode": "0294207",
    "regionId": 3,
    "region": "岩手県",
    "locality": "奥州市",
    "address1": "前沢平前",
    "address2": "",
    "regionKana": "イワテケン",
    "localityKana": "オウシュウシ",
    "address1Kana": "マエサワタイラマエ",
    "address2Kana": ""
  },
  {
    "postalCode": "0294207",
    "regionId": 3,
    "region": "岩手県",
    "locality": "奥州市",
    "address1": "前沢塔ケ崎",
    "address2": "",
    "regionKana": "イワテケン",
    "localityKana": "オウシュウシ",
    "address1Kana": "マエサワトウガサキ",
    "address2Kana": ""
  },
  {
    "postalCode": "0294207",
    "regionId": 3,
    "region": "岩手県",
    "locality": "奥州市",
    "address1": "前沢泊ケ崎",
    "address2": "",
    "regionKana": "イワテケン",
    "localityKana": "オウシュウシ",
    "address1Kana": "マエサワトマリガサキ",
    "address2Kana": ""
  },
  {
    "postalCode": "0294207",
    "regionId": 3,
    "region": "岩手県",
    "locality": "奥州市",
    "address1": "前沢三日町",
    "address2": "",
    "regionKana": "イワテケン",
    "localityKana": "オウシュウシ",
    "address1Kana": "マエサワミッカマチ",
    "address2Kana": ""
  },
  {
    "postalCode": "0294207",
    "regionId": 3,
    "region": "岩手県",
    "locality": "奥州市",
    "address1": "前沢三日町浦",
    "address2": "",
    "regionKana": "イワテケン",
    "localityKana": "オウシュウシ",
    "address1Kana": "マエサワミッカマチウラ",
    "address2Kana": ""
  },
  {
    "postalCode": "0294207",
    "regionId": 3,
    "region": "岩手県",
    "locality": "奥州市",
    "address1": "前沢三日町新裏",
    "address2": "",
    "regionKana": "イワテケン",
    "localityKana": "オウシュウシ",
    "address1Kana": "マエサワミッカマチシンウラ",
    "address2Kana": ""
  },
  {
    "postalCode": "0294207",
    "regionId": 3,
    "region": "岩手県",
    "locality": "奥州市",
    "address1": "前沢屋敷",
    "address2": "",
    "regionKana": "イワテケン",
    "localityKana": "オウシュウシ",
    "address1Kana": "マエサワヤシキ",
    "address2Kana": ""
  }
]