[
  {
    "postalCode": "0294208",
    "regionId": 3,
    "region": "岩手県",
    "locality": "奥州市",
    "address1": "前沢粟ケ島",
    "address2": "",
    "regionKana": "イワテケン",
    "localityKana": "オウシュウシ",
    "address1Kana": "マエサワアワガシマ",
    "address2Kana": ""
  },
  {
    "postalCode": "0294208",
    "regionId": 3,
    "region": "岩手県",
    "locality": "奥州市",
    "address1": "前沢河ノ畑",
    "address2": "",
    "regionKana": "イワテケン",
    "localityKana": "オウシュウシ",
    "address1Kana": "マエサワカノハタ",
    "address2Kana": ""
  },
  {
    "postalCode": "0294208",
    "regionId": 3,
    "region": "岩手県",
    "locality": "奥州市",
    "address1": "前沢株樹",
    "address2": "",
    "regionKana": "イワテケン",
    "localityKana": "オウシュウシ",
    "address1Kana": "マエサワカブキ",
    "address2Kana": ""
  },
  {
    "postalCode": "0294208",
    "regionId": 3,
    "region": "岩手県",
    "locality": "奥州市",
    "address1": "前沢五合田",
    "address2": "",
    "regionKana": "イワテケン",
    "localityKana": "オウシュウシ",
    "address1Kana": "マエサワゴゴウタ",
    "address2Kana": ""
  },
  {
    "postalCode": "0294208",
    "regionId": 3,
    "region": "岩手県",
    "locality": "奥州市",
    "address1": "前沢新町",
    "address2": "",
    "regionKana": "イワテケン",
    "localityKana": "オウシュウシ",
    "address1Kana": "マエサワシンマチ",
    "address2Kana": ""
  },
  {
    "postalCode": "0294208",
    "regionId": 3,
    "region": "岩手県",
    "locality": "奥州市",
    "address1": "前沢新町裏",
    "address2": "",
    "regionKana": "イワテケン",
    "localityKana": "オウシュウシ",
    "address1Kana": "マエサワシンマチウラ",
    "address2Kana": ""
  },
  {
    "postalCode": "0294208",
    "regionId": 3,
    "region": "岩手県",
    "locality": "奥州市",
    "address1": "前沢大林寺下",
    "address2": "",
    "regionKana": "イワテケン",
    "localityKana": "オウシュウシ",
    "address1Kana": "マエサワダイリンジシタ",
    "address2Kana": ""
  },
  {
    "postalCode": "0294208",
    "regionId": 3,
    "region": "岩手県",
    "locality": "奥州市",
    "address1": "前沢竹沢",
    "address2": "",
    "regionKana": "イワテケン",
    "localityKana": "オウシュウシ",
    "address1Kana": "マエサワタケザワ",
    "address2Kana": ""
  },
  {
    "postalCode": "0294208",
    "regionId": 3,
    "region": "岩手県",
    "locality": "奥州市",
    "address1": "前沢立石",
    "address2": "",
    "regionKana": "イワテケン",
    "localityKana": "オウシュウシ",
    "address1Kana": "マエサワタテイシ",
    "address2Kana": ""
  },
  {
    "postalCode": "0294208",
    "regionId": 3,
    "region": "岩手県",
    "locality": "奥州市",
    "address1": "前沢田畠",
    "address2": "",
    "regionKana": "イワテケン",
    "localityKana": "オウシュウシ",
    "address1Kana": "マエサワタバタ",
    "address2Kana": ""
  },
  {
    "postalCode": "0294208",
    "regionId": 3,
    "region": "岩手県",
    "locality": "奥州市",
    "address1": "前沢中田",
    "address2": "",
    "regionKana": "イワテケン",
    "localityKana": "オウシュウシ",
    "address1Kana": "マエサワナカダ",
    "address2Kana": ""
  },
  {
    "postalCode": "0294208",
    "regionId": 3,
    "region": "岩手県",
    "locality": "奥州市",
    "address1": "前沢七日町",
    "address2": "",
    "regionKana": "イワテケン",
    "localityKana": "オウシュウシ",
    "address1Kana": "マエサワナノカマチ",
    "address2Kana": ""
  },
  {
    "postalCode": "0294208",
    "regionId": 3,
    "region": "岩手県",
    "locality": "奥州市",
    "address1": "前沢七日町裏",
    "address2": "",
    "regionKana": "イワテケン",
    "localityKana": "オウシュウシ",
    "address1Kana": "マエサワナノカマチウラ",
    "address2Kana": ""
  },
  {
    "postalCode": "0294208",
    "regionId": 3,
    "region": "岩手県",
    "locality": "奥州市",
    "address1": "前沢二十人町",
    "address2": "",
    "regionKana": "イワテケン",
    "localityKana": "オウシュウシ",
    "address1Kana": "マエサワニジュウニンマチ",
    "address2Kana": ""
  },
  {
    "postalCode": "0294208",
    "regionId": 3,
    "region": "岩手県",
    "locality": "奥州市",
    "address1": "前沢二十人町裏",
    "address2": "",
    "regionKana": "イワテケン",
    "localityKana": "オウシュウシ",
    "address1Kana": "マエサワニジュウニンマチウラ",
    "address2Kana": ""
  },
  {
    "postalCode": "0294208",
    "regionId": 3,
    "region": "岩手県",
    "locality": "奥州市",
    "address1": "前沢山下",
    "address2": "",
    "regionKana": "イワテケン",
    "localityKana": "オウシュウシ",
    "address1Kana": "マエサワヤマシタ",
    "address2Kana": ""
  }
]