[
  {
    "postalCode": "0791571",
    "regionId": 1,
    "region": "北海道",
    "locality": "富良野市",
    "address1": "山部西１２線",
    "address2": "",
    "regionKana": "ホッカイドウ",
    "localityKana": "フラノシ",
    "address1Kana": "ヤマベニシ12セン",
    "address2Kana": ""
  },
  {
    "postalCode": "0791571",
    "regionId": 1,
    "region": "北海道",
    "locality": "富良野市",
    "address1": "山部西１３線",
    "address2": "",
    "regionKana": "ホッカイドウ",
    "localityKana": "フラノシ",
    "address1Kana": "ヤマベニシ13セン",
    "address2Kana": ""
  },
  {
    "postalCode": "0791571",
    "regionId": 1,
    "region": "北海道",
    "locality": "富良野市",
    "address1": "山部西１４線",
    "address2": "",
    "regionKana": "ホッカイドウ",
    "localityKana": "フラノシ",
    "address1Kana": "ヤマベニシ14セン",
    "address2Kana": ""
  },
  {
    "postalCode": "0791571",
    "regionId": 1,
    "region": "北海道",
    "locality": "富良野市",
    "address1": "山部西１５線",
    "address2": "",
    "regionKana": "ホッカイドウ",
    "localityKana": "フラノシ",
    "address1Kana": "ヤマベニシ15セン",
    "address2Kana": ""
  },
  {
    "postalCode": "0791571",
    "regionId": 1,
    "region": "北海道",
    "locality": "富良野市",
    "address1": "山部西１６線",
    "address2": "",
    "regionKana": "ホッカイドウ",
    "localityKana": "フラノシ",
    "address1Kana": "ヤマベニシ16セン",
    "address2Kana": ""
  },
  {
    "postalCode": "0791571",
    "regionId": 1,
    "region": "北海道",
    "locality": "富良野市",
    "address1": "山部西１７線",
    "address2": "",
    "regionKana": "ホッカイドウ",
    "localityKana": "フラノシ",
    "address1Kana": "ヤマベニシ17セン",
    "address2Kana": ""
  },
  {
    "postalCode": "0791571",
    "regionId": 1,
    "region": "北海道",
    "locality": "富良野市",
    "address1": "山部西１８線",
    "address2": "",
    "regionKana": "ホッカイドウ",
    "localityKana": "フラノシ",
    "address1Kana": "ヤマベニシ18セン",
    "address2Kana": ""
  },
  {
    "postalCode": "0791571",
    "regionId": 1,
    "region": "北海道",
    "locality": "富良野市",
    "address1": "山部西１９線",
    "address2": "",
    "regionKana": "ホッカイドウ",
    "localityKana": "フラノシ",
    "address1Kana": "ヤマベニシ19セン",
    "address2Kana": ""
  }
]