[
  {
    "postalCode": "0791581",
    "regionId": 1,
    "region": "北海道",
    "locality": "富良野市",
    "address1": "山部東１２線",
    "address2": "",
    "regionKana": "ホッカイドウ",
    "localityKana": "フラノシ",
    "address1Kana": "ヤマベヒガシ12セン",
    "address2Kana": ""
  },
  {
    "postalCode": "0791581",
    "regionId": 1,
    "region": "北海道",
    "locality": "富良野市",
    "address1": "山部東１３線",
    "address2": "",
    "regionKana": "ホッカイドウ",
    "localityKana": "フラノシ",
    "address1Kana": "ヤマベヒガシ13セン",
    "address2Kana": ""
  },
  {
    "postalCode": "0791581",
    "regionId": 1,
    "region": "北海道",
    "locality": "富良野市",
    "address1": "山部東１４線",
    "address2": "",
    "regionKana": "ホッカイドウ",
    "localityKana": "フラノシ",
    "address1Kana": "ヤマベヒガシ14セン",
    "address2Kana": ""
  },
  {
    "postalCode": "0791581",
    "regionId": 1,
    "region": "北海道",
    "locality": "富良野市",
    "address1": "山部東１５線",
    "address2": "",
    "regionKana": "ホッカイドウ",
    "localityKana": "フラノシ",
    "address1Kana": "ヤマベヒガシ15セン",
    "address2Kana": ""
  },
  {
    "postalCode": "0791581",
    "regionId": 1,
    "region": "北海道",
    "locality": "富良野市",
    "address1": "山部東１６線",
    "address2": "",
    "regionKana": "ホッカイドウ",
    "localityKana": "フラノシ",
    "address1Kana": "ヤマベヒガシ16セン",
    "address2Kana": ""
  },
  {
    "postalCode": "0791581",
    "regionId": 1,
    "region": "北海道",
    "locality": "富良野市",
    "address1": "山部東１７線",
    "address2": "",
    "regionKana": "ホッカイドウ",
    "localityKana": "フラノシ",
    "address1Kana": "ヤマベヒガシ17セン",
    "address2Kana": ""
  },
  {
    "postalCode": "0791581",
    "regionId": 1,
    "region": "北海道",
    "locality": "富良野市",
    "address1": "山部東１８線",
    "address2": "",
    "regionKana": "ホッカイドウ",
    "localityKana": "フラノシ",
    "address1Kana": "ヤマベヒガシ18セン",
    "address2Kana": ""
  },
  {
    "postalCode": "0791581",
    "regionId": 1,
    "region": "北海道",
    "locality": "富良野市",
    "address1": "山部東１９線",
    "address2": "",
    "regionKana": "ホッカイドウ",
    "localityKana": "フラノシ",
    "address1Kana": "ヤマベヒガシ19セン",
    "address2Kana": ""
  }
]