[
  {
    "postalCode": "9892351",
    "regionId": 4,
    "region": "宮城県",
    "locality": "亘理郡亘理町",
    "address1": "旭",
    "address2": "",
    "regionKana": "ミヤギケン",
    "localityKana": "ワタリグンワタリチョウ",
    "address1Kana": "アサヒ",
    "address2Kana": ""
  },
  {
    "postalCode": "9892351",
    "regionId": 4,
    "region": "宮城県",
    "locality": "亘理郡亘理町",
    "address1": "旭山",
    "address2": "",
    "regionKana": "ミヤギケン",
    "localityKana": "ワタリグンワタリチョウ",
    "address1Kana": "アサヒヤマ",
    "address2Kana": ""
  },
  {
    "postalCode": "9892351",
    "regionId": 4,
    "region": "宮城県",
    "locality": "亘理郡亘理町",
    "address1": "油田",
    "address2": "",
    "regionKana": "ミヤギケン",
    "localityKana": "ワタリグンワタリチョウ",
    "address1Kana": "アブラデン",
    "address2Kana": ""
  },
  {
    "postalCode": "9892351",
    "regionId": 4,
    "region": "宮城県",
    "locality": "亘理郡亘理町",
    "address1": "五日町",
    "address2": "",
    "regionKana": "ミヤギケン",
    "localityKana": "ワタリグンワタリチョウ",
    "address1Kana": "イツカマチ",
    "address2Kana": ""
  },
  {
    "postalCode": "9892351",
    "regionId": 4,
    "region": "宮城県",
    "locality": "亘理郡亘理町",
    "address1": "祝田",
    "address2": "",
    "regionKana": "ミヤギケン",
    "localityKana": "ワタリグンワタリチョウ",
    "address1Kana": "イワイダ",
    "address2Kana": ""
  },
  {
    "postalCode": "9892351",
    "regionId": 4,
    "region": "宮城県",
    "locality": "亘理郡亘理町",
    "address1": "裏城戸",
    "address2": "",
    "regionKana": "ミヤギケン",
    "localityKana": "ワタリグンワタリチョウ",
    "address1Kana": "ウラキド",
    "address2Kana": ""
  },
  {
    "postalCode": "9892351",
    "regionId": 4,
    "region": "宮城県",
    "locality": "亘理郡亘理町",
    "address1": "江下",
    "address2": "",
    "regionKana": "ミヤギケン",
    "localityKana": "ワタリグンワタリチョウ",
    "address1Kana": "エシタ",
    "address2Kana": ""
  },
  {
    "postalCode": "9892351",
    "regionId": 4,
    "region": "宮城県",
    "locality": "亘理郡亘理町",
    "address1": "上中野地",
    "address2": "",
    "regionKana": "ミヤギケン",
    "localityKana": "ワタリグンワタリチョウ",
    "address1Kana": "カミナカヤチ",
    "address2Kana": ""
  },
  {
    "postalCode": "9892351",
    "regionId": 4,
    "region": "宮城県",
    "locality": "亘理郡亘理町",
    "address1": "上浜街道",
    "address2": "",
    "regionKana": "ミヤギケン",
    "localityKana": "ワタリグンワタリチョウ",
    "address1Kana": "カミハマカイドウ",
    "address2Kana": ""
  },
  {
    "postalCode": "9892351",
    "regionId": 4,
    "region": "宮城県",
    "locality": "亘理郡亘理町",
    "address1": "上茨田",
    "address2": "",
    "regionKana": "ミヤギケン",
    "localityKana": "ワタリグンワタリチョウ",
    "address1Kana": "カミバラダ",
    "address2Kana": ""
  },
  {
    "postalCode": "9892351",
    "regionId": 4,
    "region": "宮城県",
    "locality": "亘理郡亘理町",
    "address1": "亀井戸",
    "address2": "",
    "regionKana": "ミヤギケン",
    "localityKana": "ワタリグンワタリチョウ",
    "address1Kana": "カメイド",
    "address2Kana": ""
  },
  {
    "postalCode": "9892351",
    "regionId": 4,
    "region": "宮城県",
    "locality": "亘理郡亘理町",
    "address1": "上町",
    "address2": "",
    "regionKana": "ミヤギケン",
    "localityKana": "ワタリグンワタリチョウ",
    "address1Kana": "カンマチ",
    "address2Kana": ""
  },
  {
    "postalCode": "9892351",
    "regionId": 4,
    "region": "宮城県",
    "locality": "亘理郡亘理町",
    "address1": "北新田",
    "address2": "",
    "regionKana": "ミヤギケン",
    "localityKana": "ワタリグンワタリチョウ",
    "address1Kana": "キタシンデン",
    "address2Kana": ""
  },
  {
    "postalCode": "9892351",
    "regionId": 4,
    "region": "宮城県",
    "locality": "亘理郡亘理町",
    "address1": "北新町",
    "address2": "",
    "regionKana": "ミヤギケン",
    "localityKana": "ワタリグンワタリチョウ",
    "address1Kana": "キタシンマチ",
    "address2Kana": ""
  },
  {
    "postalCode": "9892351",
    "regionId": 4,
    "region": "宮城県",
    "locality": "亘理郡亘理町",
    "address1": "狐塚",
    "address2": "",
    "regionKana": "ミヤギケン",
    "localityKana": "ワタリグンワタリチョウ",
    "address1Kana": "キツネヅカ",
    "address2Kana": ""
  },
  {
    "postalCode": "9892351",
    "regionId": 4,
    "region": "宮城県",
    "locality": "亘理郡亘理町",
    "address1": "旧舘",
    "address2": "",
    "regionKana": "ミヤギケン",
    "localityKana": "ワタリグンワタリチョウ",
    "address1Kana": "キュウカン",
    "address2Kana": ""
  },
  {
    "postalCode": "9892351",
    "regionId": 4,
    "region": "宮城県",
    "locality": "亘理郡亘理町",
    "address1": "境堤",
    "address2": "",
    "regionKana": "ミヤギケン",
    "localityKana": "ワタリグンワタリチョウ",
    "address1Kana": "サカイツツミ",
    "address2Kana": ""
  },
  {
    "postalCode": "9892351",
    "regionId": 4,
    "region": "宮城県",
    "locality": "亘理郡亘理町",
    "address1": "桜小路",
    "address2": "",
    "regionKana": "ミヤギケン",
    "localityKana": "ワタリグンワタリチョウ",
    "address1Kana": "サクラコウジ",
    "address2Kana": ""
  },
  {
    "postalCode": "9892351",
    "regionId": 4,
    "region": "宮城県",
    "locality": "亘理郡亘理町",
    "address1": "芝西",
    "address2": "",
    "regionKana": "ミヤギケン",
    "localityKana": "ワタリグンワタリチョウ",
    "address1Kana": "シバニシ",
    "address2Kana": ""
  },
  {
    "postalCode": "9892351",
    "regionId": 4,
    "region": "宮城県",
    "locality": "亘理郡亘理町",
    "address1": "下小路",
    "address2": "",
    "regionKana": "ミヤギケン",
    "localityKana": "ワタリグンワタリチョウ",
    "address1Kana": "シモコウジ",
    "address2Kana": ""
  },
  {
    "postalCode": "9892351",
    "regionId": 4,
    "region": "宮城県",
    "locality": "亘理郡亘理町",
    "address1": "下浜街道",
    "address2": "",
    "regionKana": "ミヤギケン",
    "localityKana": "ワタリグンワタリチョウ",
    "address1Kana": "シモハマカイドウ",
    "address2Kana": ""
  },
  {
    "postalCode": "9892351",
    "regionId": 4,
    "region": "宮城県",
    "locality": "亘理郡亘理町",
    "address1": "下茨田",
    "address2": "",
    "regionKana": "ミヤギケン",
    "localityKana": "ワタリグンワタリチョウ",
    "address1Kana": "シモバラダ",
    "address2Kana": ""
  },
  {
    "postalCode": "9892351",
    "regionId": 4,
    "region": "宮城県",
    "locality": "亘理郡亘理町",
    "address1": "新町",
    "address2": "",
    "regionKana": "ミヤギケン",
    "localityKana": "ワタリグンワタリチョウ",
    "address1Kana": "シンマチ",
    "address2Kana": ""
  },
  {
    "postalCode": "9892351",
    "regionId": 4,
    "region": "宮城県",
    "locality": "亘理郡亘理町",
    "address1": "台田",
    "address2": "",
    "regionKana": "ミヤギケン",
    "localityKana": "ワタリグンワタリチョウ",
    "address1Kana": "ダイダ",
    "address2Kana": ""
  },
  {
    "postalCode": "9892351",
    "regionId": 4,
    "region": "宮城県",
    "locality": "亘理郡亘理町",
    "address1": "道田中",
    "address2": "",
    "regionKana": "ミヤギケン",
    "localityKana": "ワタリグンワタリチョウ",
    "address1Kana": "ドウダナカ",
    "address2Kana": ""
  },
  {
    "postalCode": "9892351",
    "regionId": 4,
    "region": "宮城県",
    "locality": "亘理郡亘理町",
    "address1": "道田東",
    "address2": "",
    "regionKana": "ミヤギケン",
    "localityKana": "ワタリグンワタリチョウ",
    "address1Kana": "ドウダヒガシ",
    "address2Kana": ""
  },
  {
    "postalCode": "9892351",
    "regionId": 4,
    "region": "宮城県",
    "locality": "亘理郡亘理町",
    "address1": "道田西",
    "address2": "",
    "regionKana": "ミヤギケン",
    "localityKana": "ワタリグンワタリチョウ",
    "address1Kana": "ドウダニシ",
    "address2Kana": ""
  },
  {
    "postalCode": "9892351",
    "regionId": 4,
    "region": "宮城県",
    "locality": "亘理郡亘理町",
    "address1": "中町",
    "address2": "",
    "regionKana": "ミヤギケン",
    "localityKana": "ワタリグンワタリチョウ",
    "address1Kana": "ナカマチ",
    "address2Kana": ""
  },
  {
    "postalCode": "9892351",
    "regionId": 4,
    "region": "宮城県",
    "locality": "亘理郡亘理町",
    "address1": "中町東",
    "address2": "",
    "regionKana": "ミヤギケン",
    "localityKana": "ワタリグンワタリチョウ",
    "address1Kana": "ナカマチヒガシ",
    "address2Kana": ""
  },
  {
    "postalCode": "9892351",
    "regionId": 4,
    "region": "宮城県",
    "locality": "亘理郡亘理町",
    "address1": "新井町",
    "address2": "",
    "regionKana": "ミヤギケン",
    "localityKana": "ワタリグンワタリチョウ",
    "address1Kana": "ニイマチ",
    "address2Kana": ""
  },
  {
    "postalCode": "9892351",
    "regionId": 4,
    "region": "宮城県",
    "locality": "亘理郡亘理町",
    "address1": "西郷",
    "address2": "",
    "regionKana": "ミヤギケン",
    "localityKana": "ワタリグンワタリチョウ",
    "address1Kana": "ニシゴウ",
    "address2Kana": ""
  },
  {
    "postalCode": "9892351",
    "regionId": 4,
    "region": "宮城県",
    "locality": "亘理郡亘理町",
    "address1": "茨田後",
    "address2": "",
    "regionKana": "ミヤギケン",
    "localityKana": "ワタリグンワタリチョウ",
    "address1Kana": "バラダウシロ",
    "address2Kana": ""
  },
  {
    "postalCode": "9892351",
    "regionId": 4,
    "region": "宮城県",
    "locality": "亘理郡亘理町",
    "address1": "東郷",
    "address2": "",
    "regionKana": "ミヤギケン",
    "localityKana": "ワタリグンワタリチョウ",
    "address1Kana": "ヒガシゴウ",
    "address2Kana": ""
  },
  {
    "postalCode": "9892351",
    "regionId": 4,
    "region": "宮城県",
    "locality": "亘理郡亘理町",
    "address1": "見田内",
    "address2": "",
    "regionKana": "ミヤギケン",
    "localityKana": "ワタリグンワタリチョウ",
    "address1Kana": "ミダウチ",
    "address2Kana": ""
  },
  {
    "postalCode": "9892351",
    "regionId": 4,
    "region": "宮城県",
    "locality": "亘理郡亘理町",
    "address1": "南町",
    "address2": "",
    "regionKana": "ミヤギケン",
    "localityKana": "ワタリグンワタリチョウ",
    "address1Kana": "ミナミマチ",
    "address2Kana": ""
  },
  {
    "postalCode": "9892351",
    "regionId": 4,
    "region": "宮城県",
    "locality": "亘理郡亘理町",
    "address1": "南町東",
    "address2": "",
    "regionKana": "ミヤギケン",
    "localityKana": "ワタリグンワタリチョウ",
    "address1Kana": "ミナミマチヒガシ",
    "address2Kana": ""
  }
]