[
  {
    "postalCode": "9892361",
    "regionId": 4,
    "region": "宮城県",
    "locality": "亘理郡亘理町",
    "address1": "愛宕前",
    "address2": "",
    "regionKana": "ミヤギケン",
    "localityKana": "ワタリグンワタリチョウ",
    "address1Kana": "アタゴマエ",
    "address2Kana": ""
  },
  {
    "postalCode": "9892361",
    "regionId": 4,
    "region": "宮城県",
    "locality": "亘理郡亘理町",
    "address1": "泉ケ入",
    "address2": "",
    "regionKana": "ミヤギケン",
    "localityKana": "ワタリグンワタリチョウ",
    "address1Kana": "イズミガイリ",
    "address2Kana": ""
  },
  {
    "postalCode": "9892361",
    "regionId": 4,
    "region": "宮城県",
    "locality": "亘理郡亘理町",
    "address1": "北猿田",
    "address2": "",
    "regionKana": "ミヤギケン",
    "localityKana": "ワタリグンワタリチョウ",
    "address1Kana": "キタサルタ",
    "address2Kana": ""
  },
  {
    "postalCode": "9892361",
    "regionId": 4,
    "region": "宮城県",
    "locality": "亘理郡亘理町",
    "address1": "倉庭",
    "address2": "",
    "regionKana": "ミヤギケン",
    "localityKana": "ワタリグンワタリチョウ",
    "address1Kana": "クラニワ",
    "address2Kana": ""
  },
  {
    "postalCode": "9892361",
    "regionId": 4,
    "region": "宮城県",
    "locality": "亘理郡亘理町",
    "address1": "先達前",
    "address2": "",
    "regionKana": "ミヤギケン",
    "localityKana": "ワタリグンワタリチョウ",
    "address1Kana": "センダツマエ",
    "address2Kana": ""
  },
  {
    "postalCode": "9892361",
    "regionId": 4,
    "region": "宮城県",
    "locality": "亘理郡亘理町",
    "address1": "舘南",
    "address2": "",
    "regionKana": "ミヤギケン",
    "localityKana": "ワタリグンワタリチョウ",
    "address1Kana": "タテミナミ",
    "address2Kana": ""
  },
  {
    "postalCode": "9892361",
    "regionId": 4,
    "region": "宮城県",
    "locality": "亘理郡亘理町",
    "address1": "鳥居前",
    "address2": "",
    "regionKana": "ミヤギケン",
    "localityKana": "ワタリグンワタリチョウ",
    "address1Kana": "トリイマエ",
    "address2Kana": ""
  },
  {
    "postalCode": "9892361",
    "regionId": 4,
    "region": "宮城県",
    "locality": "亘理郡亘理町",
    "address1": "沼頭",
    "address2": "",
    "regionKana": "ミヤギケン",
    "localityKana": "ワタリグンワタリチョウ",
    "address1Kana": "ヌマガシラ",
    "address2Kana": ""
  },
  {
    "postalCode": "9892361",
    "regionId": 4,
    "region": "宮城県",
    "locality": "亘理郡亘理町",
    "address1": "卑下入",
    "address2": "",
    "regionKana": "ミヤギケン",
    "localityKana": "ワタリグンワタリチョウ",
    "address1Kana": "ヒガイリ",
    "address2Kana": ""
  },
  {
    "postalCode": "9892361",
    "regionId": 4,
    "region": "宮城県",
    "locality": "亘理郡亘理町",
    "address1": "堀の内",
    "address2": "",
    "regionKana": "ミヤギケン",
    "localityKana": "ワタリグンワタリチョウ",
    "address1Kana": "ホリノウチ",
    "address2Kana": ""
  },
  {
    "postalCode": "9892361",
    "regionId": 4,
    "region": "宮城県",
    "locality": "亘理郡亘理町",
    "address1": "雪穴",
    "address2": "",
    "regionKana": "ミヤギケン",
    "localityKana": "ワタリグンワタリチョウ",
    "address1Kana": "ユキアナ",
    "address2Kana": ""
  },
  {
    "postalCode": "9892361",
    "regionId": 4,
    "region": "宮城県",
    "locality": "亘理郡亘理町",
    "address1": "龍円寺前",
    "address2": "",
    "regionKana": "ミヤギケン",
    "localityKana": "ワタリグンワタリチョウ",
    "address1Kana": "リュウエンジマエ",
    "address2Kana": ""
  }
]