[
  {
    "postalCode": "9896711",
    "regionId": 4,
    "region": "宮城県",
    "locality": "大崎市",
    "address1": "鳴子温泉赤這",
    "address2": "",
    "regionKana": "ミヤギケン",
    "localityKana": "オオサキシ",
    "address1Kana": "ナルコオンセンアカバイ",
    "address2Kana": ""
  },
  {
    "postalCode": "9896711",
    "regionId": 4,
    "region": "宮城県",
    "locality": "大崎市",
    "address1": "鳴子温泉石ノ梅",
    "address2": "",
    "regionKana": "ミヤギケン",
    "localityKana": "オオサキシ",
    "address1Kana": "ナルコオンセンイシノウメ",
    "address2Kana": ""
  },
  {
    "postalCode": "9896711",
    "regionId": 4,
    "region": "宮城県",
    "locality": "大崎市",
    "address1": "鳴子温泉入沢",
    "address2": "",
    "regionKana": "ミヤギケン",
    "localityKana": "オオサキシ",
    "address1Kana": "ナルコオンセンイリサワ",
    "address2Kana": ""
  },
  {
    "postalCode": "9896711",
    "regionId": 4,
    "region": "宮城県",
    "locality": "大崎市",
    "address1": "鳴子温泉上ノ原",
    "address2": "",
    "regionKana": "ミヤギケン",
    "localityKana": "オオサキシ",
    "address1Kana": "ナルコオンセンウエノハラ",
    "address2Kana": ""
  },
  {
    "postalCode": "9896711",
    "regionId": 4,
    "region": "宮城県",
    "locality": "大崎市",
    "address1": "鳴子温泉上川原",
    "address2": "",
    "regionKana": "ミヤギケン",
    "localityKana": "オオサキシ",
    "address1Kana": "ナルコオンセンカミガワラ",
    "address2Kana": ""
  },
  {
    "postalCode": "9896711",
    "regionId": 4,
    "region": "宮城県",
    "locality": "大崎市",
    "address1": "鳴子温泉通原",
    "address2": "",
    "regionKana": "ミヤギケン",
    "localityKana": "オオサキシ",
    "address1Kana": "ナルコオンセンカヨバラ",
    "address2Kana": ""
  },
  {
    "postalCode": "9896711",
    "regionId": 4,
    "region": "宮城県",
    "locality": "大崎市",
    "address1": "鳴子温泉川渡",
    "address2": "",
    "regionKana": "ミヤギケン",
    "localityKana": "オオサキシ",
    "address1Kana": "ナルコオンセンカワタビ",
    "address2Kana": ""
  },
  {
    "postalCode": "9896711",
    "regionId": 4,
    "region": "宮城県",
    "locality": "大崎市",
    "address1": "鳴子温泉築沢",
    "address2": "",
    "regionKana": "ミヤギケン",
    "localityKana": "オオサキシ",
    "address1Kana": "ナルコオンセンキザワ",
    "address2Kana": ""
  },
  {
    "postalCode": "9896711",
    "regionId": 4,
    "region": "宮城県",
    "locality": "大崎市",
    "address1": "鳴子温泉久田",
    "address2": "",
    "regionKana": "ミヤギケン",
    "localityKana": "オオサキシ",
    "address1Kana": "ナルコオンセンキュウデン",
    "address2Kana": ""
  },
  {
    "postalCode": "9896711",
    "regionId": 4,
    "region": "宮城県",
    "locality": "大崎市",
    "address1": "鳴子温泉沢",
    "address2": "",
    "regionKana": "ミヤギケン",
    "localityKana": "オオサキシ",
    "address1Kana": "ナルコオンセンサワ",
    "address2Kana": ""
  },
  {
    "postalCode": "9896711",
    "regionId": 4,
    "region": "宮城県",
    "locality": "大崎市",
    "address1": "鳴子温泉新田",
    "address2": "",
    "regionKana": "ミヤギケン",
    "localityKana": "オオサキシ",
    "address1Kana": "ナルコオンセンシンデン",
    "address2Kana": ""
  },
  {
    "postalCode": "9896711",
    "regionId": 4,
    "region": "宮城県",
    "locality": "大崎市",
    "address1": "鳴子温泉新町下",
    "address2": "",
    "regionKana": "ミヤギケン",
    "localityKana": "オオサキシ",
    "address1Kana": "ナルコオンセンシンマチシタ",
    "address2Kana": ""
  },
  {
    "postalCode": "9896711",
    "regionId": 4,
    "region": "宮城県",
    "locality": "大崎市",
    "address1": "鳴子温泉玉ノ木",
    "address2": "",
    "regionKana": "ミヤギケン",
    "localityKana": "オオサキシ",
    "address1Kana": "ナルコオンセンタマノキ",
    "address2Kana": ""
  },
  {
    "postalCode": "9896711",
    "regionId": 4,
    "region": "宮城県",
    "locality": "大崎市",
    "address1": "鳴子温泉中野",
    "address2": "",
    "regionKana": "ミヤギケン",
    "localityKana": "オオサキシ",
    "address1Kana": "ナルコオンセンナカノ",
    "address2Kana": ""
  },
  {
    "postalCode": "9896711",
    "regionId": 4,
    "region": "宮城県",
    "locality": "大崎市",
    "address1": "鳴子温泉沼井",
    "address2": "",
    "regionKana": "ミヤギケン",
    "localityKana": "オオサキシ",
    "address1Kana": "ナルコオンセンヌマイ",
    "address2Kana": ""
  },
  {
    "postalCode": "9896711",
    "regionId": 4,
    "region": "宮城県",
    "locality": "大崎市",
    "address1": "鳴子温泉馬場",
    "address2": "",
    "regionKana": "ミヤギケン",
    "localityKana": "オオサキシ",
    "address1Kana": "ナルコオンセンババ",
    "address2Kana": ""
  },
  {
    "postalCode": "9896711",
    "regionId": 4,
    "region": "宮城県",
    "locality": "大崎市",
    "address1": "鳴子温泉原",
    "address2": "",
    "regionKana": "ミヤギケン",
    "localityKana": "オオサキシ",
    "address1Kana": "ナルコオンセンハラ",
    "address2Kana": ""
  },
  {
    "postalCode": "9896711",
    "regionId": 4,
    "region": "宮城県",
    "locality": "大崎市",
    "address1": "鳴子温泉町",
    "address2": "",
    "regionKana": "ミヤギケン",
    "localityKana": "オオサキシ",
    "address1Kana": "ナルコオンセンマチ",
    "address2Kana": ""
  },
  {
    "postalCode": "9896711",
    "regionId": 4,
    "region": "宮城県",
    "locality": "大崎市",
    "address1": "鳴子温泉町下",
    "address2": "",
    "regionKana": "ミヤギケン",
    "localityKana": "オオサキシ",
    "address1Kana": "ナルコオンセンマチシタ",
    "address2Kana": ""
  },
  {
    "postalCode": "9896711",
    "regionId": 4,
    "region": "宮城県",
    "locality": "大崎市",
    "address1": "鳴子温泉町西",
    "address2": "",
    "regionKana": "ミヤギケン",
    "localityKana": "オオサキシ",
    "address1Kana": "ナルコオンセンマチニシ",
    "address2Kana": ""
  },
  {
    "postalCode": "9896711",
    "regionId": 4,
    "region": "宮城県",
    "locality": "大崎市",
    "address1": "鳴子温泉要害",
    "address2": "",
    "regionKana": "ミヤギケン",
    "localityKana": "オオサキシ",
    "address1Kana": "ナルコオンセンヨウガイ",
    "address2Kana": ""
  },
  {
    "postalCode": "9896711",
    "regionId": 4,
    "region": "宮城県",
    "locality": "大崎市",
    "address1": "鳴子温泉横山",
    "address2": "",
    "regionKana": "ミヤギケン",
    "localityKana": "オオサキシ",
    "address1Kana": "ナルコオンセンヨコヤマ",
    "address2Kana": ""
  },
  {
    "postalCode": "9896711",
    "regionId": 4,
    "region": "宮城県",
    "locality": "大崎市",
    "address1": "鳴子温泉蓬田",
    "address2": "",
    "regionKana": "ミヤギケン",
    "localityKana": "オオサキシ",
    "address1Kana": "ナルコオンセンヨモギダ",
    "address2Kana": ""
  }
]