[
  {
    "postalCode": "9896712",
    "regionId": 4,
    "region": "宮城県",
    "locality": "大崎市",
    "address1": "鳴子温泉小身川原",
    "address2": "",
    "regionKana": "ミヤギケン",
    "localityKana": "オオサキシ",
    "address1Kana": "ナルコオンセンオミガワラ",
    "address2Kana": ""
  },
  {
    "postalCode": "9896712",
    "regionId": 4,
    "region": "宮城県",
    "locality": "大崎市",
    "address1": "鳴子温泉川袋",
    "address2": "",
    "regionKana": "ミヤギケン",
    "localityKana": "オオサキシ",
    "address1Kana": "ナルコオンセンカワブクロ",
    "address2Kana": ""
  },
  {
    "postalCode": "9896712",
    "regionId": 4,
    "region": "宮城県",
    "locality": "大崎市",
    "address1": "鳴子温泉木戸脇",
    "address2": "",
    "regionKana": "ミヤギケン",
    "localityKana": "オオサキシ",
    "address1Kana": "ナルコオンセンキドワキ",
    "address2Kana": ""
  },
  {
    "postalCode": "9896712",
    "regionId": 4,
    "region": "宮城県",
    "locality": "大崎市",
    "address1": "鳴子温泉黒崎",
    "address2": "",
    "regionKana": "ミヤギケン",
    "localityKana": "オオサキシ",
    "address1Kana": "ナルコオンセンクロサキ",
    "address2Kana": ""
  },
  {
    "postalCode": "9896712",
    "regionId": 4,
    "region": "宮城県",
    "locality": "大崎市",
    "address1": "鳴子温泉小室",
    "address2": "",
    "regionKana": "ミヤギケン",
    "localityKana": "オオサキシ",
    "address1Kana": "ナルコオンセンコムロ",
    "address2Kana": ""
  },
  {
    "postalCode": "9896712",
    "regionId": 4,
    "region": "宮城県",
    "locality": "大崎市",
    "address1": "鳴子温泉小室山",
    "address2": "",
    "regionKana": "ミヤギケン",
    "localityKana": "オオサキシ",
    "address1Kana": "ナルコオンセンコムロヤマ",
    "address2Kana": ""
  },
  {
    "postalCode": "9896712",
    "regionId": 4,
    "region": "宮城県",
    "locality": "大崎市",
    "address1": "鳴子温泉境松",
    "address2": "",
    "regionKana": "ミヤギケン",
    "localityKana": "オオサキシ",
    "address1Kana": "ナルコオンセンサカイマツ",
    "address2Kana": ""
  },
  {
    "postalCode": "9896712",
    "regionId": 4,
    "region": "宮城県",
    "locality": "大崎市",
    "address1": "鳴子温泉坂ノ上",
    "address2": "",
    "regionKana": "ミヤギケン",
    "localityKana": "オオサキシ",
    "address1Kana": "ナルコオンセンサカノウエ",
    "address2Kana": ""
  },
  {
    "postalCode": "9896712",
    "regionId": 4,
    "region": "宮城県",
    "locality": "大崎市",
    "address1": "鳴子温泉沢目木",
    "address2": "",
    "regionKana": "ミヤギケン",
    "localityKana": "オオサキシ",
    "address1Kana": "ナルコオンセンサワメキ",
    "address2Kana": ""
  },
  {
    "postalCode": "9896712",
    "regionId": 4,
    "region": "宮城県",
    "locality": "大崎市",
    "address1": "鳴子温泉新小身川原",
    "address2": "",
    "regionKana": "ミヤギケン",
    "localityKana": "オオサキシ",
    "address1Kana": "ナルコオンセンシンオミガワラ",
    "address2Kana": ""
  },
  {
    "postalCode": "9896712",
    "regionId": 4,
    "region": "宮城県",
    "locality": "大崎市",
    "address1": "鳴子温泉関口",
    "address2": "",
    "regionKana": "ミヤギケン",
    "localityKana": "オオサキシ",
    "address1Kana": "ナルコオンセンセキグチ",
    "address2Kana": ""
  },
  {
    "postalCode": "9896712",
    "regionId": 4,
    "region": "宮城県",
    "locality": "大崎市",
    "address1": "鳴子温泉大尺",
    "address2": "",
    "regionKana": "ミヤギケン",
    "localityKana": "オオサキシ",
    "address1Kana": "ナルコオンセンダイシャク",
    "address2Kana": ""
  },
  {
    "postalCode": "9896712",
    "regionId": 4,
    "region": "宮城県",
    "locality": "大崎市",
    "address1": "鳴子温泉滝岸",
    "address2": "",
    "regionKana": "ミヤギケン",
    "localityKana": "オオサキシ",
    "address1Kana": "ナルコオンセンタキギシ",
    "address2Kana": ""
  },
  {
    "postalCode": "9896712",
    "regionId": 4,
    "region": "宮城県",
    "locality": "大崎市",
    "address1": "鳴子温泉竹原",
    "address2": "",
    "regionKana": "ミヤギケン",
    "localityKana": "オオサキシ",
    "address1Kana": "ナルコオンセンタケハラ",
    "address2Kana": ""
  },
  {
    "postalCode": "9896712",
    "regionId": 4,
    "region": "宮城県",
    "locality": "大崎市",
    "address1": "鳴子温泉田中",
    "address2": "",
    "regionKana": "ミヤギケン",
    "localityKana": "オオサキシ",
    "address1Kana": "ナルコオンセンタナカ",
    "address2Kana": ""
  },
  {
    "postalCode": "9896712",
    "regionId": 4,
    "region": "宮城県",
    "locality": "大崎市",
    "address1": "鳴子温泉月山",
    "address2": "",
    "regionKana": "ミヤギケン",
    "localityKana": "オオサキシ",
    "address1Kana": "ナルコオンセンツキヤマ",
    "address2Kana": ""
  },
  {
    "postalCode": "9896712",
    "regionId": 4,
    "region": "宮城県",
    "locality": "大崎市",
    "address1": "鳴子温泉堤下",
    "address2": "",
    "regionKana": "ミヤギケン",
    "localityKana": "オオサキシ",
    "address1Kana": "ナルコオンセンツツミシタ",
    "address2Kana": ""
  },
  {
    "postalCode": "9896712",
    "regionId": 4,
    "region": "宮城県",
    "locality": "大崎市",
    "address1": "鳴子温泉鶴田",
    "address2": "",
    "regionKana": "ミヤギケン",
    "localityKana": "オオサキシ",
    "address1Kana": "ナルコオンセンツルタ",
    "address2Kana": ""
  },
  {
    "postalCode": "9896712",
    "regionId": 4,
    "region": "宮城県",
    "locality": "大崎市",
    "address1": "鳴子温泉天神",
    "address2": "",
    "regionKana": "ミヤギケン",
    "localityKana": "オオサキシ",
    "address1Kana": "ナルコオンセンテンジン",
    "address2Kana": ""
  },
  {
    "postalCode": "9896712",
    "regionId": 4,
    "region": "宮城県",
    "locality": "大崎市",
    "address1": "鳴子温泉中道",
    "address2": "",
    "regionKana": "ミヤギケン",
    "localityKana": "オオサキシ",
    "address1Kana": "ナルコオンセンナカミチ",
    "address2Kana": ""
  },
  {
    "postalCode": "9896712",
    "regionId": 4,
    "region": "宮城県",
    "locality": "大崎市",
    "address1": "鳴子温泉野際",
    "address2": "",
    "regionKana": "ミヤギケン",
    "localityKana": "オオサキシ",
    "address1Kana": "ナルコオンセンノギワ",
    "address2Kana": ""
  },
  {
    "postalCode": "9896712",
    "regionId": 4,
    "region": "宮城県",
    "locality": "大崎市",
    "address1": "鳴子温泉畑山",
    "address2": "",
    "regionKana": "ミヤギケン",
    "localityKana": "オオサキシ",
    "address1Kana": "ナルコオンセンハタヤマ",
    "address2Kana": ""
  },
  {
    "postalCode": "9896712",
    "regionId": 4,
    "region": "宮城県",
    "locality": "大崎市",
    "address1": "鳴子温泉原崎",
    "address2": "",
    "regionKana": "ミヤギケン",
    "localityKana": "オオサキシ",
    "address1Kana": "ナルコオンセンハラサキ",
    "address2Kana": ""
  },
  {
    "postalCode": "9896712",
    "regionId": 4,
    "region": "宮城県",
    "locality": "大崎市",
    "address1": "鳴子温泉日向山",
    "address2": "",
    "regionKana": "ミヤギケン",
    "localityKana": "オオサキシ",
    "address1Kana": "ナルコオンセンヒナタヤマ",
    "address2Kana": ""
  },
  {
    "postalCode": "9896712",
    "regionId": 4,
    "region": "宮城県",
    "locality": "大崎市",
    "address1": "鳴子温泉不動山",
    "address2": "",
    "regionKana": "ミヤギケン",
    "localityKana": "オオサキシ",
    "address1Kana": "ナルコオンセンフドウヤマ",
    "address2Kana": ""
  },
  {
    "postalCode": "9896712",
    "regionId": 4,
    "region": "宮城県",
    "locality": "大崎市",
    "address1": "鳴子温泉前森",
    "address2": "",
    "regionKana": "ミヤギケン",
    "localityKana": "オオサキシ",
    "address1Kana": "ナルコオンセンマエモリ",
    "address2Kana": ""
  },
  {
    "postalCode": "9896712",
    "regionId": 4,
    "region": "宮城県",
    "locality": "大崎市",
    "address1": "鳴子温泉前山",
    "address2": "",
    "regionKana": "ミヤギケン",
    "localityKana": "オオサキシ",
    "address1Kana": "ナルコオンセンマエヤマ",
    "address2Kana": ""
  },
  {
    "postalCode": "9896712",
    "regionId": 4,
    "region": "宮城県",
    "locality": "大崎市",
    "address1": "鳴子温泉水沼",
    "address2": "",
    "regionKana": "ミヤギケン",
    "localityKana": "オオサキシ",
    "address1Kana": "ナルコオンセンミズヌマ",
    "address2Kana": ""
  },
  {
    "postalCode": "9896712",
    "regionId": 4,
    "region": "宮城県",
    "locality": "大崎市",
    "address1": "鳴子温泉南山",
    "address2": "",
    "regionKana": "ミヤギケン",
    "localityKana": "オオサキシ",
    "address1Kana": "ナルコオンセンミナミヤマ",
    "address2Kana": ""
  },
  {
    "postalCode": "9896712",
    "regionId": 4,
    "region": "宮城県",
    "locality": "大崎市",
    "address1": "鳴子温泉山際",
    "address2": "",
    "regionKana": "ミヤギケン",
    "localityKana": "オオサキシ",
    "address1Kana": "ナルコオンセンヤマギワ",
    "address2Kana": ""
  },
  {
    "postalCode": "9896712",
    "regionId": 4,
    "region": "宮城県",
    "locality": "大崎市",
    "address1": "鳴子温泉和田",
    "address2": "",
    "regionKana": "ミヤギケン",
    "localityKana": "オオサキシ",
    "address1Kana": "ナルコオンセンワダ",
    "address2Kana": ""
  }
]