[
  {
    "postalCode": "7780203",
    "regionId": 36,
    "region": "徳島県",
    "locality": "三好市",
    "address1": "東祖谷奥の井",
    "address2": "",
    "regionKana": "トクシマケン",
    "localityKana": "ミヨシシ",
    "address1Kana": "ヒガシイヤオクノイ",
    "address2Kana": ""
  },
  {
    "postalCode": "7780203",
    "regionId": 36,
    "region": "徳島県",
    "locality": "三好市",
    "address1": "東祖谷釜ケ谷",
    "address2": "",
    "regionKana": "トクシマケン",
    "localityKana": "ミヨシシ",
    "address1Kana": "ヒガシイヤカマガタニ",
    "address2Kana": ""
  },
  {
    "postalCode": "7780203",
    "regionId": 36,
    "region": "徳島県",
    "locality": "三好市",
    "address1": "東祖谷九鬼",
    "address2": "",
    "regionKana": "トクシマケン",
    "localityKana": "ミヨシシ",
    "address1Kana": "ヒガシイヤクキ",
    "address2Kana": ""
  },
  {
    "postalCode": "7780203",
    "regionId": 36,
    "region": "徳島県",
    "locality": "三好市",
    "address1": "東祖谷栗枝渡",
    "address2": "",
    "regionKana": "トクシマケン",
    "localityKana": "ミヨシシ",
    "address1Kana": "ヒガシイヤクリスド",
    "address2Kana": ""
  },
  {
    "postalCode": "7780203",
    "regionId": 36,
    "region": "徳島県",
    "locality": "三好市",
    "address1": "東祖谷下瀬",
    "address2": "",
    "regionKana": "トクシマケン",
    "localityKana": "ミヨシシ",
    "address1Kana": "ヒガシイヤシモセ",
    "address2Kana": ""
  },
  {
    "postalCode": "7780203",
    "regionId": 36,
    "region": "徳島県",
    "locality": "三好市",
    "address1": "東祖谷中上",
    "address2": "",
    "regionKana": "トクシマケン",
    "localityKana": "ミヨシシ",
    "address1Kana": "ヒガシイヤナカウエ",
    "address2Kana": ""
  },
  {
    "postalCode": "7780203",
    "regionId": 36,
    "region": "徳島県",
    "locality": "三好市",
    "address1": "東祖谷西山",
    "address2": "",
    "regionKana": "トクシマケン",
    "localityKana": "ミヨシシ",
    "address1Kana": "ヒガシイヤニシヤマ",
    "address2Kana": ""
  },
  {
    "postalCode": "7780203",
    "regionId": 36,
    "region": "徳島県",
    "locality": "三好市",
    "address1": "東祖谷林",
    "address2": "",
    "regionKana": "トクシマケン",
    "localityKana": "ミヨシシ",
    "address1Kana": "ヒガシイヤハヤシ",
    "address2Kana": ""
  }
]