[
  {
    "postalCode": "0493521",
    "regionId": 1,
    "region": "北海道",
    "locality": "山越郡長万部町",
    "address1": "曙町",
    "address2": "",
    "regionKana": "ホッカイドウ",
    "localityKana": "ヤマコシグンオシャマンベチョウ",
    "address1Kana": "アケボノチョウ",
    "address2Kana": ""
  },
  {
    "postalCode": "0493521",
    "regionId": 1,
    "region": "北海道",
    "locality": "山越郡長万部町",
    "address1": "大町",
    "address2": "",
    "regionKana": "ホッカイドウ",
    "localityKana": "ヤマコシグンオシャマンベチョウ",
    "address1Kana": "オオマチ",
    "address2Kana": ""
  },
  {
    "postalCode": "0493521",
    "regionId": 1,
    "region": "北海道",
    "locality": "山越郡長万部町",
    "address1": "長万部",
    "address2": "",
    "regionKana": "ホッカイドウ",
    "localityKana": "ヤマコシグンオシャマンベチョウ",
    "address1Kana": "オシャマンベ",
    "address2Kana": ""
  },
  {
    "postalCode": "0493521",
    "regionId": 1,
    "region": "北海道",
    "locality": "山越郡長万部町",
    "address1": "温泉町",
    "address2": "",
    "regionKana": "ホッカイドウ",
    "localityKana": "ヤマコシグンオシャマンベチョウ",
    "address1Kana": "オンセンマチ",
    "address2Kana": ""
  },
  {
    "postalCode": "0493521",
    "regionId": 1,
    "region": "北海道",
    "locality": "山越郡長万部町",
    "address1": "新開町",
    "address2": "",
    "regionKana": "ホッカイドウ",
    "localityKana": "ヤマコシグンオシャマンベチョウ",
    "address1Kana": "シンカイチョウ",
    "address2Kana": ""
  },
  {
    "postalCode": "0493521",
    "regionId": 1,
    "region": "北海道",
    "locality": "山越郡長万部町",
    "address1": "陣屋町",
    "address2": "",
    "regionKana": "ホッカイドウ",
    "localityKana": "ヤマコシグンオシャマンベチョウ",
    "address1Kana": "ジンヤマチ",
    "address2Kana": ""
  },
  {
    "postalCode": "0493521",
    "regionId": 1,
    "region": "北海道",
    "locality": "山越郡長万部町",
    "address1": "住吉町",
    "address2": "",
    "regionKana": "ホッカイドウ",
    "localityKana": "ヤマコシグンオシャマンベチョウ",
    "address1Kana": "スミヨシチョウ",
    "address2Kana": ""
  },
  {
    "postalCode": "0493521",
    "regionId": 1,
    "region": "北海道",
    "locality": "山越郡長万部町",
    "address1": "高砂町",
    "address2": "",
    "regionKana": "ホッカイドウ",
    "localityKana": "ヤマコシグンオシャマンベチョウ",
    "address1Kana": "タカサゴチョウ",
    "address2Kana": ""
  },
  {
    "postalCode": "0493521",
    "regionId": 1,
    "region": "北海道",
    "locality": "山越郡長万部町",
    "address1": "本町",
    "address2": "",
    "regionKana": "ホッカイドウ",
    "localityKana": "ヤマコシグンオシャマンベチョウ",
    "address1Kana": "ホンチョウ",
    "address2Kana": ""
  },
  {
    "postalCode": "0493521",
    "regionId": 1,
    "region": "北海道",
    "locality": "山越郡長万部町",
    "address1": "南栄町",
    "address2": "",
    "regionKana": "ホッカイドウ",
    "localityKana": "ヤマコシグンオシャマンベチョウ",
    "address1Kana": "ミナミサカエチョウ",
    "address2Kana": ""
  },
  {
    "postalCode": "0493521",
    "regionId": 1,
    "region": "北海道",
    "locality": "山越郡長万部町",
    "address1": "元町",
    "address2": "",
    "regionKana": "ホッカイドウ",
    "localityKana": "ヤマコシグンオシャマンベチョウ",
    "address1Kana": "モトマチ",
    "address2Kana": ""
  }
]