[
  {
    "postalCode": "4410301",
    "regionId": 23,
    "region": "愛知県",
    "locality": "豊川市",
    "address1": "御津町上佐脇",
    "address2": "",
    "regionKana": "アイチケン",
    "localityKana": "トヨカワシ",
    "address1Kana": "ミトチョウカミサワキ",
    "address2Kana": ""
  },
  {
    "postalCode": "4410301",
    "regionId": 23,
    "region": "愛知県",
    "locality": "豊川市",
    "address1": "御津町上佐脇雨田",
    "address2": "",
    "regionKana": "アイチケン",
    "localityKana": "トヨカワシ",
    "address1Kana": "ミトチョウカミサワキアメダ",
    "address2Kana": ""
  },
  {
    "postalCode": "4410301",
    "regionId": 23,
    "region": "愛知県",
    "locality": "豊川市",
    "address1": "御津町上佐脇犬田",
    "address2": "",
    "regionKana": "アイチケン",
    "localityKana": "トヨカワシ",
    "address1Kana": "ミトチョウカミサワキイヌタ",
    "address2Kana": ""
  },
  {
    "postalCode": "4410301",
    "regionId": 23,
    "region": "愛知県",
    "locality": "豊川市",
    "address1": "御津町上佐脇大郡",
    "address2": "",
    "regionKana": "アイチケン",
    "localityKana": "トヨカワシ",
    "address1Kana": "ミトチョウカミサワキオオゴオリ",
    "address2Kana": ""
  },
  {
    "postalCode": "4410301",
    "regionId": 23,
    "region": "愛知県",
    "locality": "豊川市",
    "address1": "御津町上佐脇河原田",
    "address2": "",
    "regionKana": "アイチケン",
    "localityKana": "トヨカワシ",
    "address1Kana": "ミトチョウカミサワキカワハラダ",
    "address2Kana": ""
  },
  {
    "postalCode": "4410301",
    "regionId": 23,
    "region": "愛知県",
    "locality": "豊川市",
    "address1": "御津町上佐脇観音堂",
    "address2": "",
    "regionKana": "アイチケン",
    "localityKana": "トヨカワシ",
    "address1Kana": "ミトチョウカミサワキカンノンドウ",
    "address2Kana": ""
  },
  {
    "postalCode": "4410301",
    "regionId": 23,
    "region": "愛知県",
    "locality": "豊川市",
    "address1": "御津町上佐脇北区",
    "address2": "",
    "regionKana": "アイチケン",
    "localityKana": "トヨカワシ",
    "address1Kana": "ミトチョウカミサワキキタク",
    "address2Kana": ""
  },
  {
    "postalCode": "4410301",
    "regionId": 23,
    "region": "愛知県",
    "locality": "豊川市",
    "address1": "御津町上佐脇中区",
    "address2": "",
    "regionKana": "アイチケン",
    "localityKana": "トヨカワシ",
    "address1Kana": "ミトチョウカミサワキナカク",
    "address2Kana": ""
  },
  {
    "postalCode": "4410301",
    "regionId": 23,
    "region": "愛知県",
    "locality": "豊川市",
    "address1": "御津町上佐脇西区",
    "address2": "",
    "regionKana": "アイチケン",
    "localityKana": "トヨカワシ",
    "address1Kana": "ミトチョウカミサワキニシク",
    "address2Kana": ""
  },
  {
    "postalCode": "4410301",
    "regionId": 23,
    "region": "愛知県",
    "locality": "豊川市",
    "address1": "御津町上佐脇西ノ貝津",
    "address2": "",
    "regionKana": "アイチケン",
    "localityKana": "トヨカワシ",
    "address1Kana": "ミトチョウカミサワキニシノガイツ",
    "address2Kana": ""
  },
  {
    "postalCode": "4410301",
    "regionId": 23,
    "region": "愛知県",
    "locality": "豊川市",
    "address1": "御津町上佐脇二本松",
    "address2": "",
    "regionKana": "アイチケン",
    "localityKana": "トヨカワシ",
    "address1Kana": "ミトチョウカミサワキニホンマツ",
    "address2Kana": ""
  },
  {
    "postalCode": "4410301",
    "regionId": 23,
    "region": "愛知県",
    "locality": "豊川市",
    "address1": "御津町上佐脇野川",
    "address2": "",
    "regionKana": "アイチケン",
    "localityKana": "トヨカワシ",
    "address1Kana": "ミトチョウカミサワキノガワ",
    "address2Kana": ""
  },
  {
    "postalCode": "4410301",
    "regionId": 23,
    "region": "愛知県",
    "locality": "豊川市",
    "address1": "御津町上佐脇野添",
    "address2": "",
    "regionKana": "アイチケン",
    "localityKana": "トヨカワシ",
    "address1Kana": "ミトチョウカミサワキノゾエ",
    "address2Kana": ""
  },
  {
    "postalCode": "4410301",
    "regionId": 23,
    "region": "愛知県",
    "locality": "豊川市",
    "address1": "御津町上佐脇花ノ木",
    "address2": "",
    "regionKana": "アイチケン",
    "localityKana": "トヨカワシ",
    "address1Kana": "ミトチョウカミサワキハナノキ",
    "address2Kana": ""
  },
  {
    "postalCode": "4410301",
    "regionId": 23,
    "region": "愛知県",
    "locality": "豊川市",
    "address1": "御津町上佐脇東区",
    "address2": "",
    "regionKana": "アイチケン",
    "localityKana": "トヨカワシ",
    "address1Kana": "ミトチョウカミサワキヒガシク",
    "address2Kana": ""
  },
  {
    "postalCode": "4410301",
    "regionId": 23,
    "region": "愛知県",
    "locality": "豊川市",
    "address1": "御津町上佐脇深田",
    "address2": "",
    "regionKana": "アイチケン",
    "localityKana": "トヨカワシ",
    "address1Kana": "ミトチョウカミサワキフカダ",
    "address2Kana": ""
  },
  {
    "postalCode": "4410301",
    "regionId": 23,
    "region": "愛知県",
    "locality": "豊川市",
    "address1": "御津町上佐脇松下",
    "address2": "",
    "regionKana": "アイチケン",
    "localityKana": "トヨカワシ",
    "address1Kana": "ミトチョウカミサワキマツシタ",
    "address2Kana": ""
  },
  {
    "postalCode": "4410301",
    "regionId": 23,
    "region": "愛知県",
    "locality": "豊川市",
    "address1": "御津町上佐脇南区",
    "address2": "",
    "regionKana": "アイチケン",
    "localityKana": "トヨカワシ",
    "address1Kana": "ミトチョウカミサワキミナミク",
    "address2Kana": ""
  },
  {
    "postalCode": "4410301",
    "regionId": 23,
    "region": "愛知県",
    "locality": "豊川市",
    "address1": "御津町上佐脇屋敷",
    "address2": "",
    "regionKana": "アイチケン",
    "localityKana": "トヨカワシ",
    "address1Kana": "ミトチョウカミサワキヤシキ",
    "address2Kana": ""
  },
  {
    "postalCode": "4410301",
    "regionId": 23,
    "region": "愛知県",
    "locality": "豊川市",
    "address1": "御津町上佐脇六反畑",
    "address2": "",
    "regionKana": "アイチケン",
    "localityKana": "トヨカワシ",
    "address1Kana": "ミトチョウカミサワキロクタンバタ",
    "address2Kana": ""
  }
]