[
  {
    "postalCode": "4410302",
    "regionId": 23,
    "region": "愛知県",
    "locality": "豊川市",
    "address1": "御津町下佐脇",
    "address2": "",
    "regionKana": "アイチケン",
    "localityKana": "トヨカワシ",
    "address1Kana": "ミトチョウシモサワキ",
    "address2Kana": ""
  },
  {
    "postalCode": "4410302",
    "regionId": 23,
    "region": "愛知県",
    "locality": "豊川市",
    "address1": "御津町下佐脇洗出",
    "address2": "",
    "regionKana": "アイチケン",
    "localityKana": "トヨカワシ",
    "address1Kana": "ミトチョウシモサワキアライダシ",
    "address2Kana": ""
  },
  {
    "postalCode": "4410302",
    "regionId": 23,
    "region": "愛知県",
    "locality": "豊川市",
    "address1": "御津町下佐脇荒古",
    "address2": "",
    "regionKana": "アイチケン",
    "localityKana": "トヨカワシ",
    "address1Kana": "ミトチョウシモサワキアラコ",
    "address2Kana": ""
  },
  {
    "postalCode": "4410302",
    "regionId": 23,
    "region": "愛知県",
    "locality": "豊川市",
    "address1": "御津町下佐脇新屋",
    "address2": "",
    "regionKana": "アイチケン",
    "localityKana": "トヨカワシ",
    "address1Kana": "ミトチョウシモサワキアラヤ",
    "address2Kana": ""
  },
  {
    "postalCode": "4410302",
    "regionId": 23,
    "region": "愛知県",
    "locality": "豊川市",
    "address1": "御津町下佐脇市場",
    "address2": "",
    "regionKana": "アイチケン",
    "localityKana": "トヨカワシ",
    "address1Kana": "ミトチョウシモサワキイチバ",
    "address2Kana": ""
  },
  {
    "postalCode": "4410302",
    "regionId": 23,
    "region": "愛知県",
    "locality": "豊川市",
    "address1": "御津町下佐脇院田",
    "address2": "",
    "regionKana": "アイチケン",
    "localityKana": "トヨカワシ",
    "address1Kana": "ミトチョウシモサワキインデン",
    "address2Kana": ""
  },
  {
    "postalCode": "4410302",
    "regionId": 23,
    "region": "愛知県",
    "locality": "豊川市",
    "address1": "御津町下佐脇梅田",
    "address2": "",
    "regionKana": "アイチケン",
    "localityKana": "トヨカワシ",
    "address1Kana": "ミトチョウシモサワキウメダ",
    "address2Kana": ""
  },
  {
    "postalCode": "4410302",
    "regionId": 23,
    "region": "愛知県",
    "locality": "豊川市",
    "address1": "御津町下佐脇籠畑",
    "address2": "",
    "regionKana": "アイチケン",
    "localityKana": "トヨカワシ",
    "address1Kana": "ミトチョウシモサワキカゴバタ",
    "address2Kana": ""
  },
  {
    "postalCode": "4410302",
    "regionId": 23,
    "region": "愛知県",
    "locality": "豊川市",
    "address1": "御津町下佐脇鎌田",
    "address2": "",
    "regionKana": "アイチケン",
    "localityKana": "トヨカワシ",
    "address1Kana": "ミトチョウシモサワキカマダ",
    "address2Kana": ""
  },
  {
    "postalCode": "4410302",
    "regionId": 23,
    "region": "愛知県",
    "locality": "豊川市",
    "address1": "御津町下佐脇河田",
    "address2": "",
    "regionKana": "アイチケン",
    "localityKana": "トヨカワシ",
    "address1Kana": "ミトチョウシモサワキカワダ",
    "address2Kana": ""
  },
  {
    "postalCode": "4410302",
    "regionId": 23,
    "region": "愛知県",
    "locality": "豊川市",
    "address1": "御津町下佐脇北浦",
    "address2": "",
    "regionKana": "アイチケン",
    "localityKana": "トヨカワシ",
    "address1Kana": "ミトチョウシモサワキキタウラ",
    "address2Kana": ""
  },
  {
    "postalCode": "4410302",
    "regionId": 23,
    "region": "愛知県",
    "locality": "豊川市",
    "address1": "御津町下佐脇義郎",
    "address2": "",
    "regionKana": "アイチケン",
    "localityKana": "トヨカワシ",
    "address1Kana": "ミトチョウシモサワキギロウ",
    "address2Kana": ""
  },
  {
    "postalCode": "4410302",
    "regionId": 23,
    "region": "愛知県",
    "locality": "豊川市",
    "address1": "御津町下佐脇九作",
    "address2": "",
    "regionKana": "アイチケン",
    "localityKana": "トヨカワシ",
    "address1Kana": "ミトチョウシモサワキクサク",
    "address2Kana": ""
  },
  {
    "postalCode": "4410302",
    "regionId": 23,
    "region": "愛知県",
    "locality": "豊川市",
    "address1": "御津町下佐脇郷中",
    "address2": "",
    "regionKana": "アイチケン",
    "localityKana": "トヨカワシ",
    "address1Kana": "ミトチョウシモサワキゴウナカ",
    "address2Kana": ""
  },
  {
    "postalCode": "4410302",
    "regionId": 23,
    "region": "愛知県",
    "locality": "豊川市",
    "address1": "御津町下佐脇御所",
    "address2": "",
    "regionKana": "アイチケン",
    "localityKana": "トヨカワシ",
    "address1Kana": "ミトチョウシモサワキゴショ",
    "address2Kana": ""
  },
  {
    "postalCode": "4410302",
    "regionId": 23,
    "region": "愛知県",
    "locality": "豊川市",
    "address1": "御津町下佐脇佐脇原",
    "address2": "",
    "regionKana": "アイチケン",
    "localityKana": "トヨカワシ",
    "address1Kana": "ミトチョウシモサワキサワキバラ",
    "address2Kana": ""
  },
  {
    "postalCode": "4410302",
    "regionId": 23,
    "region": "愛知県",
    "locality": "豊川市",
    "address1": "御津町下佐脇新洗出",
    "address2": "",
    "regionKana": "アイチケン",
    "localityKana": "トヨカワシ",
    "address1Kana": "ミトチョウシモサワキシンアライダシ",
    "address2Kana": ""
  },
  {
    "postalCode": "4410302",
    "regionId": 23,
    "region": "愛知県",
    "locality": "豊川市",
    "address1": "御津町下佐脇新梅田",
    "address2": "",
    "regionKana": "アイチケン",
    "localityKana": "トヨカワシ",
    "address1Kana": "ミトチョウシモサワキシンウメダ",
    "address2Kana": ""
  },
  {
    "postalCode": "4410302",
    "regionId": 23,
    "region": "愛知県",
    "locality": "豊川市",
    "address1": "御津町下佐脇新畑",
    "address2": "",
    "regionKana": "アイチケン",
    "localityKana": "トヨカワシ",
    "address1Kana": "ミトチョウシモサワキシンバタ",
    "address2Kana": ""
  },
  {
    "postalCode": "4410302",
    "regionId": 23,
    "region": "愛知県",
    "locality": "豊川市",
    "address1": "御津町下佐脇是願",
    "address2": "",
    "regionKana": "アイチケン",
    "localityKana": "トヨカワシ",
    "address1Kana": "ミトチョウシモサワキゼガン",
    "address2Kana": ""
  },
  {
    "postalCode": "4410302",
    "regionId": 23,
    "region": "愛知県",
    "locality": "豊川市",
    "address1": "御津町下佐脇高畑",
    "address2": "",
    "regionKana": "アイチケン",
    "localityKana": "トヨカワシ",
    "address1Kana": "ミトチョウシモサワキタカバタ",
    "address2Kana": ""
  },
  {
    "postalCode": "4410302",
    "regionId": 23,
    "region": "愛知県",
    "locality": "豊川市",
    "address1": "御津町下佐脇田熊",
    "address2": "",
    "regionKana": "アイチケン",
    "localityKana": "トヨカワシ",
    "address1Kana": "ミトチョウシモサワキタグマ",
    "address2Kana": ""
  },
  {
    "postalCode": "4410302",
    "regionId": 23,
    "region": "愛知県",
    "locality": "豊川市",
    "address1": "御津町下佐脇玉袋",
    "address2": "",
    "regionKana": "アイチケン",
    "localityKana": "トヨカワシ",
    "address1Kana": "ミトチョウシモサワキタマフクロ",
    "address2Kana": ""
  },
  {
    "postalCode": "4410302",
    "regionId": 23,
    "region": "愛知県",
    "locality": "豊川市",
    "address1": "御津町下佐脇出口",
    "address2": "",
    "regionKana": "アイチケン",
    "localityKana": "トヨカワシ",
    "address1Kana": "ミトチョウシモサワキデグチ",
    "address2Kana": ""
  },
  {
    "postalCode": "4410302",
    "regionId": 23,
    "region": "愛知県",
    "locality": "豊川市",
    "address1": "御津町下佐脇天神",
    "address2": "",
    "regionKana": "アイチケン",
    "localityKana": "トヨカワシ",
    "address1Kana": "ミトチョウシモサワキテンジン",
    "address2Kana": ""
  },
  {
    "postalCode": "4410302",
    "regionId": 23,
    "region": "愛知県",
    "locality": "豊川市",
    "address1": "御津町下佐脇仲荒",
    "address2": "",
    "regionKana": "アイチケン",
    "localityKana": "トヨカワシ",
    "address1Kana": "ミトチョウシモサワキナカアレ",
    "address2Kana": ""
  },
  {
    "postalCode": "4410302",
    "regionId": 23,
    "region": "愛知県",
    "locality": "豊川市",
    "address1": "御津町下佐脇仲ノ坪",
    "address2": "",
    "regionKana": "アイチケン",
    "localityKana": "トヨカワシ",
    "address1Kana": "ミトチョウシモサワキナカノツボ",
    "address2Kana": ""
  },
  {
    "postalCode": "4410302",
    "regionId": 23,
    "region": "愛知県",
    "locality": "豊川市",
    "address1": "御津町下佐脇縄口",
    "address2": "",
    "regionKana": "アイチケン",
    "localityKana": "トヨカワシ",
    "address1Kana": "ミトチョウシモサワキナワグチ",
    "address2Kana": ""
  },
  {
    "postalCode": "4410302",
    "regionId": 23,
    "region": "愛知県",
    "locality": "豊川市",
    "address1": "御津町下佐脇縄手",
    "address2": "",
    "regionKana": "アイチケン",
    "localityKana": "トヨカワシ",
    "address1Kana": "ミトチョウシモサワキナワテ",
    "address2Kana": ""
  },
  {
    "postalCode": "4410302",
    "regionId": 23,
    "region": "愛知県",
    "locality": "豊川市",
    "address1": "御津町下佐脇野口",
    "address2": "",
    "regionKana": "アイチケン",
    "localityKana": "トヨカワシ",
    "address1Kana": "ミトチョウシモサワキノグチ",
    "address2Kana": ""
  },
  {
    "postalCode": "4410302",
    "regionId": 23,
    "region": "愛知県",
    "locality": "豊川市",
    "address1": "御津町下佐脇野先",
    "address2": "",
    "regionKana": "アイチケン",
    "localityKana": "トヨカワシ",
    "address1Kana": "ミトチョウシモサワキノザキ",
    "address2Kana": ""
  },
  {
    "postalCode": "4410302",
    "regionId": 23,
    "region": "愛知県",
    "locality": "豊川市",
    "address1": "御津町下佐脇八尻",
    "address2": "",
    "regionKana": "アイチケン",
    "localityKana": "トヨカワシ",
    "address1Kana": "ミトチョウシモサワキハチジリ",
    "address2Kana": ""
  },
  {
    "postalCode": "4410302",
    "regionId": 23,
    "region": "愛知県",
    "locality": "豊川市",
    "address1": "御津町下佐脇八反田",
    "address2": "",
    "regionKana": "アイチケン",
    "localityKana": "トヨカワシ",
    "address1Kana": "ミトチョウシモサワキハッタンダ",
    "address2Kana": ""
  },
  {
    "postalCode": "4410302",
    "regionId": 23,
    "region": "愛知県",
    "locality": "豊川市",
    "address1": "御津町下佐脇羽鳥",
    "address2": "",
    "regionKana": "アイチケン",
    "localityKana": "トヨカワシ",
    "address1Kana": "ミトチョウシモサワキハトリ",
    "address2Kana": ""
  },
  {
    "postalCode": "4410302",
    "regionId": 23,
    "region": "愛知県",
    "locality": "豊川市",
    "address1": "御津町下佐脇花ノ木",
    "address2": "",
    "regionKana": "アイチケン",
    "localityKana": "トヨカワシ",
    "address1Kana": "ミトチョウシモサワキハナノキ",
    "address2Kana": ""
  },
  {
    "postalCode": "4410302",
    "regionId": 23,
    "region": "愛知県",
    "locality": "豊川市",
    "address1": "御津町下佐脇浜道",
    "address2": "",
    "regionKana": "アイチケン",
    "localityKana": "トヨカワシ",
    "address1Kana": "ミトチョウシモサワキハマミチ",
    "address2Kana": ""
  },
  {
    "postalCode": "4410302",
    "regionId": 23,
    "region": "愛知県",
    "locality": "豊川市",
    "address1": "御津町下佐脇引通",
    "address2": "",
    "regionKana": "アイチケン",
    "localityKana": "トヨカワシ",
    "address1Kana": "ミトチョウシモサワキヒキトオシ",
    "address2Kana": ""
  },
  {
    "postalCode": "4410302",
    "regionId": 23,
    "region": "愛知県",
    "locality": "豊川市",
    "address1": "御津町下佐脇広野",
    "address2": "",
    "regionKana": "アイチケン",
    "localityKana": "トヨカワシ",
    "address1Kana": "ミトチョウシモサワキヒロノ",
    "address2Kana": ""
  },
  {
    "postalCode": "4410302",
    "regionId": 23,
    "region": "愛知県",
    "locality": "豊川市",
    "address1": "御津町下佐脇平次",
    "address2": "",
    "regionKana": "アイチケン",
    "localityKana": "トヨカワシ",
    "address1Kana": "ミトチョウシモサワキヘイジ",
    "address2Kana": ""
  },
  {
    "postalCode": "4410302",
    "regionId": 23,
    "region": "愛知県",
    "locality": "豊川市",
    "address1": "御津町下佐脇堀合",
    "address2": "",
    "regionKana": "アイチケン",
    "localityKana": "トヨカワシ",
    "address1Kana": "ミトチョウシモサワキホリアイ",
    "address2Kana": ""
  },
  {
    "postalCode": "4410302",
    "regionId": 23,
    "region": "愛知県",
    "locality": "豊川市",
    "address1": "御津町下佐脇待井",
    "address2": "",
    "regionKana": "アイチケン",
    "localityKana": "トヨカワシ",
    "address1Kana": "ミトチョウシモサワキマチイ",
    "address2Kana": ""
  },
  {
    "postalCode": "4410302",
    "regionId": 23,
    "region": "愛知県",
    "locality": "豊川市",
    "address1": "御津町下佐脇都",
    "address2": "",
    "regionKana": "アイチケン",
    "localityKana": "トヨカワシ",
    "address1Kana": "ミトチョウシモサワキミヤコ",
    "address2Kana": ""
  },
  {
    "postalCode": "4410302",
    "regionId": 23,
    "region": "愛知県",
    "locality": "豊川市",
    "address1": "御津町下佐脇宮前",
    "address2": "",
    "regionKana": "アイチケン",
    "localityKana": "トヨカワシ",
    "address1Kana": "ミトチョウシモサワキミヤマエ",
    "address2Kana": ""
  },
  {
    "postalCode": "4410302",
    "regionId": 23,
    "region": "愛知県",
    "locality": "豊川市",
    "address1": "御津町下佐脇宮本",
    "address2": "",
    "regionKana": "アイチケン",
    "localityKana": "トヨカワシ",
    "address1Kana": "ミトチョウシモサワキミヤモト",
    "address2Kana": ""
  },
  {
    "postalCode": "4410302",
    "regionId": 23,
    "region": "愛知県",
    "locality": "豊川市",
    "address1": "御津町下佐脇村上",
    "address2": "",
    "regionKana": "アイチケン",
    "localityKana": "トヨカワシ",
    "address1Kana": "ミトチョウシモサワキムラカミ",
    "address2Kana": ""
  },
  {
    "postalCode": "4410302",
    "regionId": 23,
    "region": "愛知県",
    "locality": "豊川市",
    "address1": "御津町下佐脇山崎",
    "address2": "",
    "regionKana": "アイチケン",
    "localityKana": "トヨカワシ",
    "address1Kana": "ミトチョウシモサワキヤマザキ",
    "address2Kana": ""
  }
]