[
  {
    "postalCode": "4410311",
    "regionId": 23,
    "region": "愛知県",
    "locality": "豊川市",
    "address1": "御津町御馬",
    "address2": "",
    "regionKana": "アイチケン",
    "localityKana": "トヨカワシ",
    "address1Kana": "ミトチョウオンマ",
    "address2Kana": ""
  },
  {
    "postalCode": "4410311",
    "regionId": 23,
    "region": "愛知県",
    "locality": "豊川市",
    "address1": "御津町御馬梅田",
    "address2": "",
    "regionKana": "アイチケン",
    "localityKana": "トヨカワシ",
    "address1Kana": "ミトチョウオンマウメダ",
    "address2Kana": ""
  },
  {
    "postalCode": "4410311",
    "regionId": 23,
    "region": "愛知県",
    "locality": "豊川市",
    "address1": "御津町御馬加美",
    "address2": "",
    "regionKana": "アイチケン",
    "localityKana": "トヨカワシ",
    "address1Kana": "ミトチョウオンマカミ",
    "address2Kana": ""
  },
  {
    "postalCode": "4410311",
    "regionId": 23,
    "region": "愛知県",
    "locality": "豊川市",
    "address1": "御津町御馬川端",
    "address2": "",
    "regionKana": "アイチケン",
    "localityKana": "トヨカワシ",
    "address1Kana": "ミトチョウオンマカワバタ",
    "address2Kana": ""
  },
  {
    "postalCode": "4410311",
    "regionId": 23,
    "region": "愛知県",
    "locality": "豊川市",
    "address1": "御津町御馬塩入",
    "address2": "",
    "regionKana": "アイチケン",
    "localityKana": "トヨカワシ",
    "address1Kana": "ミトチョウオンマシオイリ",
    "address2Kana": ""
  },
  {
    "postalCode": "4410311",
    "regionId": 23,
    "region": "愛知県",
    "locality": "豊川市",
    "address1": "御津町御馬塩浜",
    "address2": "",
    "regionKana": "アイチケン",
    "localityKana": "トヨカワシ",
    "address1Kana": "ミトチョウオンマシオハマ",
    "address2Kana": ""
  },
  {
    "postalCode": "4410311",
    "regionId": 23,
    "region": "愛知県",
    "locality": "豊川市",
    "address1": "御津町御馬膳田",
    "address2": "",
    "regionKana": "アイチケン",
    "localityKana": "トヨカワシ",
    "address1Kana": "ミトチョウオンマゼンダ",
    "address2Kana": ""
  },
  {
    "postalCode": "4410311",
    "regionId": 23,
    "region": "愛知県",
    "locality": "豊川市",
    "address1": "御津町御馬玉袋",
    "address2": "",
    "regionKana": "アイチケン",
    "localityKana": "トヨカワシ",
    "address1Kana": "ミトチョウオンマタマフクロ",
    "address2Kana": ""
  },
  {
    "postalCode": "4410311",
    "regionId": 23,
    "region": "愛知県",
    "locality": "豊川市",
    "address1": "御津町御馬剱",
    "address2": "",
    "regionKana": "アイチケン",
    "localityKana": "トヨカワシ",
    "address1Kana": "ミトチョウオンマツルギ",
    "address2Kana": ""
  },
  {
    "postalCode": "4410311",
    "regionId": 23,
    "region": "愛知県",
    "locality": "豊川市",
    "address1": "御津町御馬中島",
    "address2": "",
    "regionKana": "アイチケン",
    "localityKana": "トヨカワシ",
    "address1Kana": "ミトチョウオンマナカジマ",
    "address2Kana": ""
  },
  {
    "postalCode": "4410311",
    "regionId": 23,
    "region": "愛知県",
    "locality": "豊川市",
    "address1": "御津町御馬仲田",
    "address2": "",
    "regionKana": "アイチケン",
    "localityKana": "トヨカワシ",
    "address1Kana": "ミトチョウオンマナカダ",
    "address2Kana": ""
  },
  {
    "postalCode": "4410311",
    "regionId": 23,
    "region": "愛知県",
    "locality": "豊川市",
    "address1": "御津町御馬長床",
    "address2": "",
    "regionKana": "アイチケン",
    "localityKana": "トヨカワシ",
    "address1Kana": "ミトチョウオンマナガトコ",
    "address2Kana": ""
  },
  {
    "postalCode": "4410311",
    "regionId": 23,
    "region": "愛知県",
    "locality": "豊川市",
    "address1": "御津町御馬流田",
    "address2": "",
    "regionKana": "アイチケン",
    "localityKana": "トヨカワシ",
    "address1Kana": "ミトチョウオンマナガレダ",
    "address2Kana": ""
  },
  {
    "postalCode": "4410311",
    "regionId": 23,
    "region": "愛知県",
    "locality": "豊川市",
    "address1": "御津町御馬西",
    "address2": "",
    "regionKana": "アイチケン",
    "localityKana": "トヨカワシ",
    "address1Kana": "ミトチョウオンマニシ",
    "address2Kana": ""
  },
  {
    "postalCode": "4410311",
    "regionId": 23,
    "region": "愛知県",
    "locality": "豊川市",
    "address1": "御津町御馬西梅",
    "address2": "",
    "regionKana": "アイチケン",
    "localityKana": "トヨカワシ",
    "address1Kana": "ミトチョウオンマニシウメ",
    "address2Kana": ""
  },
  {
    "postalCode": "4410311",
    "regionId": 23,
    "region": "愛知県",
    "locality": "豊川市",
    "address1": "御津町御馬野添",
    "address2": "",
    "regionKana": "アイチケン",
    "localityKana": "トヨカワシ",
    "address1Kana": "ミトチョウオンマノゾエ",
    "address2Kana": ""
  },
  {
    "postalCode": "4410311",
    "regionId": 23,
    "region": "愛知県",
    "locality": "豊川市",
    "address1": "御津町御馬浜田",
    "address2": "",
    "regionKana": "アイチケン",
    "localityKana": "トヨカワシ",
    "address1Kana": "ミトチョウオンマハマタ",
    "address2Kana": ""
  },
  {
    "postalCode": "4410311",
    "regionId": 23,
    "region": "愛知県",
    "locality": "豊川市",
    "address1": "御津町御馬東",
    "address2": "",
    "regionKana": "アイチケン",
    "localityKana": "トヨカワシ",
    "address1Kana": "ミトチョウオンマヒガシ",
    "address2Kana": ""
  },
  {
    "postalCode": "4410311",
    "regionId": 23,
    "region": "愛知県",
    "locality": "豊川市",
    "address1": "御津町御馬宮浦",
    "address2": "",
    "regionKana": "アイチケン",
    "localityKana": "トヨカワシ",
    "address1Kana": "ミトチョウオンマミヤウラ",
    "address2Kana": ""
  },
  {
    "postalCode": "4410311",
    "regionId": 23,
    "region": "愛知県",
    "locality": "豊川市",
    "address1": "御津町御馬向道",
    "address2": "",
    "regionKana": "アイチケン",
    "localityKana": "トヨカワシ",
    "address1Kana": "ミトチョウオンマムカイミチ",
    "address2Kana": ""
  }
]