[
  {
    "postalCode": "4410312",
    "regionId": 23,
    "region": "愛知県",
    "locality": "豊川市",
    "address1": "御津町西方",
    "address2": "",
    "regionKana": "アイチケン",
    "localityKana": "トヨカワシ",
    "address1Kana": "ミトチョウニシガタ",
    "address2Kana": ""
  },
  {
    "postalCode": "4410312",
    "regionId": 23,
    "region": "愛知県",
    "locality": "豊川市",
    "address1": "御津町西方揚浜",
    "address2": "",
    "regionKana": "アイチケン",
    "localityKana": "トヨカワシ",
    "address1Kana": "ミトチョウニシガタアゲハマ",
    "address2Kana": ""
  },
  {
    "postalCode": "4410312",
    "regionId": 23,
    "region": "愛知県",
    "locality": "豊川市",
    "address1": "御津町西方入浜",
    "address2": "",
    "regionKana": "アイチケン",
    "localityKana": "トヨカワシ",
    "address1Kana": "ミトチョウニシガタイリハマ",
    "address2Kana": ""
  },
  {
    "postalCode": "4410312",
    "regionId": 23,
    "region": "愛知県",
    "locality": "豊川市",
    "address1": "御津町西方井領田",
    "address2": "",
    "regionKana": "アイチケン",
    "localityKana": "トヨカワシ",
    "address1Kana": "ミトチョウニシガタイリョウダ",
    "address2Kana": ""
  },
  {
    "postalCode": "4410312",
    "regionId": 23,
    "region": "愛知県",
    "locality": "豊川市",
    "address1": "御津町西方狐塚",
    "address2": "",
    "regionKana": "アイチケン",
    "localityKana": "トヨカワシ",
    "address1Kana": "ミトチョウニシガタキツネヅカ",
    "address2Kana": ""
  },
  {
    "postalCode": "4410312",
    "regionId": 23,
    "region": "愛知県",
    "locality": "豊川市",
    "address1": "御津町西方九策",
    "address2": "",
    "regionKana": "アイチケン",
    "localityKana": "トヨカワシ",
    "address1Kana": "ミトチョウニシガタクサク",
    "address2Kana": ""
  },
  {
    "postalCode": "4410312",
    "regionId": 23,
    "region": "愛知県",
    "locality": "豊川市",
    "address1": "御津町西方源農",
    "address2": "",
    "regionKana": "アイチケン",
    "localityKana": "トヨカワシ",
    "address1Kana": "ミトチョウニシガタゲンノウ",
    "address2Kana": ""
  },
  {
    "postalCode": "4410312",
    "regionId": 23,
    "region": "愛知県",
    "locality": "豊川市",
    "address1": "御津町西方小貝津",
    "address2": "",
    "regionKana": "アイチケン",
    "localityKana": "トヨカワシ",
    "address1Kana": "ミトチョウニシガタコガイツ",
    "address2Kana": ""
  },
  {
    "postalCode": "4410312",
    "regionId": 23,
    "region": "愛知県",
    "locality": "豊川市",
    "address1": "御津町西方下浜道",
    "address2": "",
    "regionKana": "アイチケン",
    "localityKana": "トヨカワシ",
    "address1Kana": "ミトチョウニシガタシモハマミチ",
    "address2Kana": ""
  },
  {
    "postalCode": "4410312",
    "regionId": 23,
    "region": "愛知県",
    "locality": "豊川市",
    "address1": "御津町西方常ノ口",
    "address2": "",
    "regionKana": "アイチケン",
    "localityKana": "トヨカワシ",
    "address1Kana": "ミトチョウニシガタジョウノクチ",
    "address2Kana": ""
  },
  {
    "postalCode": "4410312",
    "regionId": 23,
    "region": "愛知県",
    "locality": "豊川市",
    "address1": "御津町西方長田",
    "address2": "",
    "regionKana": "アイチケン",
    "localityKana": "トヨカワシ",
    "address1Kana": "ミトチョウニシガタチョウダ",
    "address2Kana": ""
  },
  {
    "postalCode": "4410312",
    "regionId": 23,
    "region": "愛知県",
    "locality": "豊川市",
    "address1": "御津町西方樋田",
    "address2": "",
    "regionKana": "アイチケン",
    "localityKana": "トヨカワシ",
    "address1Kana": "ミトチョウニシガタトイダ",
    "address2Kana": ""
  },
  {
    "postalCode": "4410312",
    "regionId": 23,
    "region": "愛知県",
    "locality": "豊川市",
    "address1": "御津町西方中道",
    "address2": "",
    "regionKana": "アイチケン",
    "localityKana": "トヨカワシ",
    "address1Kana": "ミトチョウニシガタナカミチ",
    "address2Kana": ""
  },
  {
    "postalCode": "4410312",
    "regionId": 23,
    "region": "愛知県",
    "locality": "豊川市",
    "address1": "御津町西方中屋敷",
    "address2": "",
    "regionKana": "アイチケン",
    "localityKana": "トヨカワシ",
    "address1Kana": "ミトチョウニシガタナカヤシキ",
    "address2Kana": ""
  },
  {
    "postalCode": "4410312",
    "regionId": 23,
    "region": "愛知県",
    "locality": "豊川市",
    "address1": "御津町西方梨野",
    "address2": "",
    "regionKana": "アイチケン",
    "localityKana": "トヨカワシ",
    "address1Kana": "ミトチョウニシガタナシノ",
    "address2Kana": ""
  },
  {
    "postalCode": "4410312",
    "regionId": 23,
    "region": "愛知県",
    "locality": "豊川市",
    "address1": "御津町西方浜田",
    "address2": "",
    "regionKana": "アイチケン",
    "localityKana": "トヨカワシ",
    "address1Kana": "ミトチョウニシガタハマダ",
    "address2Kana": ""
  },
  {
    "postalCode": "4410312",
    "regionId": 23,
    "region": "愛知県",
    "locality": "豊川市",
    "address1": "御津町西方日暮",
    "address2": "",
    "regionKana": "アイチケン",
    "localityKana": "トヨカワシ",
    "address1Kana": "ミトチョウニシガタヒグラシ",
    "address2Kana": ""
  },
  {
    "postalCode": "4410312",
    "regionId": 23,
    "region": "愛知県",
    "locality": "豊川市",
    "address1": "御津町西方広田",
    "address2": "",
    "regionKana": "アイチケン",
    "localityKana": "トヨカワシ",
    "address1Kana": "ミトチョウニシガタヒロタ",
    "address2Kana": ""
  },
  {
    "postalCode": "4410312",
    "regionId": 23,
    "region": "愛知県",
    "locality": "豊川市",
    "address1": "御津町西方松本",
    "address2": "",
    "regionKana": "アイチケン",
    "localityKana": "トヨカワシ",
    "address1Kana": "ミトチョウニシガタマツモト",
    "address2Kana": ""
  },
  {
    "postalCode": "4410312",
    "regionId": 23,
    "region": "愛知県",
    "locality": "豊川市",
    "address1": "御津町西方宮長",
    "address2": "",
    "regionKana": "アイチケン",
    "localityKana": "トヨカワシ",
    "address1Kana": "ミトチョウニシガタミヤナガ",
    "address2Kana": ""
  }
]