[
  {
    "postalCode": "4410313",
    "regionId": 23,
    "region": "愛知県",
    "locality": "豊川市",
    "address1": "御津町泙野",
    "address2": "",
    "regionKana": "アイチケン",
    "localityKana": "トヨカワシ",
    "address1Kana": "ミトチョウナギノ",
    "address2Kana": ""
  },
  {
    "postalCode": "4410313",
    "regionId": 23,
    "region": "愛知県",
    "locality": "豊川市",
    "address1": "御津町泙野楠木",
    "address2": "",
    "regionKana": "アイチケン",
    "localityKana": "トヨカワシ",
    "address1Kana": "ミトチョウナギノクスノキ",
    "address2Kana": ""
  },
  {
    "postalCode": "4410313",
    "regionId": 23,
    "region": "愛知県",
    "locality": "豊川市",
    "address1": "御津町泙野久呂下",
    "address2": "",
    "regionKana": "アイチケン",
    "localityKana": "トヨカワシ",
    "address1Kana": "ミトチョウナギノクロシタ",
    "address2Kana": ""
  },
  {
    "postalCode": "4410313",
    "regionId": 23,
    "region": "愛知県",
    "locality": "豊川市",
    "address1": "御津町泙野新屋敷",
    "address2": "",
    "regionKana": "アイチケン",
    "localityKana": "トヨカワシ",
    "address1Kana": "ミトチョウナギノシンヤシキ",
    "address2Kana": ""
  },
  {
    "postalCode": "4410313",
    "regionId": 23,
    "region": "愛知県",
    "locality": "豊川市",
    "address1": "御津町泙野高畑",
    "address2": "",
    "regionKana": "アイチケン",
    "localityKana": "トヨカワシ",
    "address1Kana": "ミトチョウナギノタカバタ",
    "address2Kana": ""
  },
  {
    "postalCode": "4410313",
    "regionId": 23,
    "region": "愛知県",
    "locality": "豊川市",
    "address1": "御津町泙野丁田",
    "address2": "",
    "regionKana": "アイチケン",
    "localityKana": "トヨカワシ",
    "address1Kana": "ミトチョウナギノチョウダ",
    "address2Kana": ""
  },
  {
    "postalCode": "4410313",
    "regionId": 23,
    "region": "愛知県",
    "locality": "豊川市",
    "address1": "御津町泙野仲田",
    "address2": "",
    "regionKana": "アイチケン",
    "localityKana": "トヨカワシ",
    "address1Kana": "ミトチョウナギノナカダ",
    "address2Kana": ""
  },
  {
    "postalCode": "4410313",
    "regionId": 23,
    "region": "愛知県",
    "locality": "豊川市",
    "address1": "御津町泙野仲ノ坪",
    "address2": "",
    "regionKana": "アイチケン",
    "localityKana": "トヨカワシ",
    "address1Kana": "ミトチョウナギノナカノツボ",
    "address2Kana": ""
  },
  {
    "postalCode": "4410313",
    "regionId": 23,
    "region": "愛知県",
    "locality": "豊川市",
    "address1": "御津町泙野浜新田",
    "address2": "",
    "regionKana": "アイチケン",
    "localityKana": "トヨカワシ",
    "address1Kana": "ミトチョウナギノハマシンデン",
    "address2Kana": ""
  },
  {
    "postalCode": "4410313",
    "regionId": 23,
    "region": "愛知県",
    "locality": "豊川市",
    "address1": "御津町泙野堀合",
    "address2": "",
    "regionKana": "アイチケン",
    "localityKana": "トヨカワシ",
    "address1Kana": "ミトチョウナギノホリアイ",
    "address2Kana": ""
  },
  {
    "postalCode": "4410313",
    "regionId": 23,
    "region": "愛知県",
    "locality": "豊川市",
    "address1": "御津町泙野宮永",
    "address2": "",
    "regionKana": "アイチケン",
    "localityKana": "トヨカワシ",
    "address1Kana": "ミトチョウナギノミヤナガ",
    "address2Kana": ""
  },
  {
    "postalCode": "4410313",
    "regionId": 23,
    "region": "愛知県",
    "locality": "豊川市",
    "address1": "御津町泙野村崎",
    "address2": "",
    "regionKana": "アイチケン",
    "localityKana": "トヨカワシ",
    "address1Kana": "ミトチョウナギノムラサキ",
    "address2Kana": ""
  },
  {
    "postalCode": "4410313",
    "regionId": 23,
    "region": "愛知県",
    "locality": "豊川市",
    "address1": "御津町泙野餅田",
    "address2": "",
    "regionKana": "アイチケン",
    "localityKana": "トヨカワシ",
    "address1Kana": "ミトチョウナギノモチダ",
    "address2Kana": ""
  },
  {
    "postalCode": "4410313",
    "regionId": 23,
    "region": "愛知県",
    "locality": "豊川市",
    "address1": "御津町泙野柳原",
    "address2": "",
    "regionKana": "アイチケン",
    "localityKana": "トヨカワシ",
    "address1Kana": "ミトチョウナギノヤナギハラ",
    "address2Kana": ""
  },
  {
    "postalCode": "4410313",
    "regionId": 23,
    "region": "愛知県",
    "locality": "豊川市",
    "address1": "御津町泙野山下",
    "address2": "",
    "regionKana": "アイチケン",
    "localityKana": "トヨカワシ",
    "address1Kana": "ミトチョウナギノヤマシタ",
    "address2Kana": ""
  },
  {
    "postalCode": "4410313",
    "regionId": 23,
    "region": "愛知県",
    "locality": "豊川市",
    "address1": "御津町泙野六角",
    "address2": "",
    "regionKana": "アイチケン",
    "localityKana": "トヨカワシ",
    "address1Kana": "ミトチョウナギノロクカク",
    "address2Kana": ""
  },
  {
    "postalCode": "4410313",
    "regionId": 23,
    "region": "愛知県",
    "locality": "豊川市",
    "address1": "御津町泙野六反田",
    "address2": "",
    "regionKana": "アイチケン",
    "localityKana": "トヨカワシ",
    "address1Kana": "ミトチョウナギノロクタンダ",
    "address2Kana": ""
  }
]