[
  {
    "postalCode": "4410315",
    "regionId": 23,
    "region": "愛知県",
    "locality": "豊川市",
    "address1": "御津町大草",
    "address2": "",
    "regionKana": "アイチケン",
    "localityKana": "トヨカワシ",
    "address1Kana": "ミトチョウオオクサ",
    "address2Kana": ""
  },
  {
    "postalCode": "4410315",
    "regionId": 23,
    "region": "愛知県",
    "locality": "豊川市",
    "address1": "御津町大草上竹",
    "address2": "",
    "regionKana": "アイチケン",
    "localityKana": "トヨカワシ",
    "address1Kana": "ミトチョウオオクサウエタケ",
    "address2Kana": ""
  },
  {
    "postalCode": "4410315",
    "regionId": 23,
    "region": "愛知県",
    "locality": "豊川市",
    "address1": "御津町大草大森",
    "address2": "",
    "regionKana": "アイチケン",
    "localityKana": "トヨカワシ",
    "address1Kana": "ミトチョウオオクサオオモリ",
    "address2Kana": ""
  },
  {
    "postalCode": "4410315",
    "regionId": 23,
    "region": "愛知県",
    "locality": "豊川市",
    "address1": "御津町大草神場",
    "address2": "",
    "regionKana": "アイチケン",
    "localityKana": "トヨカワシ",
    "address1Kana": "ミトチョウオオクサカンバ",
    "address2Kana": ""
  },
  {
    "postalCode": "4410315",
    "regionId": 23,
    "region": "愛知県",
    "locality": "豊川市",
    "address1": "御津町大草西郷",
    "address2": "",
    "regionKana": "アイチケン",
    "localityKana": "トヨカワシ",
    "address1Kana": "ミトチョウオオクササイゴウ",
    "address2Kana": ""
  },
  {
    "postalCode": "4410315",
    "regionId": 23,
    "region": "愛知県",
    "locality": "豊川市",
    "address1": "御津町大草新田",
    "address2": "",
    "regionKana": "アイチケン",
    "localityKana": "トヨカワシ",
    "address1Kana": "ミトチョウオオクサシンデン",
    "address2Kana": ""
  },
  {
    "postalCode": "4410315",
    "regionId": 23,
    "region": "愛知県",
    "locality": "豊川市",
    "address1": "御津町大草神田",
    "address2": "",
    "regionKana": "アイチケン",
    "localityKana": "トヨカワシ",
    "address1Kana": "ミトチョウオオクサジンデン",
    "address2Kana": ""
  },
  {
    "postalCode": "4410315",
    "regionId": 23,
    "region": "愛知県",
    "locality": "豊川市",
    "address1": "御津町大草外新田",
    "address2": "",
    "regionKana": "アイチケン",
    "localityKana": "トヨカワシ",
    "address1Kana": "ミトチョウオオクサソトシンデン",
    "address2Kana": ""
  },
  {
    "postalCode": "4410315",
    "regionId": 23,
    "region": "愛知県",
    "locality": "豊川市",
    "address1": "御津町大草東郷",
    "address2": "",
    "regionKana": "アイチケン",
    "localityKana": "トヨカワシ",
    "address1Kana": "ミトチョウオオクサトウゴウ",
    "address2Kana": ""
  },
  {
    "postalCode": "4410315",
    "regionId": 23,
    "region": "愛知県",
    "locality": "豊川市",
    "address1": "御津町大草西浜",
    "address2": "",
    "regionKana": "アイチケン",
    "localityKana": "トヨカワシ",
    "address1Kana": "ミトチョウオオクサニシハマ",
    "address2Kana": ""
  },
  {
    "postalCode": "4410315",
    "regionId": 23,
    "region": "愛知県",
    "locality": "豊川市",
    "address1": "御津町大草西分莚",
    "address2": "",
    "regionKana": "アイチケン",
    "localityKana": "トヨカワシ",
    "address1Kana": "ミトチョウオオクサニシフンムシロ",
    "address2Kana": ""
  },
  {
    "postalCode": "4410315",
    "regionId": 23,
    "region": "愛知県",
    "locality": "豊川市",
    "address1": "御津町大草分莚",
    "address2": "",
    "regionKana": "アイチケン",
    "localityKana": "トヨカワシ",
    "address1Kana": "ミトチョウオオクサフンムシロ",
    "address2Kana": ""
  },
  {
    "postalCode": "4410315",
    "regionId": 23,
    "region": "愛知県",
    "locality": "豊川市",
    "address1": "御津町大草向野",
    "address2": "",
    "regionKana": "アイチケン",
    "localityKana": "トヨカワシ",
    "address1Kana": "ミトチョウオオクサムカイノ",
    "address2Kana": ""
  }
]