[
  {
    "postalCode": "4410316",
    "regionId": 23,
    "region": "愛知県",
    "locality": "豊川市",
    "address1": "御津町赤根",
    "address2": "",
    "regionKana": "アイチケン",
    "localityKana": "トヨカワシ",
    "address1Kana": "ミトチョウアカネ",
    "address2Kana": ""
  },
  {
    "postalCode": "4410316",
    "regionId": 23,
    "region": "愛知県",
    "locality": "豊川市",
    "address1": "御津町赤根角田",
    "address2": "",
    "regionKana": "アイチケン",
    "localityKana": "トヨカワシ",
    "address1Kana": "ミトチョウアカネカドタ",
    "address2Kana": ""
  },
  {
    "postalCode": "4410316",
    "regionId": 23,
    "region": "愛知県",
    "locality": "豊川市",
    "address1": "御津町赤根神場",
    "address2": "",
    "regionKana": "アイチケン",
    "localityKana": "トヨカワシ",
    "address1Kana": "ミトチョウアカネカンバ",
    "address2Kana": ""
  },
  {
    "postalCode": "4410316",
    "regionId": 23,
    "region": "愛知県",
    "locality": "豊川市",
    "address1": "御津町赤根柑子",
    "address2": "",
    "regionKana": "アイチケン",
    "localityKana": "トヨカワシ",
    "address1Kana": "ミトチョウアカネコウジ",
    "address2Kana": ""
  },
  {
    "postalCode": "4410316",
    "regionId": 23,
    "region": "愛知県",
    "locality": "豊川市",
    "address1": "御津町赤根下川",
    "address2": "",
    "regionKana": "アイチケン",
    "localityKana": "トヨカワシ",
    "address1Kana": "ミトチョウアカネシモカワ",
    "address2Kana": ""
  },
  {
    "postalCode": "4410316",
    "regionId": 23,
    "region": "愛知県",
    "locality": "豊川市",
    "address1": "御津町赤根水神",
    "address2": "",
    "regionKana": "アイチケン",
    "localityKana": "トヨカワシ",
    "address1Kana": "ミトチョウアカネスイジン",
    "address2Kana": ""
  },
  {
    "postalCode": "4410316",
    "regionId": 23,
    "region": "愛知県",
    "locality": "豊川市",
    "address1": "御津町赤根堤下",
    "address2": "",
    "regionKana": "アイチケン",
    "localityKana": "トヨカワシ",
    "address1Kana": "ミトチョウアカネツツミシタ",
    "address2Kana": ""
  },
  {
    "postalCode": "4410316",
    "regionId": 23,
    "region": "愛知県",
    "locality": "豊川市",
    "address1": "御津町赤根天王",
    "address2": "",
    "regionKana": "アイチケン",
    "localityKana": "トヨカワシ",
    "address1Kana": "ミトチョウアカネテンノウ",
    "address2Kana": ""
  },
  {
    "postalCode": "4410316",
    "regionId": 23,
    "region": "愛知県",
    "locality": "豊川市",
    "address1": "御津町赤根百々",
    "address2": "",
    "regionKana": "アイチケン",
    "localityKana": "トヨカワシ",
    "address1Kana": "ミトチョウアカネドウドウ",
    "address2Kana": ""
  },
  {
    "postalCode": "4410316",
    "regionId": 23,
    "region": "愛知県",
    "locality": "豊川市",
    "address1": "御津町赤根仲田",
    "address2": "",
    "regionKana": "アイチケン",
    "localityKana": "トヨカワシ",
    "address1Kana": "ミトチョウアカネナカタ",
    "address2Kana": ""
  },
  {
    "postalCode": "4410316",
    "regionId": 23,
    "region": "愛知県",
    "locality": "豊川市",
    "address1": "御津町赤根西半郷",
    "address2": "",
    "regionKana": "アイチケン",
    "localityKana": "トヨカワシ",
    "address1Kana": "ミトチョウアカネニシハンゴウ",
    "address2Kana": ""
  },
  {
    "postalCode": "4410316",
    "regionId": 23,
    "region": "愛知県",
    "locality": "豊川市",
    "address1": "御津町赤根野竹",
    "address2": "",
    "regionKana": "アイチケン",
    "localityKana": "トヨカワシ",
    "address1Kana": "ミトチョウアカネノタケ",
    "address2Kana": ""
  },
  {
    "postalCode": "4410316",
    "regionId": 23,
    "region": "愛知県",
    "locality": "豊川市",
    "address1": "御津町赤根半郷",
    "address2": "",
    "regionKana": "アイチケン",
    "localityKana": "トヨカワシ",
    "address1Kana": "ミトチョウアカネハンゴウ",
    "address2Kana": ""
  },
  {
    "postalCode": "4410316",
    "regionId": 23,
    "region": "愛知県",
    "locality": "豊川市",
    "address1": "御津町赤根前浜",
    "address2": "",
    "regionKana": "アイチケン",
    "localityKana": "トヨカワシ",
    "address1Kana": "ミトチョウアカネマエハマ",
    "address2Kana": ""
  },
  {
    "postalCode": "4410316",
    "regionId": 23,
    "region": "愛知県",
    "locality": "豊川市",
    "address1": "御津町赤根松葉",
    "address2": "",
    "regionKana": "アイチケン",
    "localityKana": "トヨカワシ",
    "address1Kana": "ミトチョウアカネマツバ",
    "address2Kana": ""
  },
  {
    "postalCode": "4410316",
    "regionId": 23,
    "region": "愛知県",
    "locality": "豊川市",
    "address1": "御津町赤根宮前",
    "address2": "",
    "regionKana": "アイチケン",
    "localityKana": "トヨカワシ",
    "address1Kana": "ミトチョウアカネミヤマエ",
    "address2Kana": ""
  },
  {
    "postalCode": "4410316",
    "regionId": 23,
    "region": "愛知県",
    "locality": "豊川市",
    "address1": "御津町赤根屋敷",
    "address2": "",
    "regionKana": "アイチケン",
    "localityKana": "トヨカワシ",
    "address1Kana": "ミトチョウアカネヤシキ",
    "address2Kana": ""
  },
  {
    "postalCode": "4410316",
    "regionId": 23,
    "region": "愛知県",
    "locality": "豊川市",
    "address1": "御津町赤根谷田入",
    "address2": "",
    "regionKana": "アイチケン",
    "localityKana": "トヨカワシ",
    "address1Kana": "ミトチョウアカネヤダイリ",
    "address2Kana": ""
  },
  {
    "postalCode": "4410316",
    "regionId": 23,
    "region": "愛知県",
    "locality": "豊川市",
    "address1": "御津町赤根山田",
    "address2": "",
    "regionKana": "アイチケン",
    "localityKana": "トヨカワシ",
    "address1Kana": "ミトチョウアカネヤマダ",
    "address2Kana": ""
  },
  {
    "postalCode": "4410316",
    "regionId": 23,
    "region": "愛知県",
    "locality": "豊川市",
    "address1": "御津町安礼の崎",
    "address2": "",
    "regionKana": "アイチケン",
    "localityKana": "トヨカワシ",
    "address1Kana": "ミトチョウアレノサキ",
    "address2Kana": ""
  }
]