[
  {
    "postalCode": "4410321",
    "regionId": 23,
    "region": "愛知県",
    "locality": "豊川市",
    "address1": "御津町広石",
    "address2": "",
    "regionKana": "アイチケン",
    "localityKana": "トヨカワシ",
    "address1Kana": "ミトチョウヒロイシ",
    "address2Kana": ""
  },
  {
    "postalCode": "4410321",
    "regionId": 23,
    "region": "愛知県",
    "locality": "豊川市",
    "address1": "御津町広石石堂野",
    "address2": "",
    "regionKana": "アイチケン",
    "localityKana": "トヨカワシ",
    "address1Kana": "ミトチョウヒロイシイシドウノ",
    "address2Kana": ""
  },
  {
    "postalCode": "4410321",
    "regionId": 23,
    "region": "愛知県",
    "locality": "豊川市",
    "address1": "御津町広石市場",
    "address2": "",
    "regionKana": "アイチケン",
    "localityKana": "トヨカワシ",
    "address1Kana": "ミトチョウヒロイシイチバ",
    "address2Kana": ""
  },
  {
    "postalCode": "4410321",
    "regionId": 23,
    "region": "愛知県",
    "locality": "豊川市",
    "address1": "御津町広石後畠",
    "address2": "",
    "regionKana": "アイチケン",
    "localityKana": "トヨカワシ",
    "address1Kana": "ミトチョウヒロイシウシロバタ",
    "address2Kana": ""
  },
  {
    "postalCode": "4410321",
    "regionId": 23,
    "region": "愛知県",
    "locality": "豊川市",
    "address1": "御津町広石越川",
    "address2": "",
    "regionKana": "アイチケン",
    "localityKana": "トヨカワシ",
    "address1Kana": "ミトチョウヒロイシオッカワ",
    "address2Kana": ""
  },
  {
    "postalCode": "4410321",
    "regionId": 23,
    "region": "愛知県",
    "locality": "豊川市",
    "address1": "御津町広石金堂",
    "address2": "",
    "regionKana": "アイチケン",
    "localityKana": "トヨカワシ",
    "address1Kana": "ミトチョウヒロイシカナドウ",
    "address2Kana": ""
  },
  {
    "postalCode": "4410321",
    "regionId": 23,
    "region": "愛知県",
    "locality": "豊川市",
    "address1": "御津町広石蛇塚",
    "address2": "",
    "regionKana": "アイチケン",
    "localityKana": "トヨカワシ",
    "address1Kana": "ミトチョウヒロイシクチナワヅカ",
    "address2Kana": ""
  },
  {
    "postalCode": "4410321",
    "regionId": 23,
    "region": "愛知県",
    "locality": "豊川市",
    "address1": "御津町広石高坂",
    "address2": "",
    "regionKana": "アイチケン",
    "localityKana": "トヨカワシ",
    "address1Kana": "ミトチョウヒロイシコウザカ",
    "address2Kana": ""
  },
  {
    "postalCode": "4410321",
    "regionId": 23,
    "region": "愛知県",
    "locality": "豊川市",
    "address1": "御津町広石小城前",
    "address2": "",
    "regionKana": "アイチケン",
    "localityKana": "トヨカワシ",
    "address1Kana": "ミトチョウヒロイシコジロマエ",
    "address2Kana": ""
  },
  {
    "postalCode": "4410321",
    "regionId": 23,
    "region": "愛知県",
    "locality": "豊川市",
    "address1": "御津町広石五反田",
    "address2": "",
    "regionKana": "アイチケン",
    "localityKana": "トヨカワシ",
    "address1Kana": "ミトチョウヒロイシゴタンダ",
    "address2Kana": ""
  },
  {
    "postalCode": "4410321",
    "regionId": 23,
    "region": "愛知県",
    "locality": "豊川市",
    "address1": "御津町広石小前",
    "address2": "",
    "regionKana": "アイチケン",
    "localityKana": "トヨカワシ",
    "address1Kana": "ミトチョウヒロイシコマエ",
    "address2Kana": ""
  },
  {
    "postalCode": "4410321",
    "regionId": 23,
    "region": "愛知県",
    "locality": "豊川市",
    "address1": "御津町広石新宮山",
    "address2": "",
    "regionKana": "アイチケン",
    "localityKana": "トヨカワシ",
    "address1Kana": "ミトチョウヒロイシシングウサン",
    "address2Kana": ""
  },
  {
    "postalCode": "4410321",
    "regionId": 23,
    "region": "愛知県",
    "locality": "豊川市",
    "address1": "御津町広石千路",
    "address2": "",
    "regionKana": "アイチケン",
    "localityKana": "トヨカワシ",
    "address1Kana": "ミトチョウヒロイシセンジ",
    "address2Kana": ""
  },
  {
    "postalCode": "4410321",
    "regionId": 23,
    "region": "愛知県",
    "locality": "豊川市",
    "address1": "御津町広石竹本",
    "address2": "",
    "regionKana": "アイチケン",
    "localityKana": "トヨカワシ",
    "address1Kana": "ミトチョウヒロイシタケモト",
    "address2Kana": ""
  },
  {
    "postalCode": "4410321",
    "regionId": 23,
    "region": "愛知県",
    "locality": "豊川市",
    "address1": "御津町広石枋ケ坪",
    "address2": "",
    "regionKana": "アイチケン",
    "localityKana": "トヨカワシ",
    "address1Kana": "ミトチョウヒロイシトチガツボ",
    "address2Kana": ""
  },
  {
    "postalCode": "4410321",
    "regionId": 23,
    "region": "愛知県",
    "locality": "豊川市",
    "address1": "御津町広石永井田",
    "address2": "",
    "regionKana": "アイチケン",
    "localityKana": "トヨカワシ",
    "address1Kana": "ミトチョウヒロイシナガイダ",
    "address2Kana": ""
  },
  {
    "postalCode": "4410321",
    "regionId": 23,
    "region": "愛知県",
    "locality": "豊川市",
    "address1": "御津町広石祢宜田",
    "address2": "",
    "regionKana": "アイチケン",
    "localityKana": "トヨカワシ",
    "address1Kana": "ミトチョウヒロイシネギデン",
    "address2Kana": ""
  },
  {
    "postalCode": "4410321",
    "regionId": 23,
    "region": "愛知県",
    "locality": "豊川市",
    "address1": "御津町広石祓田",
    "address2": "",
    "regionKana": "アイチケン",
    "localityKana": "トヨカワシ",
    "address1Kana": "ミトチョウヒロイシハライデン",
    "address2Kana": ""
  },
  {
    "postalCode": "4410321",
    "regionId": 23,
    "region": "愛知県",
    "locality": "豊川市",
    "address1": "御津町広石日暮",
    "address2": "",
    "regionKana": "アイチケン",
    "localityKana": "トヨカワシ",
    "address1Kana": "ミトチョウヒロイシヒグラシ",
    "address2Kana": ""
  },
  {
    "postalCode": "4410321",
    "regionId": 23,
    "region": "愛知県",
    "locality": "豊川市",
    "address1": "御津町広石広国",
    "address2": "",
    "regionKana": "アイチケン",
    "localityKana": "トヨカワシ",
    "address1Kana": "ミトチョウヒロイシヒロクニ",
    "address2Kana": ""
  },
  {
    "postalCode": "4410321",
    "regionId": 23,
    "region": "愛知県",
    "locality": "豊川市",
    "address1": "御津町広石船津",
    "address2": "",
    "regionKana": "アイチケン",
    "localityKana": "トヨカワシ",
    "address1Kana": "ミトチョウヒロイシフナツ",
    "address2Kana": ""
  },
  {
    "postalCode": "4410321",
    "regionId": 23,
    "region": "愛知県",
    "locality": "豊川市",
    "address1": "御津町広石船山",
    "address2": "",
    "regionKana": "アイチケン",
    "localityKana": "トヨカワシ",
    "address1Kana": "ミトチョウヒロイシフナヤマ",
    "address2Kana": ""
  },
  {
    "postalCode": "4410321",
    "regionId": 23,
    "region": "愛知県",
    "locality": "豊川市",
    "address1": "御津町広石神子田",
    "address2": "",
    "regionKana": "アイチケン",
    "localityKana": "トヨカワシ",
    "address1Kana": "ミトチョウヒロイシミコデン",
    "address2Kana": ""
  },
  {
    "postalCode": "4410321",
    "regionId": 23,
    "region": "愛知県",
    "locality": "豊川市",
    "address1": "御津町広石御津山",
    "address2": "",
    "regionKana": "アイチケン",
    "localityKana": "トヨカワシ",
    "address1Kana": "ミトチョウヒロイシミトヤマ",
    "address2Kana": ""
  },
  {
    "postalCode": "4410321",
    "regionId": 23,
    "region": "愛知県",
    "locality": "豊川市",
    "address1": "御津町広石横町",
    "address2": "",
    "regionKana": "アイチケン",
    "localityKana": "トヨカワシ",
    "address1Kana": "ミトチョウヒロイシヨコマチ",
    "address2Kana": ""
  }
]