[
  {
    "postalCode": "4410322",
    "regionId": 23,
    "region": "愛知県",
    "locality": "豊川市",
    "address1": "御津町豊沢",
    "address2": "",
    "regionKana": "アイチケン",
    "localityKana": "トヨカワシ",
    "address1Kana": "ミトチョウトヨサワ",
    "address2Kana": ""
  },
  {
    "postalCode": "4410322",
    "regionId": 23,
    "region": "愛知県",
    "locality": "豊川市",
    "address1": "御津町豊沢赤羽根",
    "address2": "",
    "regionKana": "アイチケン",
    "localityKana": "トヨカワシ",
    "address1Kana": "ミトチョウトヨサワアカバネ",
    "address2Kana": ""
  },
  {
    "postalCode": "4410322",
    "regionId": 23,
    "region": "愛知県",
    "locality": "豊川市",
    "address1": "御津町豊沢石堂野",
    "address2": "",
    "regionKana": "アイチケン",
    "localityKana": "トヨカワシ",
    "address1Kana": "ミトチョウトヨサワイシドウノ",
    "address2Kana": ""
  },
  {
    "postalCode": "4410322",
    "regionId": 23,
    "region": "愛知県",
    "locality": "豊川市",
    "address1": "御津町豊沢入ノ口",
    "address2": "",
    "regionKana": "アイチケン",
    "localityKana": "トヨカワシ",
    "address1Kana": "ミトチョウトヨサワイリノクチ",
    "address2Kana": ""
  },
  {
    "postalCode": "4410322",
    "regionId": 23,
    "region": "愛知県",
    "locality": "豊川市",
    "address1": "御津町豊沢上野山",
    "address2": "",
    "regionKana": "アイチケン",
    "localityKana": "トヨカワシ",
    "address1Kana": "ミトチョウトヨサワウエノヤマ",
    "address2Kana": ""
  },
  {
    "postalCode": "4410322",
    "regionId": 23,
    "region": "愛知県",
    "locality": "豊川市",
    "address1": "御津町豊沢後田",
    "address2": "",
    "regionKana": "アイチケン",
    "localityKana": "トヨカワシ",
    "address1Kana": "ミトチョウトヨサワウシロダ",
    "address2Kana": ""
  },
  {
    "postalCode": "4410322",
    "regionId": 23,
    "region": "愛知県",
    "locality": "豊川市",
    "address1": "御津町豊沢大蔵",
    "address2": "",
    "regionKana": "アイチケン",
    "localityKana": "トヨカワシ",
    "address1Kana": "ミトチョウトヨサワオオクラ",
    "address2Kana": ""
  },
  {
    "postalCode": "4410322",
    "regionId": 23,
    "region": "愛知県",
    "locality": "豊川市",
    "address1": "御津町豊沢大沢",
    "address2": "",
    "regionKana": "アイチケン",
    "localityKana": "トヨカワシ",
    "address1Kana": "ミトチョウトヨサワオオサワ",
    "address2Kana": ""
  },
  {
    "postalCode": "4410322",
    "regionId": 23,
    "region": "愛知県",
    "locality": "豊川市",
    "address1": "御津町豊沢大坪",
    "address2": "",
    "regionKana": "アイチケン",
    "localityKana": "トヨカワシ",
    "address1Kana": "ミトチョウトヨサワオオツボ",
    "address2Kana": ""
  },
  {
    "postalCode": "4410322",
    "regionId": 23,
    "region": "愛知県",
    "locality": "豊川市",
    "address1": "御津町豊沢川原",
    "address2": "",
    "regionKana": "アイチケン",
    "localityKana": "トヨカワシ",
    "address1Kana": "ミトチョウトヨサワカワハラ",
    "address2Kana": ""
  },
  {
    "postalCode": "4410322",
    "regionId": 23,
    "region": "愛知県",
    "locality": "豊川市",
    "address1": "御津町豊沢久蔵",
    "address2": "",
    "regionKana": "アイチケン",
    "localityKana": "トヨカワシ",
    "address1Kana": "ミトチョウトヨサワキュウゾウ",
    "address2Kana": ""
  },
  {
    "postalCode": "4410322",
    "regionId": 23,
    "region": "愛知県",
    "locality": "豊川市",
    "address1": "御津町豊沢蔵下",
    "address2": "",
    "regionKana": "アイチケン",
    "localityKana": "トヨカワシ",
    "address1Kana": "ミトチョウトヨサワクラシタ",
    "address2Kana": ""
  },
  {
    "postalCode": "4410322",
    "regionId": 23,
    "region": "愛知県",
    "locality": "豊川市",
    "address1": "御津町豊沢小沢",
    "address2": "",
    "regionKana": "アイチケン",
    "localityKana": "トヨカワシ",
    "address1Kana": "ミトチョウトヨサワコザワ",
    "address2Kana": ""
  },
  {
    "postalCode": "4410322",
    "regionId": 23,
    "region": "愛知県",
    "locality": "豊川市",
    "address1": "御津町豊沢小山",
    "address2": "",
    "regionKana": "アイチケン",
    "localityKana": "トヨカワシ",
    "address1Kana": "ミトチョウトヨサワコヤマ",
    "address2Kana": ""
  },
  {
    "postalCode": "4410322",
    "regionId": 23,
    "region": "愛知県",
    "locality": "豊川市",
    "address1": "御津町豊沢沢渡",
    "address2": "",
    "regionKana": "アイチケン",
    "localityKana": "トヨカワシ",
    "address1Kana": "ミトチョウトヨサワサワタリ",
    "address2Kana": ""
  },
  {
    "postalCode": "4410322",
    "regionId": 23,
    "region": "愛知県",
    "locality": "豊川市",
    "address1": "御津町豊沢篠川",
    "address2": "",
    "regionKana": "アイチケン",
    "localityKana": "トヨカワシ",
    "address1Kana": "ミトチョウトヨサワシノカワ",
    "address2Kana": ""
  },
  {
    "postalCode": "4410322",
    "regionId": 23,
    "region": "愛知県",
    "locality": "豊川市",
    "address1": "御津町豊沢新小山",
    "address2": "",
    "regionKana": "アイチケン",
    "localityKana": "トヨカワシ",
    "address1Kana": "ミトチョウトヨサワシンコヤマ",
    "address2Kana": ""
  },
  {
    "postalCode": "4410322",
    "regionId": 23,
    "region": "愛知県",
    "locality": "豊川市",
    "address1": "御津町豊沢新杉下",
    "address2": "",
    "regionKana": "アイチケン",
    "localityKana": "トヨカワシ",
    "address1Kana": "ミトチョウトヨサワシンスギシタ",
    "address2Kana": ""
  },
  {
    "postalCode": "4410322",
    "regionId": 23,
    "region": "愛知県",
    "locality": "豊川市",
    "address1": "御津町豊沢杉下",
    "address2": "",
    "regionKana": "アイチケン",
    "localityKana": "トヨカワシ",
    "address1Kana": "ミトチョウトヨサワスギシタ",
    "address2Kana": ""
  },
  {
    "postalCode": "4410322",
    "regionId": 23,
    "region": "愛知県",
    "locality": "豊川市",
    "address1": "御津町豊沢樽美",
    "address2": "",
    "regionKana": "アイチケン",
    "localityKana": "トヨカワシ",
    "address1Kana": "ミトチョウトヨサワタルミ",
    "address2Kana": ""
  },
  {
    "postalCode": "4410322",
    "regionId": 23,
    "region": "愛知県",
    "locality": "豊川市",
    "address1": "御津町豊沢払田",
    "address2": "",
    "regionKana": "アイチケン",
    "localityKana": "トヨカワシ",
    "address1Kana": "ミトチョウトヨサワハライデン",
    "address2Kana": ""
  },
  {
    "postalCode": "4410322",
    "regionId": 23,
    "region": "愛知県",
    "locality": "豊川市",
    "address1": "御津町豊沢引釣",
    "address2": "",
    "regionKana": "アイチケン",
    "localityKana": "トヨカワシ",
    "address1Kana": "ミトチョウトヨサワヒキツリ",
    "address2Kana": ""
  },
  {
    "postalCode": "4410322",
    "regionId": 23,
    "region": "愛知県",
    "locality": "豊川市",
    "address1": "御津町豊沢松田",
    "address2": "",
    "regionKana": "アイチケン",
    "localityKana": "トヨカワシ",
    "address1Kana": "ミトチョウトヨサワマツダ",
    "address2Kana": ""
  },
  {
    "postalCode": "4410322",
    "regionId": 23,
    "region": "愛知県",
    "locality": "豊川市",
    "address1": "御津町豊沢松ノ下",
    "address2": "",
    "regionKana": "アイチケン",
    "localityKana": "トヨカワシ",
    "address1Kana": "ミトチョウトヨサワマツノシタ",
    "address2Kana": ""
  },
  {
    "postalCode": "4410322",
    "regionId": 23,
    "region": "愛知県",
    "locality": "豊川市",
    "address1": "御津町豊沢三沢",
    "address2": "",
    "regionKana": "アイチケン",
    "localityKana": "トヨカワシ",
    "address1Kana": "ミトチョウトヨサワミサワ",
    "address2Kana": ""
  },
  {
    "postalCode": "4410322",
    "regionId": 23,
    "region": "愛知県",
    "locality": "豊川市",
    "address1": "御津町豊沢弥勒寺",
    "address2": "",
    "regionKana": "アイチケン",
    "localityKana": "トヨカワシ",
    "address1Kana": "ミトチョウトヨサワミロクジ",
    "address2Kana": ""
  },
  {
    "postalCode": "4410322",
    "regionId": 23,
    "region": "愛知県",
    "locality": "豊川市",
    "address1": "御津町豊沢薬堂",
    "address2": "",
    "regionKana": "アイチケン",
    "localityKana": "トヨカワシ",
    "address1Kana": "ミトチョウトヨサワヤクドウ",
    "address2Kana": ""
  }
]