[
  {
    "postalCode": "4410323",
    "regionId": 23,
    "region": "愛知県",
    "locality": "豊川市",
    "address1": "御津町金野",
    "address2": "",
    "regionKana": "アイチケン",
    "localityKana": "トヨカワシ",
    "address1Kana": "ミトチョウカネノ",
    "address2Kana": ""
  },
  {
    "postalCode": "4410323",
    "regionId": 23,
    "region": "愛知県",
    "locality": "豊川市",
    "address1": "御津町金野青木",
    "address2": "",
    "regionKana": "アイチケン",
    "localityKana": "トヨカワシ",
    "address1Kana": "ミトチョウカネノアオキ",
    "address2Kana": ""
  },
  {
    "postalCode": "4410323",
    "regionId": 23,
    "region": "愛知県",
    "locality": "豊川市",
    "address1": "御津町金野油田",
    "address2": "",
    "regionKana": "アイチケン",
    "localityKana": "トヨカワシ",
    "address1Kana": "ミトチョウカネノアブラダ",
    "address2Kana": ""
  },
  {
    "postalCode": "4410323",
    "regionId": 23,
    "region": "愛知県",
    "locality": "豊川市",
    "address1": "御津町金野石田",
    "address2": "",
    "regionKana": "アイチケン",
    "localityKana": "トヨカワシ",
    "address1Kana": "ミトチョウカネノイシダ",
    "address2Kana": ""
  },
  {
    "postalCode": "4410323",
    "regionId": 23,
    "region": "愛知県",
    "locality": "豊川市",
    "address1": "御津町金野稲場",
    "address2": "",
    "regionKana": "アイチケン",
    "localityKana": "トヨカワシ",
    "address1Kana": "ミトチョウカネノイナバ",
    "address2Kana": ""
  },
  {
    "postalCode": "4410323",
    "regionId": 23,
    "region": "愛知県",
    "locality": "豊川市",
    "address1": "御津町金野岩本",
    "address2": "",
    "regionKana": "アイチケン",
    "localityKana": "トヨカワシ",
    "address1Kana": "ミトチョウカネノイワモト",
    "address2Kana": ""
  },
  {
    "postalCode": "4410323",
    "regionId": 23,
    "region": "愛知県",
    "locality": "豊川市",
    "address1": "御津町金野上野",
    "address2": "",
    "regionKana": "アイチケン",
    "localityKana": "トヨカワシ",
    "address1Kana": "ミトチョウカネノウエノ",
    "address2Kana": ""
  },
  {
    "postalCode": "4410323",
    "regionId": 23,
    "region": "愛知県",
    "locality": "豊川市",
    "address1": "御津町金野籠田",
    "address2": "",
    "regionKana": "アイチケン",
    "localityKana": "トヨカワシ",
    "address1Kana": "ミトチョウカネノカゴタ",
    "address2Kana": ""
  },
  {
    "postalCode": "4410323",
    "regionId": 23,
    "region": "愛知県",
    "locality": "豊川市",
    "address1": "御津町金野上沢",
    "address2": "",
    "regionKana": "アイチケン",
    "localityKana": "トヨカワシ",
    "address1Kana": "ミトチョウカネノカミサワ",
    "address2Kana": ""
  },
  {
    "postalCode": "4410323",
    "regionId": 23,
    "region": "愛知県",
    "locality": "豊川市",
    "address1": "御津町金野観音寺",
    "address2": "",
    "regionKana": "アイチケン",
    "localityKana": "トヨカワシ",
    "address1Kana": "ミトチョウカネノカンノンジ",
    "address2Kana": ""
  },
  {
    "postalCode": "4410323",
    "regionId": 23,
    "region": "愛知県",
    "locality": "豊川市",
    "address1": "御津町金野国坂",
    "address2": "",
    "regionKana": "アイチケン",
    "localityKana": "トヨカワシ",
    "address1Kana": "ミトチョウカネノクニザカ",
    "address2Kana": ""
  },
  {
    "postalCode": "4410323",
    "regionId": 23,
    "region": "愛知県",
    "locality": "豊川市",
    "address1": "御津町金野郷作",
    "address2": "",
    "regionKana": "アイチケン",
    "localityKana": "トヨカワシ",
    "address1Kana": "ミトチョウカネノゴウサク",
    "address2Kana": ""
  },
  {
    "postalCode": "4410323",
    "regionId": 23,
    "region": "愛知県",
    "locality": "豊川市",
    "address1": "御津町金野五反田",
    "address2": "",
    "regionKana": "アイチケン",
    "localityKana": "トヨカワシ",
    "address1Kana": "ミトチョウカネノゴタンダ",
    "address2Kana": ""
  },
  {
    "postalCode": "4410323",
    "regionId": 23,
    "region": "愛知県",
    "locality": "豊川市",
    "address1": "御津町金野小根沢",
    "address2": "",
    "regionKana": "アイチケン",
    "localityKana": "トヨカワシ",
    "address1Kana": "ミトチョウカネノコネザワ",
    "address2Kana": ""
  },
  {
    "postalCode": "4410323",
    "regionId": 23,
    "region": "愛知県",
    "locality": "豊川市",
    "address1": "御津町金野猿沢",
    "address2": "",
    "regionKana": "アイチケン",
    "localityKana": "トヨカワシ",
    "address1Kana": "ミトチョウカネノサルサワ",
    "address2Kana": ""
  },
  {
    "postalCode": "4410323",
    "regionId": 23,
    "region": "愛知県",
    "locality": "豊川市",
    "address1": "御津町金野下",
    "address2": "",
    "regionKana": "アイチケン",
    "localityKana": "トヨカワシ",
    "address1Kana": "ミトチョウカネノシタ",
    "address2Kana": ""
  },
  {
    "postalCode": "4410323",
    "regionId": 23,
    "region": "愛知県",
    "locality": "豊川市",
    "address1": "御津町金野下ノ前",
    "address2": "",
    "regionKana": "アイチケン",
    "localityKana": "トヨカワシ",
    "address1Kana": "ミトチョウカネノシモノマエ",
    "address2Kana": ""
  },
  {
    "postalCode": "4410323",
    "regionId": 23,
    "region": "愛知県",
    "locality": "豊川市",
    "address1": "御津町金野新砂田",
    "address2": "",
    "regionKana": "アイチケン",
    "localityKana": "トヨカワシ",
    "address1Kana": "ミトチョウカネノシンスナタ",
    "address2Kana": ""
  },
  {
    "postalCode": "4410323",
    "regionId": 23,
    "region": "愛知県",
    "locality": "豊川市",
    "address1": "御津町金野新山影",
    "address2": "",
    "regionKana": "アイチケン",
    "localityKana": "トヨカワシ",
    "address1Kana": "ミトチョウカネノシンヤマカゲ",
    "address2Kana": ""
  },
  {
    "postalCode": "4410323",
    "regionId": 23,
    "region": "愛知県",
    "locality": "豊川市",
    "address1": "御津町金野砂田",
    "address2": "",
    "regionKana": "アイチケン",
    "localityKana": "トヨカワシ",
    "address1Kana": "ミトチョウカネノスナタ",
    "address2Kana": ""
  },
  {
    "postalCode": "4410323",
    "regionId": 23,
    "region": "愛知県",
    "locality": "豊川市",
    "address1": "御津町金野竹入",
    "address2": "",
    "regionKana": "アイチケン",
    "localityKana": "トヨカワシ",
    "address1Kana": "ミトチョウカネノタケイリ",
    "address2Kana": ""
  },
  {
    "postalCode": "4410323",
    "regionId": 23,
    "region": "愛知県",
    "locality": "豊川市",
    "address1": "御津町金野足見",
    "address2": "",
    "regionKana": "アイチケン",
    "localityKana": "トヨカワシ",
    "address1Kana": "ミトチョウカネノタルミ",
    "address2Kana": ""
  },
  {
    "postalCode": "4410323",
    "regionId": 23,
    "region": "愛知県",
    "locality": "豊川市",
    "address1": "御津町金野徳寒",
    "address2": "",
    "regionKana": "アイチケン",
    "localityKana": "トヨカワシ",
    "address1Kana": "ミトチョウカネノトクサブ",
    "address2Kana": ""
  },
  {
    "postalCode": "4410323",
    "regionId": 23,
    "region": "愛知県",
    "locality": "豊川市",
    "address1": "御津町金野中切",
    "address2": "",
    "regionKana": "アイチケン",
    "localityKana": "トヨカワシ",
    "address1Kana": "ミトチョウカネノナカギリ",
    "address2Kana": ""
  },
  {
    "postalCode": "4410323",
    "regionId": 23,
    "region": "愛知県",
    "locality": "豊川市",
    "address1": "御津町金野中畑",
    "address2": "",
    "regionKana": "アイチケン",
    "localityKana": "トヨカワシ",
    "address1Kana": "ミトチョウカネノナカバタ",
    "address2Kana": ""
  },
  {
    "postalCode": "4410323",
    "regionId": 23,
    "region": "愛知県",
    "locality": "豊川市",
    "address1": "御津町金野西沢",
    "address2": "",
    "regionKana": "アイチケン",
    "localityKana": "トヨカワシ",
    "address1Kana": "ミトチョウカネノニシザワ",
    "address2Kana": ""
  },
  {
    "postalCode": "4410323",
    "regionId": 23,
    "region": "愛知県",
    "locality": "豊川市",
    "address1": "御津町金野灰野坂",
    "address2": "",
    "regionKana": "アイチケン",
    "localityKana": "トヨカワシ",
    "address1Kana": "ミトチョウカネノハイノザカ",
    "address2Kana": ""
  },
  {
    "postalCode": "4410323",
    "regionId": 23,
    "region": "愛知県",
    "locality": "豊川市",
    "address1": "御津町金野長谷沢",
    "address2": "",
    "regionKana": "アイチケン",
    "localityKana": "トヨカワシ",
    "address1Kana": "ミトチョウカネノハセザワ",
    "address2Kana": ""
  },
  {
    "postalCode": "4410323",
    "regionId": 23,
    "region": "愛知県",
    "locality": "豊川市",
    "address1": "御津町金野東河津",
    "address2": "",
    "regionKana": "アイチケン",
    "localityKana": "トヨカワシ",
    "address1Kana": "ミトチョウカネノヒガシカワヅ",
    "address2Kana": ""
  },
  {
    "postalCode": "4410323",
    "regionId": 23,
    "region": "愛知県",
    "locality": "豊川市",
    "address1": "御津町金野東田",
    "address2": "",
    "regionKana": "アイチケン",
    "localityKana": "トヨカワシ",
    "address1Kana": "ミトチョウカネノヒガシダ",
    "address2Kana": ""
  },
  {
    "postalCode": "4410323",
    "regionId": 23,
    "region": "愛知県",
    "locality": "豊川市",
    "address1": "御津町金野東畑",
    "address2": "",
    "regionKana": "アイチケン",
    "localityKana": "トヨカワシ",
    "address1Kana": "ミトチョウカネノヒガシバタ",
    "address2Kana": ""
  },
  {
    "postalCode": "4410323",
    "regionId": 23,
    "region": "愛知県",
    "locality": "豊川市",
    "address1": "御津町金野桧河津",
    "address2": "",
    "regionKana": "アイチケン",
    "localityKana": "トヨカワシ",
    "address1Kana": "ミトチョウカネノヒノキカワヅ",
    "address2Kana": ""
  },
  {
    "postalCode": "4410323",
    "regionId": 23,
    "region": "愛知県",
    "locality": "豊川市",
    "address1": "御津町金野深沢",
    "address2": "",
    "regionKana": "アイチケン",
    "localityKana": "トヨカワシ",
    "address1Kana": "ミトチョウカネノフカザワ",
    "address2Kana": ""
  },
  {
    "postalCode": "4410323",
    "regionId": 23,
    "region": "愛知県",
    "locality": "豊川市",
    "address1": "御津町金野深田",
    "address2": "",
    "regionKana": "アイチケン",
    "localityKana": "トヨカワシ",
    "address1Kana": "ミトチョウカネノフカダ",
    "address2Kana": ""
  },
  {
    "postalCode": "4410323",
    "regionId": 23,
    "region": "愛知県",
    "locality": "豊川市",
    "address1": "御津町金野袋田",
    "address2": "",
    "regionKana": "アイチケン",
    "localityKana": "トヨカワシ",
    "address1Kana": "ミトチョウカネノフクロダ",
    "address2Kana": ""
  },
  {
    "postalCode": "4410323",
    "regionId": 23,
    "region": "愛知県",
    "locality": "豊川市",
    "address1": "御津町金野藤ケ山",
    "address2": "",
    "regionKana": "アイチケン",
    "localityKana": "トヨカワシ",
    "address1Kana": "ミトチョウカネノフジガヤマ",
    "address2Kana": ""
  },
  {
    "postalCode": "4410323",
    "regionId": 23,
    "region": "愛知県",
    "locality": "豊川市",
    "address1": "御津町金野藤久保",
    "address2": "",
    "regionKana": "アイチケン",
    "localityKana": "トヨカワシ",
    "address1Kana": "ミトチョウカネノフジクボ",
    "address2Kana": ""
  },
  {
    "postalCode": "4410323",
    "regionId": 23,
    "region": "愛知県",
    "locality": "豊川市",
    "address1": "御津町金野見竹",
    "address2": "",
    "regionKana": "アイチケン",
    "localityKana": "トヨカワシ",
    "address1Kana": "ミトチョウカネノミタケ",
    "address2Kana": ""
  },
  {
    "postalCode": "4410323",
    "regionId": 23,
    "region": "愛知県",
    "locality": "豊川市",
    "address1": "御津町金野山影",
    "address2": "",
    "regionKana": "アイチケン",
    "localityKana": "トヨカワシ",
    "address1Kana": "ミトチョウカネノヤマカゲ",
    "address2Kana": ""
  },
  {
    "postalCode": "4410323",
    "regionId": 23,
    "region": "愛知県",
    "locality": "豊川市",
    "address1": "御津町金野山本",
    "address2": "",
    "regionKana": "アイチケン",
    "localityKana": "トヨカワシ",
    "address1Kana": "ミトチョウカネノヤマモト",
    "address2Kana": ""
  },
  {
    "postalCode": "4410323",
    "regionId": 23,
    "region": "愛知県",
    "locality": "豊川市",
    "address1": "御津町金野横手",
    "address2": "",
    "regionKana": "アイチケン",
    "localityKana": "トヨカワシ",
    "address1Kana": "ミトチョウカネノヨコテ",
    "address2Kana": ""
  }
]