[
  {
    "postalCode": "9812116",
    "regionId": 4,
    "region": "宮城県",
    "locality": "伊具郡丸森町",
    "address1": "石倉",
    "address2": "",
    "regionKana": "ミヤギケン",
    "localityKana": "イググンマルモリマチ",
    "address1Kana": "イシクラ",
    "address2Kana": ""
  },
  {
    "postalCode": "9812116",
    "regionId": 4,
    "region": "宮城県",
    "locality": "伊具郡丸森町",
    "address1": "石倉前",
    "address2": "",
    "regionKana": "ミヤギケン",
    "localityKana": "イググンマルモリマチ",
    "address1Kana": "イシクラマエ",
    "address2Kana": ""
  },
  {
    "postalCode": "9812116",
    "regionId": 4,
    "region": "宮城県",
    "locality": "伊具郡丸森町",
    "address1": "石羽",
    "address2": "",
    "regionKana": "ミヤギケン",
    "localityKana": "イググンマルモリマチ",
    "address1Kana": "イシパ",
    "address2Kana": ""
  },
  {
    "postalCode": "9812116",
    "regionId": 4,
    "region": "宮城県",
    "locality": "伊具郡丸森町",
    "address1": "上滝東",
    "address2": "",
    "regionKana": "ミヤギケン",
    "localityKana": "イググンマルモリマチ",
    "address1Kana": "カミダキヒガシ",
    "address2Kana": ""
  },
  {
    "postalCode": "9812116",
    "regionId": 4,
    "region": "宮城県",
    "locality": "伊具郡丸森町",
    "address1": "上滝西",
    "address2": "",
    "regionKana": "ミヤギケン",
    "localityKana": "イググンマルモリマチ",
    "address1Kana": "カミダキニシ",
    "address2Kana": ""
  },
  {
    "postalCode": "9812116",
    "regionId": 4,
    "region": "宮城県",
    "locality": "伊具郡丸森町",
    "address1": "桜渕",
    "address2": "",
    "regionKana": "ミヤギケン",
    "localityKana": "イググンマルモリマチ",
    "address1Kana": "サクラブチ",
    "address2Kana": ""
  },
  {
    "postalCode": "9812116",
    "regionId": 4,
    "region": "宮城県",
    "locality": "伊具郡丸森町",
    "address1": "新田向",
    "address2": "",
    "regionKana": "ミヤギケン",
    "localityKana": "イググンマルモリマチ",
    "address1Kana": "シンデンムカエ",
    "address2Kana": ""
  },
  {
    "postalCode": "9812116",
    "regionId": 4,
    "region": "宮城県",
    "locality": "伊具郡丸森町",
    "address1": "新田東",
    "address2": "",
    "regionKana": "ミヤギケン",
    "localityKana": "イググンマルモリマチ",
    "address1Kana": "シンデンヒガシ",
    "address2Kana": ""
  },
  {
    "postalCode": "9812116",
    "regionId": 4,
    "region": "宮城県",
    "locality": "伊具郡丸森町",
    "address1": "新田西",
    "address2": "",
    "regionKana": "ミヤギケン",
    "localityKana": "イググンマルモリマチ",
    "address1Kana": "シンデンニシ",
    "address2Kana": ""
  },
  {
    "postalCode": "9812116",
    "regionId": 4,
    "region": "宮城県",
    "locality": "伊具郡丸森町",
    "address1": "高松",
    "address2": "",
    "regionKana": "ミヤギケン",
    "localityKana": "イググンマルモリマチ",
    "address1Kana": "タカマツ",
    "address2Kana": ""
  },
  {
    "postalCode": "9812116",
    "regionId": 4,
    "region": "宮城県",
    "locality": "伊具郡丸森町",
    "address1": "滝原",
    "address2": "",
    "regionKana": "ミヤギケン",
    "localityKana": "イググンマルモリマチ",
    "address1Kana": "タキパラ",
    "address2Kana": ""
  },
  {
    "postalCode": "9812116",
    "regionId": 4,
    "region": "宮城県",
    "locality": "伊具郡丸森町",
    "address1": "不動",
    "address2": "",
    "regionKana": "ミヤギケン",
    "localityKana": "イググンマルモリマチ",
    "address1Kana": "フドウ",
    "address2Kana": ""
  }
]