[
  {
    "postalCode": "9812133",
    "regionId": 4,
    "region": "宮城県",
    "locality": "伊具郡丸森町",
    "address1": "秋柴",
    "address2": "",
    "regionKana": "ミヤギケン",
    "localityKana": "イググンマルモリマチ",
    "address1Kana": "アキシバ",
    "address2Kana": ""
  },
  {
    "postalCode": "9812133",
    "regionId": 4,
    "region": "宮城県",
    "locality": "伊具郡丸森町",
    "address1": "四重麦一",
    "address2": "",
    "regionKana": "ミヤギケン",
    "localityKana": "イググンマルモリマチ",
    "address1Kana": "ヨエムギ1",
    "address2Kana": ""
  },
  {
    "postalCode": "9812133",
    "regionId": 4,
    "region": "宮城県",
    "locality": "伊具郡丸森町",
    "address1": "四重麦二",
    "address2": "",
    "regionKana": "ミヤギケン",
    "localityKana": "イググンマルモリマチ",
    "address1Kana": "ヨエムギ2",
    "address2Kana": ""
  },
  {
    "postalCode": "9812133",
    "regionId": 4,
    "region": "宮城県",
    "locality": "伊具郡丸森町",
    "address1": "四重麦三",
    "address2": "",
    "regionKana": "ミヤギケン",
    "localityKana": "イググンマルモリマチ",
    "address1Kana": "ヨエムギ3",
    "address2Kana": ""
  },
  {
    "postalCode": "9812133",
    "regionId": 4,
    "region": "宮城県",
    "locality": "伊具郡丸森町",
    "address1": "四重麦四",
    "address2": "",
    "regionKana": "ミヤギケン",
    "localityKana": "イググンマルモリマチ",
    "address1Kana": "ヨエムギ4",
    "address2Kana": ""
  },
  {
    "postalCode": "9812133",
    "regionId": 4,
    "region": "宮城県",
    "locality": "伊具郡丸森町",
    "address1": "四重麦五",
    "address2": "",
    "regionKana": "ミヤギケン",
    "localityKana": "イググンマルモリマチ",
    "address1Kana": "ヨエムギ5",
    "address2Kana": ""
  },
  {
    "postalCode": "9812133",
    "regionId": 4,
    "region": "宮城県",
    "locality": "伊具郡丸森町",
    "address1": "四重麦六",
    "address2": "",
    "regionKana": "ミヤギケン",
    "localityKana": "イググンマルモリマチ",
    "address1Kana": "ヨエムギ6",
    "address2Kana": ""
  },
  {
    "postalCode": "9812133",
    "regionId": 4,
    "region": "宮城県",
    "locality": "伊具郡丸森町",
    "address1": "四重麦七",
    "address2": "",
    "regionKana": "ミヤギケン",
    "localityKana": "イググンマルモリマチ",
    "address1Kana": "ヨエムギ7",
    "address2Kana": ""
  }
]