[
  {
    "postalCode": "9812183",
    "regionId": 4,
    "region": "宮城県",
    "locality": "伊具郡丸森町",
    "address1": "石釜",
    "address2": "",
    "regionKana": "ミヤギケン",
    "localityKana": "イググンマルモリマチ",
    "address1Kana": "イシガマ",
    "address2Kana": ""
  },
  {
    "postalCode": "9812183",
    "regionId": 4,
    "region": "宮城県",
    "locality": "伊具郡丸森町",
    "address1": "大高森",
    "address2": "",
    "regionKana": "ミヤギケン",
    "localityKana": "イググンマルモリマチ",
    "address1Kana": "オオタカモリ",
    "address2Kana": ""
  },
  {
    "postalCode": "9812183",
    "regionId": 4,
    "region": "宮城県",
    "locality": "伊具郡丸森町",
    "address1": "萱森",
    "address2": "",
    "regionKana": "ミヤギケン",
    "localityKana": "イググンマルモリマチ",
    "address1Kana": "カヤモリ",
    "address2Kana": ""
  },
  {
    "postalCode": "9812183",
    "regionId": 4,
    "region": "宮城県",
    "locality": "伊具郡丸森町",
    "address1": "塩ノ貝",
    "address2": "",
    "regionKana": "ミヤギケン",
    "localityKana": "イググンマルモリマチ",
    "address1Kana": "シオノガイ",
    "address2Kana": ""
  },
  {
    "postalCode": "9812183",
    "regionId": 4,
    "region": "宮城県",
    "locality": "伊具郡丸森町",
    "address1": "塩ノ貝後",
    "address2": "",
    "regionKana": "ミヤギケン",
    "localityKana": "イググンマルモリマチ",
    "address1Kana": "シオノガイウシロ",
    "address2Kana": ""
  },
  {
    "postalCode": "9812183",
    "regionId": 4,
    "region": "宮城県",
    "locality": "伊具郡丸森町",
    "address1": "空焼",
    "address2": "",
    "regionKana": "ミヤギケン",
    "localityKana": "イググンマルモリマチ",
    "address1Kana": "ソラヤキ",
    "address2Kana": ""
  },
  {
    "postalCode": "9812183",
    "regionId": 4,
    "region": "宮城県",
    "locality": "伊具郡丸森町",
    "address1": "角切",
    "address2": "",
    "regionKana": "ミヤギケン",
    "localityKana": "イググンマルモリマチ",
    "address1Kana": "ツノキリ",
    "address2Kana": ""
  },
  {
    "postalCode": "9812183",
    "regionId": 4,
    "region": "宮城県",
    "locality": "伊具郡丸森町",
    "address1": "鳥木",
    "address2": "",
    "regionKana": "ミヤギケン",
    "localityKana": "イググンマルモリマチ",
    "address1Kana": "トリキ",
    "address2Kana": ""
  },
  {
    "postalCode": "9812183",
    "regionId": 4,
    "region": "宮城県",
    "locality": "伊具郡丸森町",
    "address1": "屋敷",
    "address2": "",
    "regionKana": "ミヤギケン",
    "localityKana": "イググンマルモリマチ",
    "address1Kana": "ヤシキ",
    "address2Kana": ""
  },
  {
    "postalCode": "9812183",
    "regionId": 4,
    "region": "宮城県",
    "locality": "伊具郡丸森町",
    "address1": "屋敷前",
    "address2": "",
    "regionKana": "ミヤギケン",
    "localityKana": "イググンマルモリマチ",
    "address1Kana": "ヤシキマエ",
    "address2Kana": ""
  }
]