[
  {
    "postalCode": "9812187",
    "regionId": 4,
    "region": "宮城県",
    "locality": "伊具郡丸森町",
    "address1": "荒屋敷",
    "address2": "",
    "regionKana": "ミヤギケン",
    "localityKana": "イググンマルモリマチ",
    "address1Kana": "アラヤシキ",
    "address2Kana": ""
  },
  {
    "postalCode": "9812187",
    "regionId": 4,
    "region": "宮城県",
    "locality": "伊具郡丸森町",
    "address1": "大巻南",
    "address2": "",
    "regionKana": "ミヤギケン",
    "localityKana": "イググンマルモリマチ",
    "address1Kana": "オオマキミナミ",
    "address2Kana": ""
  },
  {
    "postalCode": "9812187",
    "regionId": 4,
    "region": "宮城県",
    "locality": "伊具郡丸森町",
    "address1": "大巻北",
    "address2": "",
    "regionKana": "ミヤギケン",
    "localityKana": "イググンマルモリマチ",
    "address1Kana": "オオマキキタ",
    "address2Kana": ""
  },
  {
    "postalCode": "9812187",
    "regionId": 4,
    "region": "宮城県",
    "locality": "伊具郡丸森町",
    "address1": "川原田",
    "address2": "",
    "regionKana": "ミヤギケン",
    "localityKana": "イググンマルモリマチ",
    "address1Kana": "カワハラダ",
    "address2Kana": ""
  },
  {
    "postalCode": "9812187",
    "regionId": 4,
    "region": "宮城県",
    "locality": "伊具郡丸森町",
    "address1": "川前",
    "address2": "",
    "regionKana": "ミヤギケン",
    "localityKana": "イググンマルモリマチ",
    "address1Kana": "カワマエ",
    "address2Kana": ""
  },
  {
    "postalCode": "9812187",
    "regionId": 4,
    "region": "宮城県",
    "locality": "伊具郡丸森町",
    "address1": "北原東",
    "address2": "",
    "regionKana": "ミヤギケン",
    "localityKana": "イググンマルモリマチ",
    "address1Kana": "キタハラヒガシ",
    "address2Kana": ""
  },
  {
    "postalCode": "9812187",
    "regionId": 4,
    "region": "宮城県",
    "locality": "伊具郡丸森町",
    "address1": "北原南",
    "address2": "",
    "regionKana": "ミヤギケン",
    "localityKana": "イググンマルモリマチ",
    "address1Kana": "キタハラミナミ",
    "address2Kana": ""
  },
  {
    "postalCode": "9812187",
    "regionId": 4,
    "region": "宮城県",
    "locality": "伊具郡丸森町",
    "address1": "袖五郎",
    "address2": "",
    "regionKana": "ミヤギケン",
    "localityKana": "イググンマルモリマチ",
    "address1Kana": "ソデゴロウ",
    "address2Kana": ""
  },
  {
    "postalCode": "9812187",
    "regionId": 4,
    "region": "宮城県",
    "locality": "伊具郡丸森町",
    "address1": "日照田",
    "address2": "",
    "regionKana": "ミヤギケン",
    "localityKana": "イググンマルモリマチ",
    "address1Kana": "ヒデリダ",
    "address2Kana": ""
  },
  {
    "postalCode": "9812187",
    "regionId": 4,
    "region": "宮城県",
    "locality": "伊具郡丸森町",
    "address1": "水沢",
    "address2": "",
    "regionKana": "ミヤギケン",
    "localityKana": "イググンマルモリマチ",
    "address1Kana": "ミズサワ",
    "address2Kana": ""
  }
]