[
  {
    "postalCode": "4801102",
    "regionId": 23,
    "region": "愛知県",
    "locality": "長久手市",
    "address1": "前熊一ノ井",
    "address2": "",
    "regionKana": "アイチケン",
    "localityKana": "ナガクテシ",
    "address1Kana": "マエグマイチノイ",
    "address2Kana": ""
  },
  {
    "postalCode": "4801102",
    "regionId": 23,
    "region": "愛知県",
    "locality": "長久手市",
    "address1": "前熊志水",
    "address2": "",
    "regionKana": "アイチケン",
    "localityKana": "ナガクテシ",
    "address1Kana": "マエグマシミズ",
    "address2Kana": ""
  },
  {
    "postalCode": "4801102",
    "regionId": 23,
    "region": "愛知県",
    "locality": "長久手市",
    "address1": "前熊下田",
    "address2": "",
    "regionKana": "アイチケン",
    "localityKana": "ナガクテシ",
    "address1Kana": "マエグマシモダ",
    "address2Kana": ""
  },
  {
    "postalCode": "4801102",
    "regionId": 23,
    "region": "愛知県",
    "locality": "長久手市",
    "address1": "前熊寺田",
    "address2": "",
    "regionKana": "アイチケン",
    "localityKana": "ナガクテシ",
    "address1Kana": "マエグマテラダ",
    "address2Kana": ""
  },
  {
    "postalCode": "4801102",
    "regionId": 23,
    "region": "愛知県",
    "locality": "長久手市",
    "address1": "前熊中井",
    "address2": "",
    "regionKana": "アイチケン",
    "localityKana": "ナガクテシ",
    "address1Kana": "マエグマナカイ",
    "address2Kana": ""
  },
  {
    "postalCode": "4801102",
    "regionId": 23,
    "region": "愛知県",
    "locality": "長久手市",
    "address1": "前熊西脇",
    "address2": "",
    "regionKana": "アイチケン",
    "localityKana": "ナガクテシ",
    "address1Kana": "マエグマニシワキ",
    "address2Kana": ""
  },
  {
    "postalCode": "4801102",
    "regionId": 23,
    "region": "愛知県",
    "locality": "長久手市",
    "address1": "前熊根ノ上",
    "address2": "",
    "regionKana": "アイチケン",
    "localityKana": "ナガクテシ",
    "address1Kana": "マエグマネノウエ",
    "address2Kana": ""
  },
  {
    "postalCode": "4801102",
    "regionId": 23,
    "region": "愛知県",
    "locality": "長久手市",
    "address1": "前熊根ノ原",
    "address2": "",
    "regionKana": "アイチケン",
    "localityKana": "ナガクテシ",
    "address1Kana": "マエグマネノハラ",
    "address2Kana": ""
  },
  {
    "postalCode": "4801102",
    "regionId": 23,
    "region": "愛知県",
    "locality": "長久手市",
    "address1": "前熊橋ノ本",
    "address2": "",
    "regionKana": "アイチケン",
    "localityKana": "ナガクテシ",
    "address1Kana": "マエグマハシノモト",
    "address2Kana": ""
  },
  {
    "postalCode": "4801102",
    "regionId": 23,
    "region": "愛知県",
    "locality": "長久手市",
    "address1": "前熊原山",
    "address2": "",
    "regionKana": "アイチケン",
    "localityKana": "ナガクテシ",
    "address1Kana": "マエグマハラヤマ",
    "address2Kana": ""
  },
  {
    "postalCode": "4801102",
    "regionId": 23,
    "region": "愛知県",
    "locality": "長久手市",
    "address1": "前熊広面",
    "address2": "",
    "regionKana": "アイチケン",
    "localityKana": "ナガクテシ",
    "address1Kana": "マエグマヒロオモテ",
    "address2Kana": ""
  },
  {
    "postalCode": "4801102",
    "regionId": 23,
    "region": "愛知県",
    "locality": "長久手市",
    "address1": "前熊堀越",
    "address2": "",
    "regionKana": "アイチケン",
    "localityKana": "ナガクテシ",
    "address1Kana": "マエグマホリコシ",
    "address2Kana": ""
  },
  {
    "postalCode": "4801102",
    "regionId": 23,
    "region": "愛知県",
    "locality": "長久手市",
    "address1": "前熊前山",
    "address2": "",
    "regionKana": "アイチケン",
    "localityKana": "ナガクテシ",
    "address1Kana": "マエグママエヤマ",
    "address2Kana": ""
  },
  {
    "postalCode": "4801102",
    "regionId": 23,
    "region": "愛知県",
    "locality": "長久手市",
    "address1": "前熊溝下",
    "address2": "",
    "regionKana": "アイチケン",
    "localityKana": "ナガクテシ",
    "address1Kana": "マエグマミゾシタ",
    "address2Kana": ""
  }
]