[
  {
    "postalCode": "4801103",
    "regionId": 23,
    "region": "愛知県",
    "locality": "長久手市",
    "address1": "岩作石田",
    "address2": "",
    "regionKana": "アイチケン",
    "localityKana": "ナガクテシ",
    "address1Kana": "ヤザコイシダ",
    "address2Kana": ""
  },
  {
    "postalCode": "4801103",
    "regionId": 23,
    "region": "愛知県",
    "locality": "長久手市",
    "address1": "岩作井戸ケ根",
    "address2": "",
    "regionKana": "アイチケン",
    "localityKana": "ナガクテシ",
    "address1Kana": "ヤザコイドガネ",
    "address2Kana": ""
  },
  {
    "postalCode": "4801103",
    "regionId": 23,
    "region": "愛知県",
    "locality": "長久手市",
    "address1": "岩作色金",
    "address2": "",
    "regionKana": "アイチケン",
    "localityKana": "ナガクテシ",
    "address1Kana": "ヤザコイロガネ",
    "address2Kana": ""
  },
  {
    "postalCode": "4801103",
    "regionId": 23,
    "region": "愛知県",
    "locality": "長久手市",
    "address1": "岩作浮江",
    "address2": "",
    "regionKana": "アイチケン",
    "localityKana": "ナガクテシ",
    "address1Kana": "ヤザコウキエ",
    "address2Kana": ""
  },
  {
    "postalCode": "4801103",
    "regionId": 23,
    "region": "愛知県",
    "locality": "長久手市",
    "address1": "岩作内万場",
    "address2": "",
    "regionKana": "アイチケン",
    "localityKana": "ナガクテシ",
    "address1Kana": "ヤザコウチマンバ",
    "address2Kana": ""
  },
  {
    "postalCode": "4801103",
    "regionId": 23,
    "region": "愛知県",
    "locality": "長久手市",
    "address1": "岩作大根",
    "address2": "",
    "regionKana": "アイチケン",
    "localityKana": "ナガクテシ",
    "address1Kana": "ヤザコオオネ",
    "address2Kana": ""
  },
  {
    "postalCode": "4801103",
    "regionId": 23,
    "region": "愛知県",
    "locality": "長久手市",
    "address1": "岩作落合",
    "address2": "",
    "regionKana": "アイチケン",
    "localityKana": "ナガクテシ",
    "address1Kana": "ヤザコオチアイ",
    "address2Kana": ""
  },
  {
    "postalCode": "4801103",
    "regionId": 23,
    "region": "愛知県",
    "locality": "長久手市",
    "address1": "岩作折戸ケ平",
    "address2": "",
    "regionKana": "アイチケン",
    "localityKana": "ナガクテシ",
    "address1Kana": "ヤザコオリドガヒラ",
    "address2Kana": ""
  },
  {
    "postalCode": "4801103",
    "regionId": 23,
    "region": "愛知県",
    "locality": "長久手市",
    "address1": "岩作欠花",
    "address2": "",
    "regionKana": "アイチケン",
    "localityKana": "ナガクテシ",
    "address1Kana": "ヤザコカケハナ",
    "address2Kana": ""
  },
  {
    "postalCode": "4801103",
    "regionId": 23,
    "region": "愛知県",
    "locality": "長久手市",
    "address1": "岩作壁ノ本",
    "address2": "",
    "regionKana": "アイチケン",
    "localityKana": "ナガクテシ",
    "address1Kana": "ヤザコカベノモト",
    "address2Kana": ""
  },
  {
    "postalCode": "4801103",
    "regionId": 23,
    "region": "愛知県",
    "locality": "長久手市",
    "address1": "岩作雁又",
    "address2": "",
    "regionKana": "アイチケン",
    "localityKana": "ナガクテシ",
    "address1Kana": "ヤザコカリマタ",
    "address2Kana": ""
  },
  {
    "postalCode": "4801103",
    "regionId": 23,
    "region": "愛知県",
    "locality": "長久手市",
    "address1": "岩作北山",
    "address2": "",
    "regionKana": "アイチケン",
    "localityKana": "ナガクテシ",
    "address1Kana": "ヤザコキタヤマ",
    "address2Kana": ""
  },
  {
    "postalCode": "4801103",
    "regionId": 23,
    "region": "愛知県",
    "locality": "長久手市",
    "address1": "岩作狐洞",
    "address2": "",
    "regionKana": "アイチケン",
    "localityKana": "ナガクテシ",
    "address1Kana": "ヤザコキツネボラ",
    "address2Kana": ""
  },
  {
    "postalCode": "4801103",
    "regionId": 23,
    "region": "愛知県",
    "locality": "長久手市",
    "address1": "岩作五反田",
    "address2": "",
    "regionKana": "アイチケン",
    "localityKana": "ナガクテシ",
    "address1Kana": "ヤザコゴタンダ",
    "address2Kana": ""
  },
  {
    "postalCode": "4801103",
    "regionId": 23,
    "region": "愛知県",
    "locality": "長久手市",
    "address1": "岩作権田",
    "address2": "",
    "regionKana": "アイチケン",
    "localityKana": "ナガクテシ",
    "address1Kana": "ヤザコゴンダ",
    "address2Kana": ""
  },
  {
    "postalCode": "4801103",
    "regionId": 23,
    "region": "愛知県",
    "locality": "長久手市",
    "address1": "岩作権代",
    "address2": "",
    "regionKana": "アイチケン",
    "localityKana": "ナガクテシ",
    "address1Kana": "ヤザコゴンダイ",
    "address2Kana": ""
  },
  {
    "postalCode": "4801103",
    "regionId": 23,
    "region": "愛知県",
    "locality": "長久手市",
    "address1": "岩作三ケ峯",
    "address2": "",
    "regionKana": "アイチケン",
    "localityKana": "ナガクテシ",
    "address1Kana": "ヤザコサガミネ",
    "address2Kana": ""
  },
  {
    "postalCode": "4801103",
    "regionId": 23,
    "region": "愛知県",
    "locality": "長久手市",
    "address1": "岩作申立花",
    "address2": "",
    "regionKana": "アイチケン",
    "localityKana": "ナガクテシ",
    "address1Kana": "ヤザコサルリッカ",
    "address2Kana": ""
  },
  {
    "postalCode": "4801103",
    "regionId": 23,
    "region": "愛知県",
    "locality": "長久手市",
    "address1": "岩作下島",
    "address2": "",
    "regionKana": "アイチケン",
    "localityKana": "ナガクテシ",
    "address1Kana": "ヤザコシモジマ",
    "address2Kana": ""
  },
  {
    "postalCode": "4801103",
    "regionId": 23,
    "region": "愛知県",
    "locality": "長久手市",
    "address1": "岩作下田",
    "address2": "",
    "regionKana": "アイチケン",
    "localityKana": "ナガクテシ",
    "address1Kana": "ヤザコシモダ",
    "address2Kana": ""
  },
  {
    "postalCode": "4801103",
    "regionId": 23,
    "region": "愛知県",
    "locality": "長久手市",
    "address1": "岩作下堀越",
    "address2": "",
    "regionKana": "アイチケン",
    "localityKana": "ナガクテシ",
    "address1Kana": "ヤザコシモホリコシ",
    "address2Kana": ""
  },
  {
    "postalCode": "4801103",
    "regionId": 23,
    "region": "愛知県",
    "locality": "長久手市",
    "address1": "岩作蛇洞",
    "address2": "",
    "regionKana": "アイチケン",
    "localityKana": "ナガクテシ",
    "address1Kana": "ヤザコジャボラ",
    "address2Kana": ""
  },
  {
    "postalCode": "4801103",
    "regionId": 23,
    "region": "愛知県",
    "locality": "長久手市",
    "address1": "岩作白針",
    "address2": "",
    "regionKana": "アイチケン",
    "localityKana": "ナガクテシ",
    "address1Kana": "ヤザコシラバリ",
    "address2Kana": ""
  },
  {
    "postalCode": "4801103",
    "regionId": 23,
    "region": "愛知県",
    "locality": "長久手市",
    "address1": "岩作城の内",
    "address2": "",
    "regionKana": "アイチケン",
    "localityKana": "ナガクテシ",
    "address1Kana": "ヤザコシロノウチ",
    "address2Kana": ""
  },
  {
    "postalCode": "4801103",
    "regionId": 23,
    "region": "愛知県",
    "locality": "長久手市",
    "address1": "岩作隅田",
    "address2": "",
    "regionKana": "アイチケン",
    "localityKana": "ナガクテシ",
    "address1Kana": "ヤザコスミダ",
    "address2Kana": ""
  },
  {
    "postalCode": "4801103",
    "regionId": 23,
    "region": "愛知県",
    "locality": "長久手市",
    "address1": "岩作高根",
    "address2": "",
    "regionKana": "アイチケン",
    "localityKana": "ナガクテシ",
    "address1Kana": "ヤザコタカネ",
    "address2Kana": ""
  },
  {
    "postalCode": "4801103",
    "regionId": 23,
    "region": "愛知県",
    "locality": "長久手市",
    "address1": "岩作高根前",
    "address2": "",
    "regionKana": "アイチケン",
    "localityKana": "ナガクテシ",
    "address1Kana": "ヤザコタカネマエ",
    "address2Kana": ""
  },
  {
    "postalCode": "4801103",
    "regionId": 23,
    "region": "愛知県",
    "locality": "長久手市",
    "address1": "岩作高山",
    "address2": "",
    "regionKana": "アイチケン",
    "localityKana": "ナガクテシ",
    "address1Kana": "ヤザコタカヤマ",
    "address2Kana": ""
  },
  {
    "postalCode": "4801103",
    "regionId": 23,
    "region": "愛知県",
    "locality": "長久手市",
    "address1": "岩作塚本",
    "address2": "",
    "regionKana": "アイチケン",
    "localityKana": "ナガクテシ",
    "address1Kana": "ヤザコツカモト",
    "address2Kana": ""
  },
  {
    "postalCode": "4801103",
    "regionId": 23,
    "region": "愛知県",
    "locality": "長久手市",
    "address1": "岩作寺田",
    "address2": "",
    "regionKana": "アイチケン",
    "localityKana": "ナガクテシ",
    "address1Kana": "ヤザコテラダ",
    "address2Kana": ""
  },
  {
    "postalCode": "4801103",
    "regionId": 23,
    "region": "愛知県",
    "locality": "長久手市",
    "address1": "岩作寺山",
    "address2": "",
    "regionKana": "アイチケン",
    "localityKana": "ナガクテシ",
    "address1Kana": "ヤザコテラヤマ",
    "address2Kana": ""
  },
  {
    "postalCode": "4801103",
    "regionId": 23,
    "region": "愛知県",
    "locality": "長久手市",
    "address1": "岩作床寒",
    "address2": "",
    "regionKana": "アイチケン",
    "localityKana": "ナガクテシ",
    "address1Kana": "ヤザコトコサム",
    "address2Kana": ""
  },
  {
    "postalCode": "4801103",
    "regionId": 23,
    "region": "愛知県",
    "locality": "長久手市",
    "address1": "岩作泥亀首",
    "address2": "",
    "regionKana": "アイチケン",
    "localityKana": "ナガクテシ",
    "address1Kana": "ヤザコトチクビ",
    "address2Kana": ""
  },
  {
    "postalCode": "4801103",
    "regionId": 23,
    "region": "愛知県",
    "locality": "長久手市",
    "address1": "岩作寅山",
    "address2": "",
    "regionKana": "アイチケン",
    "localityKana": "ナガクテシ",
    "address1Kana": "ヤザコトラヤマ",
    "address2Kana": ""
  },
  {
    "postalCode": "4801103",
    "regionId": 23,
    "region": "愛知県",
    "locality": "長久手市",
    "address1": "岩作酉立花",
    "address2": "",
    "regionKana": "アイチケン",
    "localityKana": "ナガクテシ",
    "address1Kana": "ヤザコトリリッカ",
    "address2Kana": ""
  },
  {
    "postalCode": "4801103",
    "regionId": 23,
    "region": "愛知県",
    "locality": "長久手市",
    "address1": "岩作長池",
    "address2": "",
    "regionKana": "アイチケン",
    "localityKana": "ナガクテシ",
    "address1Kana": "ヤザコナガイケ",
    "address2Kana": ""
  },
  {
    "postalCode": "4801103",
    "regionId": 23,
    "region": "愛知県",
    "locality": "長久手市",
    "address1": "岩作長筬",
    "address2": "",
    "regionKana": "アイチケン",
    "localityKana": "ナガクテシ",
    "address1Kana": "ヤザコナガオサ",
    "address2Kana": ""
  },
  {
    "postalCode": "4801103",
    "regionId": 23,
    "region": "愛知県",
    "locality": "長久手市",
    "address1": "岩作中権代",
    "address2": "",
    "regionKana": "アイチケン",
    "localityKana": "ナガクテシ",
    "address1Kana": "ヤザコナカゴンダイ",
    "address2Kana": ""
  },
  {
    "postalCode": "4801103",
    "regionId": 23,
    "region": "愛知県",
    "locality": "長久手市",
    "address1": "岩作中島",
    "address2": "",
    "regionKana": "アイチケン",
    "localityKana": "ナガクテシ",
    "address1Kana": "ヤザコナカジマ",
    "address2Kana": ""
  },
  {
    "postalCode": "4801103",
    "regionId": 23,
    "region": "愛知県",
    "locality": "長久手市",
    "address1": "岩作長鶴",
    "address2": "",
    "regionKana": "アイチケン",
    "localityKana": "ナガクテシ",
    "address1Kana": "ヤザコナガツル",
    "address2Kana": ""
  },
  {
    "postalCode": "4801103",
    "regionId": 23,
    "region": "愛知県",
    "locality": "長久手市",
    "address1": "岩作中縄手",
    "address2": "",
    "regionKana": "アイチケン",
    "localityKana": "ナガクテシ",
    "address1Kana": "ヤザコナカナワテ",
    "address2Kana": ""
  },
  {
    "postalCode": "4801103",
    "regionId": 23,
    "region": "愛知県",
    "locality": "長久手市",
    "address1": "岩作中根",
    "address2": "",
    "regionKana": "アイチケン",
    "localityKana": "ナガクテシ",
    "address1Kana": "ヤザコナカネ",
    "address2Kana": ""
  },
  {
    "postalCode": "4801103",
    "regionId": 23,
    "region": "愛知県",
    "locality": "長久手市",
    "address1": "岩作中根原",
    "address2": "",
    "regionKana": "アイチケン",
    "localityKana": "ナガクテシ",
    "address1Kana": "ヤザコナカネバラ",
    "address2Kana": ""
  },
  {
    "postalCode": "4801103",
    "regionId": 23,
    "region": "愛知県",
    "locality": "長久手市",
    "address1": "岩作中立花",
    "address2": "",
    "regionKana": "アイチケン",
    "localityKana": "ナガクテシ",
    "address1Kana": "ヤザコナカリッカ",
    "address2Kana": ""
  },
  {
    "postalCode": "4801103",
    "regionId": 23,
    "region": "愛知県",
    "locality": "長久手市",
    "address1": "岩作中脇",
    "address2": "",
    "regionKana": "アイチケン",
    "localityKana": "ナガクテシ",
    "address1Kana": "ヤザコナカワキ",
    "address2Kana": ""
  },
  {
    "postalCode": "4801103",
    "regionId": 23,
    "region": "愛知県",
    "locality": "長久手市",
    "address1": "岩作西浦",
    "address2": "",
    "regionKana": "アイチケン",
    "localityKana": "ナガクテシ",
    "address1Kana": "ヤザコニシウラ",
    "address2Kana": ""
  },
  {
    "postalCode": "4801103",
    "regionId": 23,
    "region": "愛知県",
    "locality": "長久手市",
    "address1": "岩作西島",
    "address2": "",
    "regionKana": "アイチケン",
    "localityKana": "ナガクテシ",
    "address1Kana": "ヤザコニシジマ",
    "address2Kana": ""
  },
  {
    "postalCode": "4801103",
    "regionId": 23,
    "region": "愛知県",
    "locality": "長久手市",
    "address1": "岩作東島",
    "address2": "",
    "regionKana": "アイチケン",
    "localityKana": "ナガクテシ",
    "address1Kana": "ヤザコヒガシジマ",
    "address2Kana": ""
  },
  {
    "postalCode": "4801103",
    "regionId": 23,
    "region": "愛知県",
    "locality": "長久手市",
    "address1": "岩作東中",
    "address2": "",
    "regionKana": "アイチケン",
    "localityKana": "ナガクテシ",
    "address1Kana": "ヤザコヒガシナカ",
    "address2Kana": ""
  },
  {
    "postalCode": "4801103",
    "regionId": 23,
    "region": "愛知県",
    "locality": "長久手市",
    "address1": "岩作平子",
    "address2": "",
    "regionKana": "アイチケン",
    "localityKana": "ナガクテシ",
    "address1Kana": "ヤザコヒラコ",
    "address2Kana": ""
  },
  {
    "postalCode": "4801103",
    "regionId": 23,
    "region": "愛知県",
    "locality": "長久手市",
    "address1": "岩作平地",
    "address2": "",
    "regionKana": "アイチケン",
    "localityKana": "ナガクテシ",
    "address1Kana": "ヤザコヒラチ",
    "address2Kana": ""
  },
  {
    "postalCode": "4801103",
    "regionId": 23,
    "region": "愛知県",
    "locality": "長久手市",
    "address1": "岩作琵琶ケ池",
    "address2": "",
    "regionKana": "アイチケン",
    "localityKana": "ナガクテシ",
    "address1Kana": "ヤザコビワガイケ",
    "address2Kana": ""
  },
  {
    "postalCode": "4801103",
    "regionId": 23,
    "region": "愛知県",
    "locality": "長久手市",
    "address1": "岩作福井",
    "address2": "",
    "regionKana": "アイチケン",
    "localityKana": "ナガクテシ",
    "address1Kana": "ヤザコフクイ",
    "address2Kana": ""
  },
  {
    "postalCode": "4801103",
    "regionId": 23,
    "region": "愛知県",
    "locality": "長久手市",
    "address1": "岩作丸根",
    "address2": "",
    "regionKana": "アイチケン",
    "localityKana": "ナガクテシ",
    "address1Kana": "ヤザコマルネ",
    "address2Kana": ""
  },
  {
    "postalCode": "4801103",
    "regionId": 23,
    "region": "愛知県",
    "locality": "長久手市",
    "address1": "岩作溝添",
    "address2": "",
    "regionKana": "アイチケン",
    "localityKana": "ナガクテシ",
    "address1Kana": "ヤザコミゾゾエ",
    "address2Kana": ""
  },
  {
    "postalCode": "4801103",
    "regionId": 23,
    "region": "愛知県",
    "locality": "長久手市",
    "address1": "岩作南島",
    "address2": "",
    "regionKana": "アイチケン",
    "localityKana": "ナガクテシ",
    "address1Kana": "ヤザコミナミジマ",
    "address2Kana": ""
  },
  {
    "postalCode": "4801103",
    "regionId": 23,
    "region": "愛知県",
    "locality": "長久手市",
    "address1": "岩作宮後",
    "address2": "",
    "regionKana": "アイチケン",
    "localityKana": "ナガクテシ",
    "address1Kana": "ヤザコミヤウシロ",
    "address2Kana": ""
  },
  {
    "postalCode": "4801103",
    "regionId": 23,
    "region": "愛知県",
    "locality": "長久手市",
    "address1": "岩作宮前",
    "address2": "",
    "regionKana": "アイチケン",
    "localityKana": "ナガクテシ",
    "address1Kana": "ヤザコミヤマエ",
    "address2Kana": ""
  },
  {
    "postalCode": "4801103",
    "regionId": 23,
    "region": "愛知県",
    "locality": "長久手市",
    "address1": "岩作向田",
    "address2": "",
    "regionKana": "アイチケン",
    "localityKana": "ナガクテシ",
    "address1Kana": "ヤザコムカイダ",
    "address2Kana": ""
  },
  {
    "postalCode": "4801103",
    "regionId": 23,
    "region": "愛知県",
    "locality": "長久手市",
    "address1": "岩作向畑",
    "address2": "",
    "regionKana": "アイチケン",
    "localityKana": "ナガクテシ",
    "address1Kana": "ヤザコムカエバタ",
    "address2Kana": ""
  },
  {
    "postalCode": "4801103",
    "regionId": 23,
    "region": "愛知県",
    "locality": "長久手市",
    "address1": "岩作元門",
    "address2": "",
    "regionKana": "アイチケン",
    "localityKana": "ナガクテシ",
    "address1Kana": "ヤザコモトカド",
    "address2Kana": ""
  },
  {
    "postalCode": "4801103",
    "regionId": 23,
    "region": "愛知県",
    "locality": "長久手市",
    "address1": "岩作桃ノ木洞",
    "address2": "",
    "regionKana": "アイチケン",
    "localityKana": "ナガクテシ",
    "address1Kana": "ヤザコモモノキボラ",
    "address2Kana": ""
  },
  {
    "postalCode": "4801103",
    "regionId": 23,
    "region": "愛知県",
    "locality": "長久手市",
    "address1": "岩作八瀬ノ木",
    "address2": "",
    "regionKana": "アイチケン",
    "localityKana": "ナガクテシ",
    "address1Kana": "ヤザコヤセノキ",
    "address2Kana": ""
  },
  {
    "postalCode": "4801103",
    "regionId": 23,
    "region": "愛知県",
    "locality": "長久手市",
    "address1": "岩作籔田",
    "address2": "",
    "regionKana": "アイチケン",
    "localityKana": "ナガクテシ",
    "address1Kana": "ヤザコヤブタ",
    "address2Kana": ""
  },
  {
    "postalCode": "4801103",
    "regionId": 23,
    "region": "愛知県",
    "locality": "長久手市",
    "address1": "岩作早稲田",
    "address2": "",
    "regionKana": "アイチケン",
    "localityKana": "ナガクテシ",
    "address1Kana": "ヤザコワセダ",
    "address2Kana": ""
  }
]