[
  {
    "postalCode": "9690401",
    "regionId": 7,
    "region": "福島県",
    "locality": "岩瀬郡鏡石町",
    "address1": "池ノ原",
    "address2": "",
    "regionKana": "フクシマケン",
    "localityKana": "イワセグンカガミイシマチ",
    "address1Kana": "イケノハラ",
    "address2Kana": ""
  },
  {
    "postalCode": "9690401",
    "regionId": 7,
    "region": "福島県",
    "locality": "岩瀬郡鏡石町",
    "address1": "大池",
    "address2": "",
    "regionKana": "フクシマケン",
    "localityKana": "イワセグンカガミイシマチ",
    "address1Kana": "オオイケ",
    "address2Kana": ""
  },
  {
    "postalCode": "9690401",
    "regionId": 7,
    "region": "福島県",
    "locality": "岩瀬郡鏡石町",
    "address1": "岡ノ内",
    "address2": "",
    "regionKana": "フクシマケン",
    "localityKana": "イワセグンカガミイシマチ",
    "address1Kana": "オカノウチ",
    "address2Kana": ""
  },
  {
    "postalCode": "9690401",
    "regionId": 7,
    "region": "福島県",
    "locality": "岩瀬郡鏡石町",
    "address1": "鏡田かげ沼町",
    "address2": "",
    "regionKana": "フクシマケン",
    "localityKana": "イワセグンカガミイシマチ",
    "address1Kana": "カガミダカゲヌママチ",
    "address2Kana": ""
  },
  {
    "postalCode": "9690401",
    "regionId": 7,
    "region": "福島県",
    "locality": "岩瀬郡鏡石町",
    "address1": "鏡沼",
    "address2": "",
    "regionKana": "フクシマケン",
    "localityKana": "イワセグンカガミイシマチ",
    "address1Kana": "カガミヌマ",
    "address2Kana": ""
  },
  {
    "postalCode": "9690401",
    "regionId": 7,
    "region": "福島県",
    "locality": "岩瀬郡鏡石町",
    "address1": "鹿島",
    "address2": "",
    "regionKana": "フクシマケン",
    "localityKana": "イワセグンカガミイシマチ",
    "address1Kana": "カシマ",
    "address2Kana": ""
  },
  {
    "postalCode": "9690401",
    "regionId": 7,
    "region": "福島県",
    "locality": "岩瀬郡鏡石町",
    "address1": "蒲之沢町",
    "address2": "",
    "regionKana": "フクシマケン",
    "localityKana": "イワセグンカガミイシマチ",
    "address1Kana": "カバノサワマチ",
    "address2Kana": ""
  },
  {
    "postalCode": "9690401",
    "regionId": 7,
    "region": "福島県",
    "locality": "岩瀬郡鏡石町",
    "address1": "川崎町",
    "address2": "",
    "regionKana": "フクシマケン",
    "localityKana": "イワセグンカガミイシマチ",
    "address1Kana": "カワサキマチ",
    "address2Kana": ""
  },
  {
    "postalCode": "9690401",
    "regionId": 7,
    "region": "福島県",
    "locality": "岩瀬郡鏡石町",
    "address1": "五斗蒔町",
    "address2": "",
    "regionKana": "フクシマケン",
    "localityKana": "イワセグンカガミイシマチ",
    "address1Kana": "ゴトマキマチ",
    "address2Kana": ""
  },
  {
    "postalCode": "9690401",
    "regionId": 7,
    "region": "福島県",
    "locality": "岩瀬郡鏡石町",
    "address1": "境",
    "address2": "",
    "regionKana": "フクシマケン",
    "localityKana": "イワセグンカガミイシマチ",
    "address1Kana": "サカイ",
    "address2Kana": ""
  },
  {
    "postalCode": "9690401",
    "regionId": 7,
    "region": "福島県",
    "locality": "岩瀬郡鏡石町",
    "address1": "桜町",
    "address2": "",
    "regionKana": "フクシマケン",
    "localityKana": "イワセグンカガミイシマチ",
    "address1Kana": "サクラマチ",
    "address2Kana": ""
  },
  {
    "postalCode": "9690401",
    "regionId": 7,
    "region": "福島県",
    "locality": "岩瀬郡鏡石町",
    "address1": "高久田",
    "address2": "",
    "regionKana": "フクシマケン",
    "localityKana": "イワセグンカガミイシマチ",
    "address1Kana": "タカクダ",
    "address2Kana": ""
  },
  {
    "postalCode": "9690401",
    "regionId": 7,
    "region": "福島県",
    "locality": "岩瀬郡鏡石町",
    "address1": "豊田",
    "address2": "",
    "regionKana": "フクシマケン",
    "localityKana": "イワセグンカガミイシマチ",
    "address1Kana": "トヨダ",
    "address2Kana": ""
  },
  {
    "postalCode": "9690401",
    "regionId": 7,
    "region": "福島県",
    "locality": "岩瀬郡鏡石町",
    "address1": "仁井田",
    "address2": "",
    "regionKana": "フクシマケン",
    "localityKana": "イワセグンカガミイシマチ",
    "address1Kana": "ニイダ",
    "address2Kana": ""
  },
  {
    "postalCode": "9690401",
    "regionId": 7,
    "region": "福島県",
    "locality": "岩瀬郡鏡石町",
    "address1": "東鹿島",
    "address2": "",
    "regionKana": "フクシマケン",
    "localityKana": "イワセグンカガミイシマチ",
    "address1Kana": "ヒガシカシマ",
    "address2Kana": ""
  },
  {
    "postalCode": "9690401",
    "regionId": 7,
    "region": "福島県",
    "locality": "岩瀬郡鏡石町",
    "address1": "深内町",
    "address2": "",
    "regionKana": "フクシマケン",
    "localityKana": "イワセグンカガミイシマチ",
    "address1Kana": "フコウチマチ",
    "address2Kana": ""
  },
  {
    "postalCode": "9690401",
    "regionId": 7,
    "region": "福島県",
    "locality": "岩瀬郡鏡石町",
    "address1": "不時沼",
    "address2": "",
    "regionKana": "フクシマケン",
    "localityKana": "イワセグンカガミイシマチ",
    "address1Kana": "フジヌマ",
    "address2Kana": ""
  },
  {
    "postalCode": "9690401",
    "regionId": 7,
    "region": "福島県",
    "locality": "岩瀬郡鏡石町",
    "address1": "前山",
    "address2": "",
    "regionKana": "フクシマケン",
    "localityKana": "イワセグンカガミイシマチ",
    "address1Kana": "マエヤマ",
    "address2Kana": ""
  },
  {
    "postalCode": "9690401",
    "regionId": 7,
    "region": "福島県",
    "locality": "岩瀬郡鏡石町",
    "address1": "南高久田",
    "address2": "",
    "regionKana": "フクシマケン",
    "localityKana": "イワセグンカガミイシマチ",
    "address1Kana": "ミナミタカクダ",
    "address2Kana": ""
  },
  {
    "postalCode": "9690401",
    "regionId": 7,
    "region": "福島県",
    "locality": "岩瀬郡鏡石町",
    "address1": "本町",
    "address2": "",
    "regionKana": "フクシマケン",
    "localityKana": "イワセグンカガミイシマチ",
    "address1Kana": "モトマチ",
    "address2Kana": ""
  }
]