[
  {
    "postalCode": "9690404",
    "regionId": 7,
    "region": "福島県",
    "locality": "岩瀬郡鏡石町",
    "address1": "旭町",
    "address2": "",
    "regionKana": "フクシマケン",
    "localityKana": "イワセグンカガミイシマチ",
    "address1Kana": "アサヒマチ",
    "address2Kana": ""
  },
  {
    "postalCode": "9690404",
    "regionId": 7,
    "region": "福島県",
    "locality": "岩瀬郡鏡石町",
    "address1": "大山",
    "address2": "",
    "regionKana": "フクシマケン",
    "localityKana": "イワセグンカガミイシマチ",
    "address1Kana": "オオヤマ",
    "address2Kana": ""
  },
  {
    "postalCode": "9690404",
    "regionId": 7,
    "region": "福島県",
    "locality": "岩瀬郡鏡石町",
    "address1": "岡の台",
    "address2": "",
    "regionKana": "フクシマケン",
    "localityKana": "イワセグンカガミイシマチ",
    "address1Kana": "オカノダイ",
    "address2Kana": ""
  },
  {
    "postalCode": "9690404",
    "regionId": 7,
    "region": "福島県",
    "locality": "岩瀬郡鏡石町",
    "address1": "笠石",
    "address2": "",
    "regionKana": "フクシマケン",
    "localityKana": "イワセグンカガミイシマチ",
    "address1Kana": "カサイシ",
    "address2Kana": ""
  },
  {
    "postalCode": "9690404",
    "regionId": 7,
    "region": "福島県",
    "locality": "岩瀬郡鏡石町",
    "address1": "笠石原町",
    "address2": "",
    "regionKana": "フクシマケン",
    "localityKana": "イワセグンカガミイシマチ",
    "address1Kana": "カサイシハラマチ",
    "address2Kana": ""
  },
  {
    "postalCode": "9690404",
    "regionId": 7,
    "region": "福島県",
    "locality": "岩瀬郡鏡石町",
    "address1": "中央",
    "address2": "",
    "regionKana": "フクシマケン",
    "localityKana": "イワセグンカガミイシマチ",
    "address1Kana": "チュウオウ",
    "address2Kana": ""
  },
  {
    "postalCode": "9690404",
    "regionId": 7,
    "region": "福島県",
    "locality": "岩瀬郡鏡石町",
    "address1": "豊郷",
    "address2": "",
    "regionKana": "フクシマケン",
    "localityKana": "イワセグンカガミイシマチ",
    "address1Kana": "トヨサト",
    "address2Kana": ""
  },
  {
    "postalCode": "9690404",
    "regionId": 7,
    "region": "福島県",
    "locality": "岩瀬郡鏡石町",
    "address1": "豊郷中",
    "address2": "",
    "regionKana": "フクシマケン",
    "localityKana": "イワセグンカガミイシマチ",
    "address1Kana": "トヨサトナカ",
    "address2Kana": ""
  },
  {
    "postalCode": "9690404",
    "regionId": 7,
    "region": "福島県",
    "locality": "岩瀬郡鏡石町",
    "address1": "中町",
    "address2": "",
    "regionKana": "フクシマケン",
    "localityKana": "イワセグンカガミイシマチ",
    "address1Kana": "ナカマチ",
    "address2Kana": ""
  },
  {
    "postalCode": "9690404",
    "regionId": 7,
    "region": "福島県",
    "locality": "岩瀬郡鏡石町",
    "address1": "羽鳥",
    "address2": "",
    "regionKana": "フクシマケン",
    "localityKana": "イワセグンカガミイシマチ",
    "address1Kana": "ハトリ",
    "address2Kana": ""
  },
  {
    "postalCode": "9690404",
    "regionId": 7,
    "region": "福島県",
    "locality": "岩瀬郡鏡石町",
    "address1": "東町",
    "address2": "",
    "regionKana": "フクシマケン",
    "localityKana": "イワセグンカガミイシマチ",
    "address1Kana": "ヒガシマチ",
    "address2Kana": ""
  },
  {
    "postalCode": "9690404",
    "regionId": 7,
    "region": "福島県",
    "locality": "岩瀬郡鏡石町",
    "address1": "堀米",
    "address2": "",
    "regionKana": "フクシマケン",
    "localityKana": "イワセグンカガミイシマチ",
    "address1Kana": "ホリゴメ",
    "address2Kana": ""
  },
  {
    "postalCode": "9690404",
    "regionId": 7,
    "region": "福島県",
    "locality": "岩瀬郡鏡石町",
    "address1": "緑町",
    "address2": "",
    "regionKana": "フクシマケン",
    "localityKana": "イワセグンカガミイシマチ",
    "address1Kana": "ミドリマチ",
    "address2Kana": ""
  },
  {
    "postalCode": "9690404",
    "regionId": 7,
    "region": "福島県",
    "locality": "岩瀬郡鏡石町",
    "address1": "南町",
    "address2": "",
    "regionKana": "フクシマケン",
    "localityKana": "イワセグンカガミイシマチ",
    "address1Kana": "ミナミマチ",
    "address2Kana": ""
  }
]