[
  {
    "postalCode": "9693101",
    "regionId": 7,
    "region": "福島県",
    "locality": "耶麻郡猪苗代町",
    "address1": "家ノ前",
    "address2": "",
    "regionKana": "フクシマケン",
    "localityKana": "ヤマグンイナワシロマチ",
    "address1Kana": "イエノマエ",
    "address2Kana": ""
  },
  {
    "postalCode": "9693101",
    "regionId": 7,
    "region": "福島県",
    "locality": "耶麻郡猪苗代町",
    "address1": "上ノ山",
    "address2": "",
    "regionKana": "フクシマケン",
    "localityKana": "ヤマグンイナワシロマチ",
    "address1Kana": "ウエノヤマ",
    "address2Kana": ""
  },
  {
    "postalCode": "9693101",
    "regionId": 7,
    "region": "福島県",
    "locality": "耶麻郡猪苗代町",
    "address1": "大谷地",
    "address2": "",
    "regionKana": "フクシマケン",
    "localityKana": "ヤマグンイナワシロマチ",
    "address1Kana": "オオヤチ",
    "address2Kana": ""
  },
  {
    "postalCode": "9693101",
    "regionId": 7,
    "region": "福島県",
    "locality": "耶麻郡猪苗代町",
    "address1": "欠上り",
    "address2": "",
    "regionKana": "フクシマケン",
    "localityKana": "ヤマグンイナワシロマチ",
    "address1Kana": "カケアガリ",
    "address2Kana": ""
  },
  {
    "postalCode": "9693101",
    "regionId": 7,
    "region": "福島県",
    "locality": "耶麻郡猪苗代町",
    "address1": "北ノ林",
    "address2": "",
    "regionKana": "フクシマケン",
    "localityKana": "ヤマグンイナワシロマチ",
    "address1Kana": "キタノハヤシ",
    "address2Kana": ""
  },
  {
    "postalCode": "9693101",
    "regionId": 7,
    "region": "福島県",
    "locality": "耶麻郡猪苗代町",
    "address1": "行人壇",
    "address2": "",
    "regionKana": "フクシマケン",
    "localityKana": "ヤマグンイナワシロマチ",
    "address1Kana": "ギョウニンダン",
    "address2Kana": ""
  },
  {
    "postalCode": "9693101",
    "regionId": 7,
    "region": "福島県",
    "locality": "耶麻郡猪苗代町",
    "address1": "グミ沢原",
    "address2": "",
    "regionKana": "フクシマケン",
    "localityKana": "ヤマグンイナワシロマチ",
    "address1Kana": "グミザワハラ",
    "address2Kana": ""
  },
  {
    "postalCode": "9693101",
    "regionId": 7,
    "region": "福島県",
    "locality": "耶麻郡猪苗代町",
    "address1": "渋谷",
    "address2": "",
    "regionKana": "フクシマケン",
    "localityKana": "ヤマグンイナワシロマチ",
    "address1Kana": "シブタニ",
    "address2Kana": ""
  },
  {
    "postalCode": "9693101",
    "regionId": 7,
    "region": "福島県",
    "locality": "耶麻郡猪苗代町",
    "address1": "清水",
    "address2": "",
    "regionKana": "フクシマケン",
    "localityKana": "ヤマグンイナワシロマチ",
    "address1Kana": "シミズ",
    "address2Kana": ""
  },
  {
    "postalCode": "9693101",
    "regionId": 7,
    "region": "福島県",
    "locality": "耶麻郡猪苗代町",
    "address1": "清水端",
    "address2": "",
    "regionKana": "フクシマケン",
    "localityKana": "ヤマグンイナワシロマチ",
    "address1Kana": "シミズバタ",
    "address2Kana": ""
  },
  {
    "postalCode": "9693101",
    "regionId": 7,
    "region": "福島県",
    "locality": "耶麻郡猪苗代町",
    "address1": "下辺沢",
    "address2": "",
    "regionKana": "フクシマケン",
    "localityKana": "ヤマグンイナワシロマチ",
    "address1Kana": "シモヘンザワ",
    "address2Kana": ""
  },
  {
    "postalCode": "9693101",
    "regionId": 7,
    "region": "福島県",
    "locality": "耶麻郡猪苗代町",
    "address1": "菖蒲田",
    "address2": "",
    "regionKana": "フクシマケン",
    "localityKana": "ヤマグンイナワシロマチ",
    "address1Kana": "ショウブダ",
    "address2Kana": ""
  },
  {
    "postalCode": "9693101",
    "regionId": 7,
    "region": "福島県",
    "locality": "耶麻郡猪苗代町",
    "address1": "新堀田東",
    "address2": "",
    "regionKana": "フクシマケン",
    "localityKana": "ヤマグンイナワシロマチ",
    "address1Kana": "シンボリタヒガシ",
    "address2Kana": ""
  },
  {
    "postalCode": "9693101",
    "regionId": 7,
    "region": "福島県",
    "locality": "耶麻郡猪苗代町",
    "address1": "新堀西",
    "address2": "",
    "regionKana": "フクシマケン",
    "localityKana": "ヤマグンイナワシロマチ",
    "address1Kana": "シンボリニシ",
    "address2Kana": ""
  },
  {
    "postalCode": "9693101",
    "regionId": 7,
    "region": "福島県",
    "locality": "耶麻郡猪苗代町",
    "address1": "堰間上",
    "address2": "",
    "regionKana": "フクシマケン",
    "localityKana": "ヤマグンイナワシロマチ",
    "address1Kana": "セキマウエ",
    "address2Kana": ""
  },
  {
    "postalCode": "9693101",
    "regionId": 7,
    "region": "福島県",
    "locality": "耶麻郡猪苗代町",
    "address1": "芹沢",
    "address2": "",
    "regionKana": "フクシマケン",
    "localityKana": "ヤマグンイナワシロマチ",
    "address1Kana": "セリサワ",
    "address2Kana": ""
  },
  {
    "postalCode": "9693101",
    "regionId": 7,
    "region": "福島県",
    "locality": "耶麻郡猪苗代町",
    "address1": "土湯沢山",
    "address2": "",
    "regionKana": "フクシマケン",
    "localityKana": "ヤマグンイナワシロマチ",
    "address1Kana": "ツチユサワヤマ",
    "address2Kana": ""
  },
  {
    "postalCode": "9693101",
    "regionId": 7,
    "region": "福島県",
    "locality": "耶麻郡猪苗代町",
    "address1": "土手間",
    "address2": "",
    "regionKana": "フクシマケン",
    "localityKana": "ヤマグンイナワシロマチ",
    "address1Kana": "ドテマ",
    "address2Kana": ""
  },
  {
    "postalCode": "9693101",
    "regionId": 7,
    "region": "福島県",
    "locality": "耶麻郡猪苗代町",
    "address1": "中道西",
    "address2": "",
    "regionKana": "フクシマケン",
    "localityKana": "ヤマグンイナワシロマチ",
    "address1Kana": "ナカミチニシ",
    "address2Kana": ""
  },
  {
    "postalCode": "9693101",
    "regionId": 7,
    "region": "福島県",
    "locality": "耶麻郡猪苗代町",
    "address1": "長坂",
    "address2": "",
    "regionKana": "フクシマケン",
    "localityKana": "ヤマグンイナワシロマチ",
    "address1Kana": "ナガサカ",
    "address2Kana": ""
  },
  {
    "postalCode": "9693101",
    "regionId": 7,
    "region": "福島県",
    "locality": "耶麻郡猪苗代町",
    "address1": "沼ノ倉",
    "address2": "",
    "regionKana": "フクシマケン",
    "localityKana": "ヤマグンイナワシロマチ",
    "address1Kana": "ヌマノクラ",
    "address2Kana": ""
  },
  {
    "postalCode": "9693101",
    "regionId": 7,
    "region": "福島県",
    "locality": "耶麻郡猪苗代町",
    "address1": "琵琶沢原",
    "address2": "",
    "regionKana": "フクシマケン",
    "localityKana": "ヤマグンイナワシロマチ",
    "address1Kana": "ビワサワハラ",
    "address2Kana": ""
  },
  {
    "postalCode": "9693101",
    "regionId": 7,
    "region": "福島県",
    "locality": "耶麻郡猪苗代町",
    "address1": "辺沢",
    "address2": "",
    "regionKana": "フクシマケン",
    "localityKana": "ヤマグンイナワシロマチ",
    "address1Kana": "ヘンザワ",
    "address2Kana": ""
  },
  {
    "postalCode": "9693101",
    "regionId": 7,
    "region": "福島県",
    "locality": "耶麻郡猪苗代町",
    "address1": "程塚",
    "address2": "",
    "regionKana": "フクシマケン",
    "localityKana": "ヤマグンイナワシロマチ",
    "address1Kana": "ホドヅカ",
    "address2Kana": ""
  },
  {
    "postalCode": "9693101",
    "regionId": 7,
    "region": "福島県",
    "locality": "耶麻郡猪苗代町",
    "address1": "三ツ屋",
    "address2": "",
    "regionKana": "フクシマケン",
    "localityKana": "ヤマグンイナワシロマチ",
    "address1Kana": "ミツヤ",
    "address2Kana": ""
  },
  {
    "postalCode": "9693101",
    "regionId": 7,
    "region": "福島県",
    "locality": "耶麻郡猪苗代町",
    "address1": "村中",
    "address2": "",
    "regionKana": "フクシマケン",
    "localityKana": "ヤマグンイナワシロマチ",
    "address1Kana": "ムラナカ",
    "address2Kana": ""
  },
  {
    "postalCode": "9693101",
    "regionId": 7,
    "region": "福島県",
    "locality": "耶麻郡猪苗代町",
    "address1": "村北",
    "address2": "",
    "regionKana": "フクシマケン",
    "localityKana": "ヤマグンイナワシロマチ",
    "address1Kana": "ムラキタ",
    "address2Kana": ""
  },
  {
    "postalCode": "9693101",
    "regionId": 7,
    "region": "福島県",
    "locality": "耶麻郡猪苗代町",
    "address1": "山神原",
    "address2": "",
    "regionKana": "フクシマケン",
    "localityKana": "ヤマグンイナワシロマチ",
    "address1Kana": "ヤマカミハラ",
    "address2Kana": ""
  }
]