[
  {
    "postalCode": "9693103",
    "regionId": 7,
    "region": "福島県",
    "locality": "耶麻郡猪苗代町",
    "address1": "鹿野境",
    "address2": "",
    "regionKana": "フクシマケン",
    "localityKana": "ヤマグンイナワシロマチ",
    "address1Kana": "カノザカイ",
    "address2Kana": ""
  },
  {
    "postalCode": "9693103",
    "regionId": 7,
    "region": "福島県",
    "locality": "耶麻郡猪苗代町",
    "address1": "上村前",
    "address2": "",
    "regionKana": "フクシマケン",
    "localityKana": "ヤマグンイナワシロマチ",
    "address1Kana": "カミムラマエ",
    "address2Kana": ""
  },
  {
    "postalCode": "9693103",
    "regionId": 7,
    "region": "福島県",
    "locality": "耶麻郡猪苗代町",
    "address1": "上村東",
    "address2": "",
    "regionKana": "フクシマケン",
    "localityKana": "ヤマグンイナワシロマチ",
    "address1Kana": "カミムラヒガシ",
    "address2Kana": ""
  },
  {
    "postalCode": "9693103",
    "regionId": 7,
    "region": "福島県",
    "locality": "耶麻郡猪苗代町",
    "address1": "桐木沢",
    "address2": "",
    "regionKana": "フクシマケン",
    "localityKana": "ヤマグンイナワシロマチ",
    "address1Kana": "キリノキザワ",
    "address2Kana": ""
  },
  {
    "postalCode": "9693103",
    "regionId": 7,
    "region": "福島県",
    "locality": "耶麻郡猪苗代町",
    "address1": "五輪原",
    "address2": "",
    "regionKana": "フクシマケン",
    "localityKana": "ヤマグンイナワシロマチ",
    "address1Kana": "ゴリンパラ",
    "address2Kana": ""
  },
  {
    "postalCode": "9693103",
    "regionId": 7,
    "region": "福島県",
    "locality": "耶麻郡猪苗代町",
    "address1": "諏訪前",
    "address2": "",
    "regionKana": "フクシマケン",
    "localityKana": "ヤマグンイナワシロマチ",
    "address1Kana": "スワマエ",
    "address2Kana": ""
  },
  {
    "postalCode": "9693103",
    "regionId": 7,
    "region": "福島県",
    "locality": "耶麻郡猪苗代町",
    "address1": "諏訪東",
    "address2": "",
    "regionKana": "フクシマケン",
    "localityKana": "ヤマグンイナワシロマチ",
    "address1Kana": "スワヒガシ",
    "address2Kana": ""
  },
  {
    "postalCode": "9693103",
    "regionId": 7,
    "region": "福島県",
    "locality": "耶麻郡猪苗代町",
    "address1": "諏訪西",
    "address2": "",
    "regionKana": "フクシマケン",
    "localityKana": "ヤマグンイナワシロマチ",
    "address1Kana": "スワニシ",
    "address2Kana": ""
  },
  {
    "postalCode": "9693103",
    "regionId": 7,
    "region": "福島県",
    "locality": "耶麻郡猪苗代町",
    "address1": "禰次",
    "address2": "",
    "regionKana": "フクシマケン",
    "localityKana": "ヤマグンイナワシロマチ",
    "address1Kana": "ネツギ",
    "address2Kana": ""
  },
  {
    "postalCode": "9693103",
    "regionId": 7,
    "region": "福島県",
    "locality": "耶麻郡猪苗代町",
    "address1": "ハノ木沢",
    "address2": "",
    "regionKana": "フクシマケン",
    "localityKana": "ヤマグンイナワシロマチ",
    "address1Kana": "ハノキザワ",
    "address2Kana": ""
  },
  {
    "postalCode": "9693103",
    "regionId": 7,
    "region": "福島県",
    "locality": "耶麻郡猪苗代町",
    "address1": "林崎",
    "address2": "",
    "regionKana": "フクシマケン",
    "localityKana": "ヤマグンイナワシロマチ",
    "address1Kana": "ハヤシザキ",
    "address2Kana": ""
  },
  {
    "postalCode": "9693103",
    "regionId": 7,
    "region": "福島県",
    "locality": "耶麻郡猪苗代町",
    "address1": "町島田",
    "address2": "",
    "regionKana": "フクシマケン",
    "localityKana": "ヤマグンイナワシロマチ",
    "address1Kana": "マチシマダ",
    "address2Kana": ""
  }
]