[
  {
    "postalCode": "9693111",
    "regionId": 7,
    "region": "福島県",
    "locality": "耶麻郡猪苗代町",
    "address1": "雷",
    "address2": "",
    "regionKana": "フクシマケン",
    "localityKana": "ヤマグンイナワシロマチ",
    "address1Kana": "イカズチ",
    "address2Kana": ""
  },
  {
    "postalCode": "9693111",
    "regionId": 7,
    "region": "福島県",
    "locality": "耶麻郡猪苗代町",
    "address1": "出雲壇",
    "address2": "",
    "regionKana": "フクシマケン",
    "localityKana": "ヤマグンイナワシロマチ",
    "address1Kana": "イズモダン",
    "address2Kana": ""
  },
  {
    "postalCode": "9693111",
    "regionId": 7,
    "region": "福島県",
    "locality": "耶麻郡猪苗代町",
    "address1": "板橋北",
    "address2": "",
    "regionKana": "フクシマケン",
    "localityKana": "ヤマグンイナワシロマチ",
    "address1Kana": "イタバシキタ",
    "address2Kana": ""
  },
  {
    "postalCode": "9693111",
    "regionId": 7,
    "region": "福島県",
    "locality": "耶麻郡猪苗代町",
    "address1": "太田",
    "address2": "",
    "regionKana": "フクシマケン",
    "localityKana": "ヤマグンイナワシロマチ",
    "address1Kana": "オオタ",
    "address2Kana": ""
  },
  {
    "postalCode": "9693111",
    "regionId": 7,
    "region": "福島県",
    "locality": "耶麻郡猪苗代町",
    "address1": "太田西",
    "address2": "",
    "regionKana": "フクシマケン",
    "localityKana": "ヤマグンイナワシロマチ",
    "address1Kana": "オオタニシ",
    "address2Kana": ""
  },
  {
    "postalCode": "9693111",
    "regionId": 7,
    "region": "福島県",
    "locality": "耶麻郡猪苗代町",
    "address1": "小黒川",
    "address2": "",
    "regionKana": "フクシマケン",
    "localityKana": "ヤマグンイナワシロマチ",
    "address1Kana": "オグロガワ",
    "address2Kana": ""
  },
  {
    "postalCode": "9693111",
    "regionId": 7,
    "region": "福島県",
    "locality": "耶麻郡猪苗代町",
    "address1": "窪田",
    "address2": "",
    "regionKana": "フクシマケン",
    "localityKana": "ヤマグンイナワシロマチ",
    "address1Kana": "クボタ",
    "address2Kana": ""
  },
  {
    "postalCode": "9693111",
    "regionId": 7,
    "region": "福島県",
    "locality": "耶麻郡猪苗代町",
    "address1": "窪ノ内",
    "address2": "",
    "regionKana": "フクシマケン",
    "localityKana": "ヤマグンイナワシロマチ",
    "address1Kana": "クボノウチ",
    "address2Kana": ""
  },
  {
    "postalCode": "9693111",
    "regionId": 7,
    "region": "福島県",
    "locality": "耶麻郡猪苗代町",
    "address1": "窪南",
    "address2": "",
    "regionKana": "フクシマケン",
    "localityKana": "ヤマグンイナワシロマチ",
    "address1Kana": "クボミナミ",
    "address2Kana": ""
  },
  {
    "postalCode": "9693111",
    "regionId": 7,
    "region": "福島県",
    "locality": "耶麻郡猪苗代町",
    "address1": "御三壇",
    "address2": "",
    "regionKana": "フクシマケン",
    "localityKana": "ヤマグンイナワシロマチ",
    "address1Kana": "ゴサンダン",
    "address2Kana": ""
  },
  {
    "postalCode": "9693111",
    "regionId": 7,
    "region": "福島県",
    "locality": "耶麻郡猪苗代町",
    "address1": "五百苅",
    "address2": "",
    "regionKana": "フクシマケン",
    "localityKana": "ヤマグンイナワシロマチ",
    "address1Kana": "ゴヒャクガリ",
    "address2Kana": ""
  },
  {
    "postalCode": "9693111",
    "regionId": 7,
    "region": "福島県",
    "locality": "耶麻郡猪苗代町",
    "address1": "猿壇",
    "address2": "",
    "regionKana": "フクシマケン",
    "localityKana": "ヤマグンイナワシロマチ",
    "address1Kana": "サルダン",
    "address2Kana": ""
  },
  {
    "postalCode": "9693111",
    "regionId": 7,
    "region": "福島県",
    "locality": "耶麻郡猪苗代町",
    "address1": "二丁田",
    "address2": "",
    "regionKana": "フクシマケン",
    "localityKana": "ヤマグンイナワシロマチ",
    "address1Kana": "ニチョウダ",
    "address2Kana": ""
  },
  {
    "postalCode": "9693111",
    "regionId": 7,
    "region": "福島県",
    "locality": "耶麻郡猪苗代町",
    "address1": "沼田",
    "address2": "",
    "regionKana": "フクシマケン",
    "localityKana": "ヤマグンイナワシロマチ",
    "address1Kana": "ヌマタ",
    "address2Kana": ""
  },
  {
    "postalCode": "9693111",
    "regionId": 7,
    "region": "福島県",
    "locality": "耶麻郡猪苗代町",
    "address1": "東町裏",
    "address2": "",
    "regionKana": "フクシマケン",
    "localityKana": "ヤマグンイナワシロマチ",
    "address1Kana": "ヒガシマチウラ",
    "address2Kana": ""
  },
  {
    "postalCode": "9693111",
    "regionId": 7,
    "region": "福島県",
    "locality": "耶麻郡猪苗代町",
    "address1": "明円",
    "address2": "",
    "regionKana": "フクシマケン",
    "localityKana": "ヤマグンイナワシロマチ",
    "address1Kana": "ミョウエン",
    "address2Kana": ""
  },
  {
    "postalCode": "9693111",
    "regionId": 7,
    "region": "福島県",
    "locality": "耶麻郡猪苗代町",
    "address1": "村東下",
    "address2": "",
    "regionKana": "フクシマケン",
    "localityKana": "ヤマグンイナワシロマチ",
    "address1Kana": "ムラヒガシシタ",
    "address2Kana": ""
  },
  {
    "postalCode": "9693111",
    "regionId": 7,
    "region": "福島県",
    "locality": "耶麻郡猪苗代町",
    "address1": "村東",
    "address2": "",
    "regionKana": "フクシマケン",
    "localityKana": "ヤマグンイナワシロマチ",
    "address1Kana": "ムラヒガシ",
    "address2Kana": ""
  }
]