[
  {
    "postalCode": "9693113",
    "regionId": 7,
    "region": "福島県",
    "locality": "耶麻郡猪苗代町",
    "address1": "大道西",
    "address2": "",
    "regionKana": "フクシマケン",
    "localityKana": "ヤマグンイナワシロマチ",
    "address1Kana": "オオミチニシ",
    "address2Kana": ""
  },
  {
    "postalCode": "9693113",
    "regionId": 7,
    "region": "福島県",
    "locality": "耶麻郡猪苗代町",
    "address1": "北半坂",
    "address2": "",
    "regionKana": "フクシマケン",
    "localityKana": "ヤマグンイナワシロマチ",
    "address1Kana": "キタハンザカ",
    "address2Kana": ""
  },
  {
    "postalCode": "9693113",
    "regionId": 7,
    "region": "福島県",
    "locality": "耶麻郡猪苗代町",
    "address1": "新地",
    "address2": "",
    "regionKana": "フクシマケン",
    "localityKana": "ヤマグンイナワシロマチ",
    "address1Kana": "シンチ",
    "address2Kana": ""
  },
  {
    "postalCode": "9693113",
    "regionId": 7,
    "region": "福島県",
    "locality": "耶麻郡猪苗代町",
    "address1": "茶園",
    "address2": "",
    "regionKana": "フクシマケン",
    "localityKana": "ヤマグンイナワシロマチ",
    "address1Kana": "チャエン",
    "address2Kana": ""
  },
  {
    "postalCode": "9693113",
    "regionId": 7,
    "region": "福島県",
    "locality": "耶麻郡猪苗代町",
    "address1": "堤下",
    "address2": "",
    "regionKana": "フクシマケン",
    "localityKana": "ヤマグンイナワシロマチ",
    "address1Kana": "ツツミシタ",
    "address2Kana": ""
  },
  {
    "postalCode": "9693113",
    "regionId": 7,
    "region": "福島県",
    "locality": "耶麻郡猪苗代町",
    "address1": "堤北",
    "address2": "",
    "regionKana": "フクシマケン",
    "localityKana": "ヤマグンイナワシロマチ",
    "address1Kana": "ツツミキタ",
    "address2Kana": ""
  },
  {
    "postalCode": "9693113",
    "regionId": 7,
    "region": "福島県",
    "locality": "耶麻郡猪苗代町",
    "address1": "鶴峰西",
    "address2": "",
    "regionKana": "フクシマケン",
    "localityKana": "ヤマグンイナワシロマチ",
    "address1Kana": "ツルミネニシ",
    "address2Kana": ""
  },
  {
    "postalCode": "9693113",
    "regionId": 7,
    "region": "福島県",
    "locality": "耶麻郡猪苗代町",
    "address1": "樋場",
    "address2": "",
    "regionKana": "フクシマケン",
    "localityKana": "ヤマグンイナワシロマチ",
    "address1Kana": "トイバ",
    "address2Kana": ""
  },
  {
    "postalCode": "9693113",
    "regionId": 7,
    "region": "福島県",
    "locality": "耶麻郡猪苗代町",
    "address1": "樋場道下",
    "address2": "",
    "regionKana": "フクシマケン",
    "localityKana": "ヤマグンイナワシロマチ",
    "address1Kana": "トイバミチシタ",
    "address2Kana": ""
  },
  {
    "postalCode": "9693113",
    "regionId": 7,
    "region": "福島県",
    "locality": "耶麻郡猪苗代町",
    "address1": "並杉西",
    "address2": "",
    "regionKana": "フクシマケン",
    "localityKana": "ヤマグンイナワシロマチ",
    "address1Kana": "ナミスギニシ",
    "address2Kana": ""
  },
  {
    "postalCode": "9693113",
    "regionId": 7,
    "region": "福島県",
    "locality": "耶麻郡猪苗代町",
    "address1": "土町",
    "address2": "",
    "regionKana": "フクシマケン",
    "localityKana": "ヤマグンイナワシロマチ",
    "address1Kana": "ハニマチ",
    "address2Kana": ""
  },
  {
    "postalCode": "9693113",
    "regionId": 7,
    "region": "福島県",
    "locality": "耶麻郡猪苗代町",
    "address1": "土町西裡",
    "address2": "",
    "regionKana": "フクシマケン",
    "localityKana": "ヤマグンイナワシロマチ",
    "address1Kana": "ハニマチニシウラ",
    "address2Kana": ""
  },
  {
    "postalCode": "9693113",
    "regionId": 7,
    "region": "福島県",
    "locality": "耶麻郡猪苗代町",
    "address1": "土町南",
    "address2": "",
    "regionKana": "フクシマケン",
    "localityKana": "ヤマグンイナワシロマチ",
    "address1Kana": "ハニマチミナミ",
    "address2Kana": ""
  },
  {
    "postalCode": "9693113",
    "regionId": 7,
    "region": "福島県",
    "locality": "耶麻郡猪苗代町",
    "address1": "半坂",
    "address2": "",
    "regionKana": "フクシマケン",
    "localityKana": "ヤマグンイナワシロマチ",
    "address1Kana": "ハンザカ",
    "address2Kana": ""
  },
  {
    "postalCode": "9693113",
    "regionId": 7,
    "region": "福島県",
    "locality": "耶麻郡猪苗代町",
    "address1": "町西",
    "address2": "",
    "regionKana": "フクシマケン",
    "localityKana": "ヤマグンイナワシロマチ",
    "address1Kana": "マチニシ",
    "address2Kana": ""
  },
  {
    "postalCode": "9693113",
    "regionId": 7,
    "region": "福島県",
    "locality": "耶麻郡猪苗代町",
    "address1": "南半坂",
    "address2": "",
    "regionKana": "フクシマケン",
    "localityKana": "ヤマグンイナワシロマチ",
    "address1Kana": "ミナミハンザカ",
    "address2Kana": ""
  }
]