[
  {
    "postalCode": "9693121",
    "regionId": 7,
    "region": "福島県",
    "locality": "耶麻郡猪苗代町",
    "address1": "芦原",
    "address2": "",
    "regionKana": "フクシマケン",
    "localityKana": "ヤマグンイナワシロマチ",
    "address1Kana": "アシハラ",
    "address2Kana": ""
  },
  {
    "postalCode": "9693121",
    "regionId": 7,
    "region": "福島県",
    "locality": "耶麻郡猪苗代町",
    "address1": "裏町",
    "address2": "",
    "regionKana": "フクシマケン",
    "localityKana": "ヤマグンイナワシロマチ",
    "address1Kana": "ウラマチ",
    "address2Kana": ""
  },
  {
    "postalCode": "9693121",
    "regionId": 7,
    "region": "福島県",
    "locality": "耶麻郡猪苗代町",
    "address1": "オヒテ川",
    "address2": "",
    "regionKana": "フクシマケン",
    "localityKana": "ヤマグンイナワシロマチ",
    "address1Kana": "オヒテカワ",
    "address2Kana": ""
  },
  {
    "postalCode": "9693121",
    "regionId": 7,
    "region": "福島県",
    "locality": "耶麻郡猪苗代町",
    "address1": "上ザル田",
    "address2": "",
    "regionKana": "フクシマケン",
    "localityKana": "ヤマグンイナワシロマチ",
    "address1Kana": "カミザルタ",
    "address2Kana": ""
  },
  {
    "postalCode": "9693121",
    "regionId": 7,
    "region": "福島県",
    "locality": "耶麻郡猪苗代町",
    "address1": "津金沢",
    "address2": "",
    "regionKana": "フクシマケン",
    "localityKana": "ヤマグンイナワシロマチ",
    "address1Kana": "ツガネサワ",
    "address2Kana": ""
  },
  {
    "postalCode": "9693121",
    "regionId": 7,
    "region": "福島県",
    "locality": "耶麻郡猪苗代町",
    "address1": "寺東",
    "address2": "",
    "regionKana": "フクシマケン",
    "localityKana": "ヤマグンイナワシロマチ",
    "address1Kana": "テラヒガシ",
    "address2Kana": ""
  },
  {
    "postalCode": "9693121",
    "regionId": 7,
    "region": "福島県",
    "locality": "耶麻郡猪苗代町",
    "address1": "梨木西",
    "address2": "",
    "regionKana": "フクシマケン",
    "localityKana": "ヤマグンイナワシロマチ",
    "address1Kana": "ナシノキニシ",
    "address2Kana": ""
  },
  {
    "postalCode": "9693121",
    "regionId": 7,
    "region": "福島県",
    "locality": "耶麻郡猪苗代町",
    "address1": "町東",
    "address2": "",
    "regionKana": "フクシマケン",
    "localityKana": "ヤマグンイナワシロマチ",
    "address1Kana": "マチヒガシ",
    "address2Kana": ""
  },
  {
    "postalCode": "9693121",
    "regionId": 7,
    "region": "福島県",
    "locality": "耶麻郡猪苗代町",
    "address1": "横まくり",
    "address2": "",
    "regionKana": "フクシマケン",
    "localityKana": "ヤマグンイナワシロマチ",
    "address1Kana": "ヨコマクリ",
    "address2Kana": ""
  },
  {
    "postalCode": "9693121",
    "regionId": 7,
    "region": "福島県",
    "locality": "耶麻郡猪苗代町",
    "address1": "横マクリ",
    "address2": "",
    "regionKana": "フクシマケン",
    "localityKana": "ヤマグンイナワシロマチ",
    "address1Kana": "ヨコマクリ",
    "address2Kana": ""
  }
]