[
  {
    "postalCode": "9696261",
    "regionId": 7,
    "region": "福島県",
    "locality": "大沼郡会津美里町",
    "address1": "内川原",
    "address2": "",
    "regionKana": "フクシマケン",
    "localityKana": "オオヌマグンアイヅミサトマチ",
    "address1Kana": "ウチカワラ",
    "address2Kana": ""
  },
  {
    "postalCode": "9696261",
    "regionId": 7,
    "region": "福島県",
    "locality": "大沼郡会津美里町",
    "address1": "梅ノ木",
    "address2": "",
    "regionKana": "フクシマケン",
    "localityKana": "オオヌマグンアイヅミサトマチ",
    "address1Kana": "ウメノキ",
    "address2Kana": ""
  },
  {
    "postalCode": "9696261",
    "regionId": 7,
    "region": "福島県",
    "locality": "大沼郡会津美里町",
    "address1": "権現宮",
    "address2": "",
    "regionKana": "フクシマケン",
    "localityKana": "オオヌマグンアイヅミサトマチ",
    "address1Kana": "ゴンゲンミヤ",
    "address2Kana": ""
  },
  {
    "postalCode": "9696261",
    "regionId": 7,
    "region": "福島県",
    "locality": "大沼郡会津美里町",
    "address1": "権現宮甲",
    "address2": "",
    "regionKana": "フクシマケン",
    "localityKana": "オオヌマグンアイヅミサトマチ",
    "address1Kana": "ゴンゲンミヤコウ",
    "address2Kana": ""
  },
  {
    "postalCode": "9696261",
    "regionId": 7,
    "region": "福島県",
    "locality": "大沼郡会津美里町",
    "address1": "権現宮南",
    "address2": "",
    "regionKana": "フクシマケン",
    "localityKana": "オオヌマグンアイヅミサトマチ",
    "address1Kana": "ゴンゲンミヤミナミ",
    "address2Kana": ""
  },
  {
    "postalCode": "9696261",
    "regionId": 7,
    "region": "福島県",
    "locality": "大沼郡会津美里町",
    "address1": "権現宮南甲",
    "address2": "",
    "regionKana": "フクシマケン",
    "localityKana": "オオヌマグンアイヅミサトマチ",
    "address1Kana": "ゴンゲンミヤミナミコウ",
    "address2Kana": ""
  },
  {
    "postalCode": "9696261",
    "regionId": 7,
    "region": "福島県",
    "locality": "大沼郡会津美里町",
    "address1": "高田道上",
    "address2": "",
    "regionKana": "フクシマケン",
    "localityKana": "オオヌマグンアイヅミサトマチ",
    "address1Kana": "タカダミチウエ",
    "address2Kana": ""
  },
  {
    "postalCode": "9696261",
    "regionId": 7,
    "region": "福島県",
    "locality": "大沼郡会津美里町",
    "address1": "地尻",
    "address2": "",
    "regionKana": "フクシマケン",
    "localityKana": "オオヌマグンアイヅミサトマチ",
    "address1Kana": "チジリ",
    "address2Kana": ""
  },
  {
    "postalCode": "9696261",
    "regionId": 7,
    "region": "福島県",
    "locality": "大沼郡会津美里町",
    "address1": "東川原",
    "address2": "",
    "regionKana": "フクシマケン",
    "localityKana": "オオヌマグンアイヅミサトマチ",
    "address1Kana": "ヒガシカワラ",
    "address2Kana": ""
  }
]