[
  {
    "postalCode": "9696262",
    "regionId": 7,
    "region": "福島県",
    "locality": "大沼郡会津美里町",
    "address1": "鹿島",
    "address2": "",
    "regionKana": "フクシマケン",
    "localityKana": "オオヌマグンアイヅミサトマチ",
    "address1Kana": "カシマ",
    "address2Kana": ""
  },
  {
    "postalCode": "9696262",
    "regionId": 7,
    "region": "福島県",
    "locality": "大沼郡会津美里町",
    "address1": "観音北",
    "address2": "",
    "regionKana": "フクシマケン",
    "localityKana": "オオヌマグンアイヅミサトマチ",
    "address1Kana": "カンノンキタ",
    "address2Kana": ""
  },
  {
    "postalCode": "9696262",
    "regionId": 7,
    "region": "福島県",
    "locality": "大沼郡会津美里町",
    "address1": "外川原",
    "address2": "",
    "regionKana": "フクシマケン",
    "localityKana": "オオヌマグンアイヅミサトマチ",
    "address1Kana": "ソトカワラ",
    "address2Kana": ""
  },
  {
    "postalCode": "9696262",
    "regionId": 7,
    "region": "福島県",
    "locality": "大沼郡会津美里町",
    "address1": "外川原甲",
    "address2": "",
    "regionKana": "フクシマケン",
    "localityKana": "オオヌマグンアイヅミサトマチ",
    "address1Kana": "ソトカワラコウ",
    "address2Kana": ""
  },
  {
    "postalCode": "9696262",
    "regionId": 7,
    "region": "福島県",
    "locality": "大沼郡会津美里町",
    "address1": "法憧寺北",
    "address2": "",
    "regionKana": "フクシマケン",
    "localityKana": "オオヌマグンアイヅミサトマチ",
    "address1Kana": "ホウドウジキタ",
    "address2Kana": ""
  },
  {
    "postalCode": "9696262",
    "regionId": 7,
    "region": "福島県",
    "locality": "大沼郡会津美里町",
    "address1": "法憧寺北甲",
    "address2": "",
    "regionKana": "フクシマケン",
    "localityKana": "オオヌマグンアイヅミサトマチ",
    "address1Kana": "ホウドウジキタコウ",
    "address2Kana": ""
  },
  {
    "postalCode": "9696262",
    "regionId": 7,
    "region": "福島県",
    "locality": "大沼郡会津美里町",
    "address1": "法憧寺東",
    "address2": "",
    "regionKana": "フクシマケン",
    "localityKana": "オオヌマグンアイヅミサトマチ",
    "address1Kana": "ホウドウジヒガシ",
    "address2Kana": ""
  },
  {
    "postalCode": "9696262",
    "regionId": 7,
    "region": "福島県",
    "locality": "大沼郡会津美里町",
    "address1": "法憧寺南",
    "address2": "",
    "regionKana": "フクシマケン",
    "localityKana": "オオヌマグンアイヅミサトマチ",
    "address1Kana": "ホウドウジミナミ",
    "address2Kana": ""
  },
  {
    "postalCode": "9696262",
    "regionId": 7,
    "region": "福島県",
    "locality": "大沼郡会津美里町",
    "address1": "法憧寺南甲",
    "address2": "",
    "regionKana": "フクシマケン",
    "localityKana": "オオヌマグンアイヅミサトマチ",
    "address1Kana": "ホウドウジミナミコウ",
    "address2Kana": ""
  }
]