[
  {
    "postalCode": "9637754",
    "regionId": 7,
    "region": "福島県",
    "locality": "田村郡三春町",
    "address1": "恵下越",
    "address2": "",
    "regionKana": "フクシマケン",
    "localityKana": "タムラグンミハルマチ",
    "address1Kana": "エゲノコシ",
    "address2Kana": ""
  },
  {
    "postalCode": "9637754",
    "regionId": 7,
    "region": "福島県",
    "locality": "田村郡三春町",
    "address1": "化粧坂",
    "address2": "",
    "regionKana": "フクシマケン",
    "localityKana": "タムラグンミハルマチ",
    "address1Kana": "ケハイザカ",
    "address2Kana": ""
  },
  {
    "postalCode": "9637754",
    "regionId": 7,
    "region": "福島県",
    "locality": "田村郡三春町",
    "address1": "庚申坂",
    "address2": "",
    "regionKana": "フクシマケン",
    "localityKana": "タムラグンミハルマチ",
    "address1Kana": "コウシンザカ",
    "address2Kana": ""
  },
  {
    "postalCode": "9637754",
    "regionId": 7,
    "region": "福島県",
    "locality": "田村郡三春町",
    "address1": "四軒丁",
    "address2": "",
    "regionKana": "フクシマケン",
    "localityKana": "タムラグンミハルマチ",
    "address1Kana": "シケンチョウ",
    "address2Kana": ""
  },
  {
    "postalCode": "9637754",
    "regionId": 7,
    "region": "福島県",
    "locality": "田村郡三春町",
    "address1": "新町",
    "address2": "",
    "regionKana": "フクシマケン",
    "localityKana": "タムラグンミハルマチ",
    "address1Kana": "シンマチ",
    "address2Kana": ""
  },
  {
    "postalCode": "9637754",
    "regionId": 7,
    "region": "福島県",
    "locality": "田村郡三春町",
    "address1": "番組",
    "address2": "",
    "regionKana": "フクシマケン",
    "localityKana": "タムラグンミハルマチ",
    "address1Kana": "バングミ",
    "address2Kana": ""
  },
  {
    "postalCode": "9637754",
    "regionId": 7,
    "region": "福島県",
    "locality": "田村郡三春町",
    "address1": "番組頭",
    "address2": "",
    "regionKana": "フクシマケン",
    "localityKana": "タムラグンミハルマチ",
    "address1Kana": "バングミガシラ",
    "address2Kana": ""
  },
  {
    "postalCode": "9637754",
    "regionId": 7,
    "region": "福島県",
    "locality": "田村郡三春町",
    "address1": "弓町",
    "address2": "",
    "regionKana": "フクシマケン",
    "localityKana": "タムラグンミハルマチ",
    "address1Kana": "ユミマチ",
    "address2Kana": ""
  }
]