[
  {
    "postalCode": "7711702",
    "regionId": 36,
    "region": "徳島県",
    "locality": "阿波市",
    "address1": "阿波町伊勢",
    "address2": "",
    "regionKana": "トクシマケン",
    "localityKana": "アワシ",
    "address1Kana": "アワチョウイセ",
    "address2Kana": ""
  },
  {
    "postalCode": "7711702",
    "regionId": 36,
    "region": "徳島県",
    "locality": "阿波市",
    "address1": "阿波町井出口",
    "address2": "",
    "regionKana": "トクシマケン",
    "localityKana": "アワシ",
    "address1Kana": "アワチョウイデグチ",
    "address2Kana": ""
  },
  {
    "postalCode": "7711702",
    "regionId": 36,
    "region": "徳島県",
    "locality": "阿波市",
    "address1": "阿波町稲荷",
    "address2": "",
    "regionKana": "トクシマケン",
    "localityKana": "アワシ",
    "address1Kana": "アワチョウイナリ",
    "address2Kana": ""
  },
  {
    "postalCode": "7711702",
    "regionId": 36,
    "region": "徳島県",
    "locality": "阿波市",
    "address1": "阿波町大久保",
    "address2": "",
    "regionKana": "トクシマケン",
    "localityKana": "アワシ",
    "address1Kana": "アワチョウオオクボ",
    "address2Kana": ""
  },
  {
    "postalCode": "7711702",
    "regionId": 36,
    "region": "徳島県",
    "locality": "阿波市",
    "address1": "阿波町柏谷左右",
    "address2": "",
    "regionKana": "トクシマケン",
    "localityKana": "アワシ",
    "address1Kana": "アワチョウカシワダニサユウ",
    "address2Kana": ""
  },
  {
    "postalCode": "7711702",
    "regionId": 36,
    "region": "徳島県",
    "locality": "阿波市",
    "address1": "阿波町川添",
    "address2": "",
    "regionKana": "トクシマケン",
    "localityKana": "アワシ",
    "address1Kana": "アワチョウカワゾエ",
    "address2Kana": ""
  },
  {
    "postalCode": "7711702",
    "regionId": 36,
    "region": "徳島県",
    "locality": "阿波市",
    "address1": "阿波町北ノ名",
    "address2": "",
    "regionKana": "トクシマケン",
    "localityKana": "アワシ",
    "address1Kana": "アワチョウキタノミョウ",
    "address2Kana": ""
  },
  {
    "postalCode": "7711702",
    "regionId": 36,
    "region": "徳島県",
    "locality": "阿波市",
    "address1": "阿波町山王",
    "address2": "",
    "regionKana": "トクシマケン",
    "localityKana": "アワシ",
    "address1Kana": "アワチョウサンノウ",
    "address2Kana": ""
  },
  {
    "postalCode": "7711702",
    "regionId": 36,
    "region": "徳島県",
    "locality": "阿波市",
    "address1": "阿波町四歩一",
    "address2": "",
    "regionKana": "トクシマケン",
    "localityKana": "アワシ",
    "address1Kana": "アワチョウシブイチ",
    "address2Kana": ""
  },
  {
    "postalCode": "7711702",
    "regionId": 36,
    "region": "徳島県",
    "locality": "阿波市",
    "address1": "阿波町下原",
    "address2": "",
    "regionKana": "トクシマケン",
    "localityKana": "アワシ",
    "address1Kana": "アワチョウシモバラ",
    "address2Kana": ""
  },
  {
    "postalCode": "7711702",
    "regionId": 36,
    "region": "徳島県",
    "locality": "阿波市",
    "address1": "阿波町大次郎",
    "address2": "",
    "regionKana": "トクシマケン",
    "localityKana": "アワシ",
    "address1Kana": "アワチョウダイジロウ",
    "address2Kana": ""
  },
  {
    "postalCode": "7711702",
    "regionId": 36,
    "region": "徳島県",
    "locality": "阿波市",
    "address1": "阿波町谷口",
    "address2": "",
    "regionKana": "トクシマケン",
    "localityKana": "アワシ",
    "address1Kana": "アワチョウタニグチ",
    "address2Kana": ""
  },
  {
    "postalCode": "7711702",
    "regionId": 36,
    "region": "徳島県",
    "locality": "阿波市",
    "address1": "阿波町寺サコ",
    "address2": "",
    "regionKana": "トクシマケン",
    "localityKana": "アワシ",
    "address1Kana": "アワチョウテラサコ",
    "address2Kana": ""
  },
  {
    "postalCode": "7711702",
    "regionId": 36,
    "region": "徳島県",
    "locality": "阿波市",
    "address1": "阿波町天西山",
    "address2": "",
    "regionKana": "トクシマケン",
    "localityKana": "アワシ",
    "address1Kana": "アワチョウテンサイザン",
    "address2Kana": ""
  },
  {
    "postalCode": "7711702",
    "regionId": 36,
    "region": "徳島県",
    "locality": "阿波市",
    "address1": "阿波町西ノ岡",
    "address2": "",
    "regionKana": "トクシマケン",
    "localityKana": "アワシ",
    "address1Kana": "アワチョウニシノオカ",
    "address2Kana": ""
  },
  {
    "postalCode": "7711702",
    "regionId": 36,
    "region": "徳島県",
    "locality": "阿波市",
    "address1": "阿波町野神",
    "address2": "",
    "regionKana": "トクシマケン",
    "localityKana": "アワシ",
    "address1Kana": "アワチョウノガミ",
    "address2Kana": ""
  },
  {
    "postalCode": "7711702",
    "regionId": 36,
    "region": "徳島県",
    "locality": "阿波市",
    "address1": "阿波町久原",
    "address2": "",
    "regionKana": "トクシマケン",
    "localityKana": "アワシ",
    "address1Kana": "アワチョウヒサハラ",
    "address2Kana": ""
  },
  {
    "postalCode": "7711702",
    "regionId": 36,
    "region": "徳島県",
    "locality": "阿波市",
    "address1": "阿波町本町",
    "address2": "",
    "regionKana": "トクシマケン",
    "localityKana": "アワシ",
    "address1Kana": "アワチョウホンマチ",
    "address2Kana": ""
  },
  {
    "postalCode": "7711702",
    "regionId": 36,
    "region": "徳島県",
    "locality": "阿波市",
    "address1": "阿波町本安",
    "address2": "",
    "regionKana": "トクシマケン",
    "localityKana": "アワシ",
    "address1Kana": "アワチョウホンヤス",
    "address2Kana": ""
  },
  {
    "postalCode": "7711702",
    "regionId": 36,
    "region": "徳島県",
    "locality": "阿波市",
    "address1": "阿波町森沢",
    "address2": "",
    "regionKana": "トクシマケン",
    "localityKana": "アワシ",
    "address1Kana": "アワチョウモリサワ",
    "address2Kana": ""
  },
  {
    "postalCode": "7711702",
    "regionId": 36,
    "region": "徳島県",
    "locality": "阿波市",
    "address1": "阿波町安政",
    "address2": "",
    "regionKana": "トクシマケン",
    "localityKana": "アワシ",
    "address1Kana": "アワチョウヤスマサ",
    "address2Kana": ""
  },
  {
    "postalCode": "7711702",
    "regionId": 36,
    "region": "徳島県",
    "locality": "阿波市",
    "address1": "阿波町山尻",
    "address2": "",
    "regionKana": "トクシマケン",
    "localityKana": "アワシ",
    "address1Kana": "アワチョウヤマジリ",
    "address2Kana": ""
  },
  {
    "postalCode": "7711702",
    "regionId": 36,
    "region": "徳島県",
    "locality": "阿波市",
    "address1": "阿波町早田",
    "address2": "",
    "regionKana": "トクシマケン",
    "localityKana": "アワシ",
    "address1Kana": "アワチョウワサダ",
    "address2Kana": ""
  }
]