[
  {
    "postalCode": "7711703",
    "regionId": 36,
    "region": "徳島県",
    "locality": "阿波市",
    "address1": "阿波町伊沢田",
    "address2": "",
    "regionKana": "トクシマケン",
    "localityKana": "アワシ",
    "address1Kana": "アワチョウイサワダ",
    "address2Kana": ""
  },
  {
    "postalCode": "7711703",
    "regionId": 36,
    "region": "徳島県",
    "locality": "阿波市",
    "address1": "阿波町大道北",
    "address2": "",
    "regionKana": "トクシマケン",
    "localityKana": "アワシ",
    "address1Kana": "アワチョウオオミチキタ",
    "address2Kana": ""
  },
  {
    "postalCode": "7711703",
    "regionId": 36,
    "region": "徳島県",
    "locality": "阿波市",
    "address1": "阿波町岡地",
    "address2": "",
    "regionKana": "トクシマケン",
    "localityKana": "アワシ",
    "address1Kana": "アワチョウオカジ",
    "address2Kana": ""
  },
  {
    "postalCode": "7711703",
    "regionId": 36,
    "region": "徳島県",
    "locality": "阿波市",
    "address1": "阿波町北柴生",
    "address2": "",
    "regionKana": "トクシマケン",
    "localityKana": "アワシ",
    "address1Kana": "アワチョウキタシボウ",
    "address2Kana": ""
  },
  {
    "postalCode": "7711703",
    "regionId": 36,
    "region": "徳島県",
    "locality": "阿波市",
    "address1": "阿波町北原",
    "address2": "",
    "regionKana": "トクシマケン",
    "localityKana": "アワシ",
    "address1Kana": "アワチョウキタバラ",
    "address2Kana": ""
  },
  {
    "postalCode": "7711703",
    "regionId": 36,
    "region": "徳島県",
    "locality": "阿波市",
    "address1": "阿波町真福寺",
    "address2": "",
    "regionKana": "トクシマケン",
    "localityKana": "アワシ",
    "address1Kana": "アワチョウシンプクジ",
    "address2Kana": ""
  },
  {
    "postalCode": "7711703",
    "regionId": 36,
    "region": "徳島県",
    "locality": "阿波市",
    "address1": "阿波町綱懸",
    "address2": "",
    "regionKana": "トクシマケン",
    "localityKana": "アワシ",
    "address1Kana": "アワチョウツナカケ",
    "address2Kana": ""
  },
  {
    "postalCode": "7711703",
    "regionId": 36,
    "region": "徳島県",
    "locality": "阿波市",
    "address1": "阿波町東条",
    "address2": "",
    "regionKana": "トクシマケン",
    "localityKana": "アワシ",
    "address1Kana": "アワチョウトウジョウ",
    "address2Kana": ""
  },
  {
    "postalCode": "7711703",
    "regionId": 36,
    "region": "徳島県",
    "locality": "阿波市",
    "address1": "阿波町中原",
    "address2": "",
    "regionKana": "トクシマケン",
    "localityKana": "アワシ",
    "address1Kana": "アワチョウナカハラ",
    "address2Kana": ""
  },
  {
    "postalCode": "7711703",
    "regionId": 36,
    "region": "徳島県",
    "locality": "阿波市",
    "address1": "阿波町西柴生",
    "address2": "",
    "regionKana": "トクシマケン",
    "localityKana": "アワシ",
    "address1Kana": "アワチョウニシシボウ",
    "address2Kana": ""
  },
  {
    "postalCode": "7711703",
    "regionId": 36,
    "region": "徳島県",
    "locality": "阿波市",
    "address1": "阿波町西原",
    "address2": "",
    "regionKana": "トクシマケン",
    "localityKana": "アワシ",
    "address1Kana": "アワチョウニシバラ",
    "address2Kana": ""
  },
  {
    "postalCode": "7711703",
    "regionId": 36,
    "region": "徳島県",
    "locality": "阿波市",
    "address1": "阿波町東柴生",
    "address2": "",
    "regionKana": "トクシマケン",
    "localityKana": "アワシ",
    "address1Kana": "アワチョウヒガシシボウ",
    "address2Kana": ""
  },
  {
    "postalCode": "7711703",
    "regionId": 36,
    "region": "徳島県",
    "locality": "阿波市",
    "address1": "阿波町東原",
    "address2": "",
    "regionKana": "トクシマケン",
    "localityKana": "アワシ",
    "address1Kana": "アワチョウヒガシバラ",
    "address2Kana": ""
  },
  {
    "postalCode": "7711703",
    "regionId": 36,
    "region": "徳島県",
    "locality": "阿波市",
    "address1": "阿波町前島",
    "address2": "",
    "regionKana": "トクシマケン",
    "localityKana": "アワシ",
    "address1Kana": "アワチョウマエジマ",
    "address2Kana": ""
  },
  {
    "postalCode": "7711703",
    "regionId": 36,
    "region": "徳島県",
    "locality": "阿波市",
    "address1": "阿波町丸山",
    "address2": "",
    "regionKana": "トクシマケン",
    "localityKana": "アワシ",
    "address1Kana": "アワチョウマルヤマ",
    "address2Kana": ""
  },
  {
    "postalCode": "7711703",
    "regionId": 36,
    "region": "徳島県",
    "locality": "阿波市",
    "address1": "阿波町南柴生",
    "address2": "",
    "regionKana": "トクシマケン",
    "localityKana": "アワシ",
    "address1Kana": "アワチョウミナミシボウ",
    "address2Kana": ""
  }
]