[
  {
    "postalCode": "7711704",
    "regionId": 36,
    "region": "徳島県",
    "locality": "阿波市",
    "address1": "阿波町伊沢谷東縁",
    "address2": "",
    "regionKana": "トクシマケン",
    "localityKana": "アワシ",
    "address1Kana": "アワチョウイサワダニヒガシベリ",
    "address2Kana": ""
  },
  {
    "postalCode": "7711704",
    "regionId": 36,
    "region": "徳島県",
    "locality": "阿波市",
    "address1": "阿波町糸下",
    "address2": "",
    "regionKana": "トクシマケン",
    "localityKana": "アワシ",
    "address1Kana": "アワチョウイトガ",
    "address2Kana": ""
  },
  {
    "postalCode": "7711704",
    "regionId": 36,
    "region": "徳島県",
    "locality": "阿波市",
    "address1": "阿波町芋場",
    "address2": "",
    "regionKana": "トクシマケン",
    "localityKana": "アワシ",
    "address1Kana": "アワチョウイモバ",
    "address2Kana": ""
  },
  {
    "postalCode": "7711704",
    "regionId": 36,
    "region": "徳島県",
    "locality": "阿波市",
    "address1": "阿波町梅ノ木原",
    "address2": "",
    "regionKana": "トクシマケン",
    "localityKana": "アワシ",
    "address1Kana": "アワチョウウメノキバラ",
    "address2Kana": ""
  },
  {
    "postalCode": "7711704",
    "regionId": 36,
    "region": "徳島県",
    "locality": "阿波市",
    "address1": "阿波町梅ノ東",
    "address2": "",
    "regionKana": "トクシマケン",
    "localityKana": "アワシ",
    "address1Kana": "アワチョウウメノヒガシ",
    "address2Kana": ""
  },
  {
    "postalCode": "7711704",
    "regionId": 36,
    "region": "徳島県",
    "locality": "阿波市",
    "address1": "阿波町小倉",
    "address2": "",
    "regionKana": "トクシマケン",
    "localityKana": "アワシ",
    "address1Kana": "アワチョウオグラ",
    "address2Kana": ""
  },
  {
    "postalCode": "7711704",
    "regionId": 36,
    "region": "徳島県",
    "locality": "阿波市",
    "address1": "阿波町亀底",
    "address2": "",
    "regionKana": "トクシマケン",
    "localityKana": "アワシ",
    "address1Kana": "アワチョウカメゾコ",
    "address2Kana": ""
  },
  {
    "postalCode": "7711704",
    "regionId": 36,
    "region": "徳島県",
    "locality": "阿波市",
    "address1": "阿波町北久保",
    "address2": "",
    "regionKana": "トクシマケン",
    "localityKana": "アワシ",
    "address1Kana": "アワチョウキタクボ",
    "address2Kana": ""
  },
  {
    "postalCode": "7711704",
    "regionId": 36,
    "region": "徳島県",
    "locality": "阿波市",
    "address1": "阿波町北五味知",
    "address2": "",
    "regionKana": "トクシマケン",
    "localityKana": "アワシ",
    "address1Kana": "アワチョウキタゴミジリ",
    "address2Kana": ""
  },
  {
    "postalCode": "7711704",
    "regionId": 36,
    "region": "徳島県",
    "locality": "阿波市",
    "address1": "阿波町北正広",
    "address2": "",
    "regionKana": "トクシマケン",
    "localityKana": "アワシ",
    "address1Kana": "アワチョウキタマサヒロ",
    "address2Kana": ""
  },
  {
    "postalCode": "7711704",
    "regionId": 36,
    "region": "徳島県",
    "locality": "阿波市",
    "address1": "阿波町立割",
    "address2": "",
    "regionKana": "トクシマケン",
    "localityKana": "アワシ",
    "address1Kana": "アワチョウタテワリ",
    "address2Kana": ""
  },
  {
    "postalCode": "7711704",
    "regionId": 36,
    "region": "徳島県",
    "locality": "阿波市",
    "address1": "阿波町西正広",
    "address2": "",
    "regionKana": "トクシマケン",
    "localityKana": "アワシ",
    "address1Kana": "アワチョウニシマサヒロ",
    "address2Kana": ""
  },
  {
    "postalCode": "7711704",
    "regionId": 36,
    "region": "徳島県",
    "locality": "阿波市",
    "address1": "阿波町八丁原",
    "address2": "",
    "regionKana": "トクシマケン",
    "localityKana": "アワシ",
    "address1Kana": "アワチョウハッチョウバラ",
    "address2Kana": ""
  },
  {
    "postalCode": "7711704",
    "regionId": 36,
    "region": "徳島県",
    "locality": "阿波市",
    "address1": "阿波町東正広",
    "address2": "",
    "regionKana": "トクシマケン",
    "localityKana": "アワシ",
    "address1Kana": "アワチョウヒガシマサヒロ",
    "address2Kana": ""
  },
  {
    "postalCode": "7711704",
    "regionId": 36,
    "region": "徳島県",
    "locality": "阿波市",
    "address1": "阿波町引地",
    "address2": "",
    "regionKana": "トクシマケン",
    "localityKana": "アワシ",
    "address1Kana": "アワチョウヒキチ",
    "address2Kana": ""
  },
  {
    "postalCode": "7711704",
    "regionId": 36,
    "region": "徳島県",
    "locality": "阿波市",
    "address1": "阿波町広野",
    "address2": "",
    "regionKana": "トクシマケン",
    "localityKana": "アワシ",
    "address1Kana": "アワチョウヒロノ",
    "address2Kana": ""
  },
  {
    "postalCode": "7711704",
    "regionId": 36,
    "region": "徳島県",
    "locality": "阿波市",
    "address1": "阿波町真重",
    "address2": "",
    "regionKana": "トクシマケン",
    "localityKana": "アワシ",
    "address1Kana": "アワチョウマシゲ",
    "address2Kana": ""
  },
  {
    "postalCode": "7711704",
    "regionId": 36,
    "region": "徳島県",
    "locality": "阿波市",
    "address1": "阿波町南五味知",
    "address2": "",
    "regionKana": "トクシマケン",
    "localityKana": "アワシ",
    "address1Kana": "アワチョウミナミゴミジリ",
    "address2Kana": ""
  },
  {
    "postalCode": "7711704",
    "regionId": 36,
    "region": "徳島県",
    "locality": "阿波市",
    "address1": "阿波町元町",
    "address2": "",
    "regionKana": "トクシマケン",
    "localityKana": "アワシ",
    "address1Kana": "アワチョウモトマチ",
    "address2Kana": ""
  },
  {
    "postalCode": "7711704",
    "regionId": 36,
    "region": "徳島県",
    "locality": "阿波市",
    "address1": "阿波町山ノ神",
    "address2": "",
    "regionKana": "トクシマケン",
    "localityKana": "アワシ",
    "address1Kana": "アワチョウヤマノカミ",
    "address2Kana": ""
  }
]