[
  {
    "postalCode": "7711705",
    "regionId": 36,
    "region": "徳島県",
    "locality": "阿波市",
    "address1": "阿波町赤坂",
    "address2": "",
    "regionKana": "トクシマケン",
    "localityKana": "アワシ",
    "address1Kana": "アワチョウアカサカ",
    "address2Kana": ""
  },
  {
    "postalCode": "7711705",
    "regionId": 36,
    "region": "徳島県",
    "locality": "阿波市",
    "address1": "阿波町医王寺",
    "address2": "",
    "regionKana": "トクシマケン",
    "localityKana": "アワシ",
    "address1Kana": "アワチョウイオウジ",
    "address2Kana": ""
  },
  {
    "postalCode": "7711705",
    "regionId": 36,
    "region": "徳島県",
    "locality": "阿波市",
    "address1": "阿波町居屋敷",
    "address2": "",
    "regionKana": "トクシマケン",
    "localityKana": "アワシ",
    "address1Kana": "アワチョウイヤシキ",
    "address2Kana": ""
  },
  {
    "postalCode": "7711705",
    "regionId": 36,
    "region": "徳島県",
    "locality": "阿波市",
    "address1": "阿波町梅川内",
    "address2": "",
    "regionKana": "トクシマケン",
    "localityKana": "アワシ",
    "address1Kana": "アワチョウウメカワウチ",
    "address2Kana": ""
  },
  {
    "postalCode": "7711705",
    "regionId": 36,
    "region": "徳島県",
    "locality": "阿波市",
    "address1": "阿波町王子川",
    "address2": "",
    "regionKana": "トクシマケン",
    "localityKana": "アワシ",
    "address1Kana": "アワチョウオウジガワ",
    "address2Kana": ""
  },
  {
    "postalCode": "7711705",
    "regionId": 36,
    "region": "徳島県",
    "locality": "阿波市",
    "address1": "阿波町川久保",
    "address2": "",
    "regionKana": "トクシマケン",
    "localityKana": "アワシ",
    "address1Kana": "アワチョウカワクボ",
    "address2Kana": ""
  },
  {
    "postalCode": "7711705",
    "regionId": 36,
    "region": "徳島県",
    "locality": "阿波市",
    "address1": "阿波町北整理",
    "address2": "",
    "regionKana": "トクシマケン",
    "localityKana": "アワシ",
    "address1Kana": "アワチョウキタセイリ",
    "address2Kana": ""
  },
  {
    "postalCode": "7711705",
    "regionId": 36,
    "region": "徳島県",
    "locality": "阿波市",
    "address1": "阿波町北山",
    "address2": "",
    "regionKana": "トクシマケン",
    "localityKana": "アワシ",
    "address1Kana": "アワチョウキタヤマ",
    "address2Kana": ""
  },
  {
    "postalCode": "7711705",
    "regionId": 36,
    "region": "徳島県",
    "locality": "阿波市",
    "address1": "阿波町五明",
    "address2": "",
    "regionKana": "トクシマケン",
    "localityKana": "アワシ",
    "address1Kana": "アワチョウゴミョウ",
    "address2Kana": ""
  },
  {
    "postalCode": "7711705",
    "regionId": 36,
    "region": "徳島県",
    "locality": "阿波市",
    "address1": "阿波町桜ノ岡",
    "address2": "",
    "regionKana": "トクシマケン",
    "localityKana": "アワシ",
    "address1Kana": "アワチョウサクラノオカ",
    "address2Kana": ""
  },
  {
    "postalCode": "7711705",
    "regionId": 36,
    "region": "徳島県",
    "locality": "阿波市",
    "address1": "阿波町寒風",
    "address2": "",
    "regionKana": "トクシマケン",
    "localityKana": "アワシ",
    "address1Kana": "アワチョウサムカゼ",
    "address2Kana": ""
  },
  {
    "postalCode": "7711705",
    "regionId": 36,
    "region": "徳島県",
    "locality": "阿波市",
    "address1": "阿波町十善地",
    "address2": "",
    "regionKana": "トクシマケン",
    "localityKana": "アワシ",
    "address1Kana": "アワチョウジュウゼンジ",
    "address2Kana": ""
  },
  {
    "postalCode": "7711705",
    "regionId": 36,
    "region": "徳島県",
    "locality": "阿波市",
    "address1": "阿波町善地",
    "address2": "",
    "regionKana": "トクシマケン",
    "localityKana": "アワシ",
    "address1Kana": "アワチョウゼンジ",
    "address2Kana": ""
  },
  {
    "postalCode": "7711705",
    "regionId": 36,
    "region": "徳島県",
    "locality": "阿波市",
    "address1": "阿波町高垣",
    "address2": "",
    "regionKana": "トクシマケン",
    "localityKana": "アワシ",
    "address1Kana": "アワチョウタカガキ",
    "address2Kana": ""
  },
  {
    "postalCode": "7711705",
    "regionId": 36,
    "region": "徳島県",
    "locality": "阿波市",
    "address1": "阿波町栩ケ窪",
    "address2": "",
    "regionKana": "トクシマケン",
    "localityKana": "アワシ",
    "address1Kana": "アワチョウトチガクボ",
    "address2Kana": ""
  },
  {
    "postalCode": "7711705",
    "regionId": 36,
    "region": "徳島県",
    "locality": "阿波市",
    "address1": "阿波町馬場",
    "address2": "",
    "regionKana": "トクシマケン",
    "localityKana": "アワシ",
    "address1Kana": "アワチョウババ",
    "address2Kana": ""
  },
  {
    "postalCode": "7711705",
    "regionId": 36,
    "region": "徳島県",
    "locality": "阿波市",
    "address1": "阿波町日吉谷",
    "address2": "",
    "regionKana": "トクシマケン",
    "localityKana": "アワシ",
    "address1Kana": "アワチョウヒヨシダニ",
    "address2Kana": ""
  },
  {
    "postalCode": "7711705",
    "regionId": 36,
    "region": "徳島県",
    "locality": "阿波市",
    "address1": "阿波町松川内",
    "address2": "",
    "regionKana": "トクシマケン",
    "localityKana": "アワシ",
    "address1Kana": "アワチョウマツカワウチ",
    "address2Kana": ""
  }
]