[
  {
    "postalCode": "7711706",
    "regionId": 36,
    "region": "徳島県",
    "locality": "阿波市",
    "address1": "阿波町岩津",
    "address2": "",
    "regionKana": "トクシマケン",
    "localityKana": "アワシ",
    "address1Kana": "アワチョウイワヅ",
    "address2Kana": ""
  },
  {
    "postalCode": "7711706",
    "regionId": 36,
    "region": "徳島県",
    "locality": "阿波市",
    "address1": "阿波町植桜",
    "address2": "",
    "regionKana": "トクシマケン",
    "localityKana": "アワシ",
    "address1Kana": "アワチョウウエザクラ",
    "address2Kana": ""
  },
  {
    "postalCode": "7711706",
    "regionId": 36,
    "region": "徳島県",
    "locality": "阿波市",
    "address1": "阿波町乙岩津",
    "address2": "",
    "regionKana": "トクシマケン",
    "localityKana": "アワシ",
    "address1Kana": "アワチョウオツイワヅ",
    "address2Kana": ""
  },
  {
    "postalCode": "7711706",
    "regionId": 36,
    "region": "徳島県",
    "locality": "阿波市",
    "address1": "阿波町北岡",
    "address2": "",
    "regionKana": "トクシマケン",
    "localityKana": "アワシ",
    "address1Kana": "アワチョウキタオカ",
    "address2Kana": ""
  },
  {
    "postalCode": "7711706",
    "regionId": 36,
    "region": "徳島県",
    "locality": "阿波市",
    "address1": "阿波町北西谷",
    "address2": "",
    "regionKana": "トクシマケン",
    "localityKana": "アワシ",
    "address1Kana": "アワチョウキタニシダニ",
    "address2Kana": ""
  },
  {
    "postalCode": "7711706",
    "regionId": 36,
    "region": "徳島県",
    "locality": "阿波市",
    "address1": "阿波町三本柳",
    "address2": "",
    "regionKana": "トクシマケン",
    "localityKana": "アワシ",
    "address1Kana": "アワチョウサンボンヤナギ",
    "address2Kana": ""
  },
  {
    "postalCode": "7711706",
    "regionId": 36,
    "region": "徳島県",
    "locality": "阿波市",
    "address1": "阿波町中川原",
    "address2": "",
    "regionKana": "トクシマケン",
    "localityKana": "アワシ",
    "address1Kana": "アワチョウナカガワハラ",
    "address2Kana": ""
  },
  {
    "postalCode": "7711706",
    "regionId": 36,
    "region": "徳島県",
    "locality": "阿波市",
    "address1": "阿波町中坪",
    "address2": "",
    "regionKana": "トクシマケン",
    "localityKana": "アワシ",
    "address1Kana": "アワチョウナカツボ",
    "address2Kana": ""
  },
  {
    "postalCode": "7711706",
    "regionId": 36,
    "region": "徳島県",
    "locality": "阿波市",
    "address1": "阿波町中長峰",
    "address2": "",
    "regionKana": "トクシマケン",
    "localityKana": "アワシ",
    "address1Kana": "アワチョウナカナガミネ",
    "address2Kana": ""
  },
  {
    "postalCode": "7711706",
    "regionId": 36,
    "region": "徳島県",
    "locality": "阿波市",
    "address1": "阿波町西島",
    "address2": "",
    "regionKana": "トクシマケン",
    "localityKana": "アワシ",
    "address1Kana": "アワチョウニシジマ",
    "address2Kana": ""
  },
  {
    "postalCode": "7711706",
    "regionId": 36,
    "region": "徳島県",
    "locality": "阿波市",
    "address1": "阿波町西整理",
    "address2": "",
    "regionKana": "トクシマケン",
    "localityKana": "アワシ",
    "address1Kana": "アワチョウニシセイリ",
    "address2Kana": ""
  },
  {
    "postalCode": "7711706",
    "regionId": 36,
    "region": "徳島県",
    "locality": "阿波市",
    "address1": "阿波町西長峰",
    "address2": "",
    "regionKana": "トクシマケン",
    "localityKana": "アワシ",
    "address1Kana": "アワチョウニシナガミネ",
    "address2Kana": ""
  },
  {
    "postalCode": "7711706",
    "regionId": 36,
    "region": "徳島県",
    "locality": "阿波市",
    "address1": "阿波町西林",
    "address2": "",
    "regionKana": "トクシマケン",
    "localityKana": "アワシ",
    "address1Kana": "アワチョウニシバヤシ",
    "address2Kana": ""
  },
  {
    "postalCode": "7711706",
    "regionId": 36,
    "region": "徳島県",
    "locality": "阿波市",
    "address1": "阿波町東川原",
    "address2": "",
    "regionKana": "トクシマケン",
    "localityKana": "アワシ",
    "address1Kana": "アワチョウヒガシカワハラ",
    "address2Kana": ""
  },
  {
    "postalCode": "7711706",
    "regionId": 36,
    "region": "徳島県",
    "locality": "阿波市",
    "address1": "阿波町東島",
    "address2": "",
    "regionKana": "トクシマケン",
    "localityKana": "アワシ",
    "address1Kana": "アワチョウヒガシジマ",
    "address2Kana": ""
  },
  {
    "postalCode": "7711706",
    "regionId": 36,
    "region": "徳島県",
    "locality": "阿波市",
    "address1": "阿波町東整理",
    "address2": "",
    "regionKana": "トクシマケン",
    "localityKana": "アワシ",
    "address1Kana": "アワチョウヒガシセイリ",
    "address2Kana": ""
  },
  {
    "postalCode": "7711706",
    "regionId": 36,
    "region": "徳島県",
    "locality": "阿波市",
    "address1": "阿波町東長峰",
    "address2": "",
    "regionKana": "トクシマケン",
    "localityKana": "アワシ",
    "address1Kana": "アワチョウヒガシナガミネ",
    "address2Kana": ""
  },
  {
    "postalCode": "7711706",
    "regionId": 36,
    "region": "徳島県",
    "locality": "阿波市",
    "address1": "阿波町東村",
    "address2": "",
    "regionKana": "トクシマケン",
    "localityKana": "アワシ",
    "address1Kana": "アワチョウヒガシムラ",
    "address2Kana": ""
  },
  {
    "postalCode": "7711706",
    "regionId": 36,
    "region": "徳島県",
    "locality": "阿波市",
    "address1": "阿波町南川原",
    "address2": "",
    "regionKana": "トクシマケン",
    "localityKana": "アワシ",
    "address1Kana": "アワチョウミナミカワハラ",
    "address2Kana": ""
  },
  {
    "postalCode": "7711706",
    "regionId": 36,
    "region": "徳島県",
    "locality": "阿波市",
    "address1": "阿波町南整理",
    "address2": "",
    "regionKana": "トクシマケン",
    "localityKana": "アワシ",
    "address1Kana": "アワチョウミナミセイリ",
    "address2Kana": ""
  },
  {
    "postalCode": "7711706",
    "regionId": 36,
    "region": "徳島県",
    "locality": "阿波市",
    "address1": "阿波町南西谷",
    "address2": "",
    "regionKana": "トクシマケン",
    "localityKana": "アワシ",
    "address1Kana": "アワチョウミナミニシダニ",
    "address2Kana": ""
  }
]