[
  {
    "postalCode": "0360101",
    "regionId": 2,
    "region": "青森県",
    "locality": "平川市",
    "address1": "大光寺一滝本",
    "address2": "",
    "regionKana": "アオモリケン",
    "localityKana": "ヒラカワシ",
    "address1Kana": "ダイコウジイチタキモト",
    "address2Kana": ""
  },
  {
    "postalCode": "0360101",
    "regionId": 2,
    "region": "青森県",
    "locality": "平川市",
    "address1": "大光寺一村井",
    "address2": "",
    "regionKana": "アオモリケン",
    "localityKana": "ヒラカワシ",
    "address1Kana": "ダイコウジイチムライ",
    "address2Kana": ""
  },
  {
    "postalCode": "0360101",
    "regionId": 2,
    "region": "青森県",
    "locality": "平川市",
    "address1": "大光寺一早稲田",
    "address2": "",
    "regionKana": "アオモリケン",
    "localityKana": "ヒラカワシ",
    "address1Kana": "ダイコウジイチワセダ",
    "address2Kana": ""
  },
  {
    "postalCode": "0360101",
    "regionId": 2,
    "region": "青森県",
    "locality": "平川市",
    "address1": "大光寺稲田",
    "address2": "",
    "regionKana": "アオモリケン",
    "localityKana": "ヒラカワシ",
    "address1Kana": "ダイコウジイナダ",
    "address2Kana": ""
  },
  {
    "postalCode": "0360101",
    "regionId": 2,
    "region": "青森県",
    "locality": "平川市",
    "address1": "大光寺稲村",
    "address2": "",
    "regionKana": "アオモリケン",
    "localityKana": "ヒラカワシ",
    "address1Kana": "ダイコウジイナムラ",
    "address2Kana": ""
  },
  {
    "postalCode": "0360101",
    "regionId": 2,
    "region": "青森県",
    "locality": "平川市",
    "address1": "大光寺川原田",
    "address2": "",
    "regionKana": "アオモリケン",
    "localityKana": "ヒラカワシ",
    "address1Kana": "ダイコウジカワラダ",
    "address2Kana": ""
  },
  {
    "postalCode": "0360101",
    "regionId": 2,
    "region": "青森県",
    "locality": "平川市",
    "address1": "大光寺三滝本",
    "address2": "",
    "regionKana": "アオモリケン",
    "localityKana": "ヒラカワシ",
    "address1Kana": "ダイコウジサンタキモト",
    "address2Kana": ""
  },
  {
    "postalCode": "0360101",
    "regionId": 2,
    "region": "青森県",
    "locality": "平川市",
    "address1": "大光寺三村井",
    "address2": "",
    "regionKana": "アオモリケン",
    "localityKana": "ヒラカワシ",
    "address1Kana": "ダイコウジサンムライ",
    "address2Kana": ""
  },
  {
    "postalCode": "0360101",
    "regionId": 2,
    "region": "青森県",
    "locality": "平川市",
    "address1": "大光寺三早稲田",
    "address2": "",
    "regionKana": "アオモリケン",
    "localityKana": "ヒラカワシ",
    "address1Kana": "ダイコウジサンワセダ",
    "address2Kana": ""
  },
  {
    "postalCode": "0360101",
    "regionId": 2,
    "region": "青森県",
    "locality": "平川市",
    "address1": "大光寺釈迦口",
    "address2": "",
    "regionKana": "アオモリケン",
    "localityKana": "ヒラカワシ",
    "address1Kana": "ダイコウジシャカグチ",
    "address2Kana": ""
  },
  {
    "postalCode": "0360101",
    "regionId": 2,
    "region": "青森県",
    "locality": "平川市",
    "address1": "大光寺白山",
    "address2": "",
    "regionKana": "アオモリケン",
    "localityKana": "ヒラカワシ",
    "address1Kana": "ダイコウジシロヤマ",
    "address2Kana": ""
  },
  {
    "postalCode": "0360101",
    "regionId": 2,
    "region": "青森県",
    "locality": "平川市",
    "address1": "大光寺種元",
    "address2": "",
    "regionKana": "アオモリケン",
    "localityKana": "ヒラカワシ",
    "address1Kana": "ダイコウジタネモト",
    "address2Kana": ""
  },
  {
    "postalCode": "0360101",
    "regionId": 2,
    "region": "青森県",
    "locality": "平川市",
    "address1": "大光寺西稲村",
    "address2": "",
    "regionKana": "アオモリケン",
    "localityKana": "ヒラカワシ",
    "address1Kana": "ダイコウジニシイナムラ",
    "address2Kana": ""
  },
  {
    "postalCode": "0360101",
    "regionId": 2,
    "region": "青森県",
    "locality": "平川市",
    "address1": "大光寺二滝本",
    "address2": "",
    "regionKana": "アオモリケン",
    "localityKana": "ヒラカワシ",
    "address1Kana": "ダイコウジニタキモト",
    "address2Kana": ""
  },
  {
    "postalCode": "0360101",
    "regionId": 2,
    "region": "青森県",
    "locality": "平川市",
    "address1": "大光寺二村井",
    "address2": "",
    "regionKana": "アオモリケン",
    "localityKana": "ヒラカワシ",
    "address1Kana": "ダイコウジニムライ",
    "address2Kana": ""
  },
  {
    "postalCode": "0360101",
    "regionId": 2,
    "region": "青森県",
    "locality": "平川市",
    "address1": "大光寺二早稲田",
    "address2": "",
    "regionKana": "アオモリケン",
    "localityKana": "ヒラカワシ",
    "address1Kana": "ダイコウジニワセダ",
    "address2Kana": ""
  },
  {
    "postalCode": "0360101",
    "regionId": 2,
    "region": "青森県",
    "locality": "平川市",
    "address1": "大光寺四滝本",
    "address2": "",
    "regionKana": "アオモリケン",
    "localityKana": "ヒラカワシ",
    "address1Kana": "ダイコウジヨンタキモト",
    "address2Kana": ""
  }
]