[
  {
    "postalCode": "0360111",
    "regionId": 2,
    "region": "青森県",
    "locality": "平川市",
    "address1": "小和森上田川",
    "address2": "",
    "regionKana": "アオモリケン",
    "localityKana": "ヒラカワシ",
    "address1Kana": "コワモリカミタガワ",
    "address2Kana": ""
  },
  {
    "postalCode": "0360111",
    "regionId": 2,
    "region": "青森県",
    "locality": "平川市",
    "address1": "小和森上平田",
    "address2": "",
    "regionKana": "アオモリケン",
    "localityKana": "ヒラカワシ",
    "address1Kana": "コワモリカミヒラタ",
    "address2Kana": ""
  },
  {
    "postalCode": "0360111",
    "regionId": 2,
    "region": "青森県",
    "locality": "平川市",
    "address1": "小和森上松岡",
    "address2": "",
    "regionKana": "アオモリケン",
    "localityKana": "ヒラカワシ",
    "address1Kana": "コワモリカミマツオカ",
    "address2Kana": ""
  },
  {
    "postalCode": "0360111",
    "regionId": 2,
    "region": "青森県",
    "locality": "平川市",
    "address1": "小和森下田川",
    "address2": "",
    "regionKana": "アオモリケン",
    "localityKana": "ヒラカワシ",
    "address1Kana": "コワモリシモタガワ",
    "address2Kana": ""
  },
  {
    "postalCode": "0360111",
    "regionId": 2,
    "region": "青森県",
    "locality": "平川市",
    "address1": "小和森下平田",
    "address2": "",
    "regionKana": "アオモリケン",
    "localityKana": "ヒラカワシ",
    "address1Kana": "コワモリシモヒラタ",
    "address2Kana": ""
  },
  {
    "postalCode": "0360111",
    "regionId": 2,
    "region": "青森県",
    "locality": "平川市",
    "address1": "小和森下松岡",
    "address2": "",
    "regionKana": "アオモリケン",
    "localityKana": "ヒラカワシ",
    "address1Kana": "コワモリシモマツオカ",
    "address2Kana": ""
  },
  {
    "postalCode": "0360111",
    "regionId": 2,
    "region": "青森県",
    "locality": "平川市",
    "address1": "小和森種取",
    "address2": "",
    "regionKana": "アオモリケン",
    "localityKana": "ヒラカワシ",
    "address1Kana": "コワモリタネトリ",
    "address2Kana": ""
  },
  {
    "postalCode": "0360111",
    "regionId": 2,
    "region": "青森県",
    "locality": "平川市",
    "address1": "小和森中松岡",
    "address2": "",
    "regionKana": "アオモリケン",
    "localityKana": "ヒラカワシ",
    "address1Kana": "コワモリナカマツオカ",
    "address2Kana": ""
  },
  {
    "postalCode": "0360111",
    "regionId": 2,
    "region": "青森県",
    "locality": "平川市",
    "address1": "小和森福田",
    "address2": "",
    "regionKana": "アオモリケン",
    "localityKana": "ヒラカワシ",
    "address1Kana": "コワモリフクダ",
    "address2Kana": ""
  },
  {
    "postalCode": "0360111",
    "regionId": 2,
    "region": "青森県",
    "locality": "平川市",
    "address1": "小和森松川",
    "address2": "",
    "regionKana": "アオモリケン",
    "localityKana": "ヒラカワシ",
    "address1Kana": "コワモリマツカワ",
    "address2Kana": ""
  },
  {
    "postalCode": "0360111",
    "regionId": 2,
    "region": "青森県",
    "locality": "平川市",
    "address1": "小和森松村",
    "address2": "",
    "regionKana": "アオモリケン",
    "localityKana": "ヒラカワシ",
    "address1Kana": "コワモリマツムラ",
    "address2Kana": ""
  }
]