[
  {
    "postalCode": "0360121",
    "regionId": 2,
    "region": "青森県",
    "locality": "平川市",
    "address1": "新屋稲村",
    "address2": "",
    "regionKana": "アオモリケン",
    "localityKana": "ヒラカワシ",
    "address1Kana": "アラヤイナムラ",
    "address2Kana": ""
  },
  {
    "postalCode": "0360121",
    "regionId": 2,
    "region": "青森県",
    "locality": "平川市",
    "address1": "新屋長田",
    "address2": "",
    "regionKana": "アオモリケン",
    "localityKana": "ヒラカワシ",
    "address1Kana": "アラヤオサダ",
    "address2Kana": ""
  },
  {
    "postalCode": "0360121",
    "regionId": 2,
    "region": "青森県",
    "locality": "平川市",
    "address1": "新屋栄館",
    "address2": "",
    "regionKana": "アオモリケン",
    "localityKana": "ヒラカワシ",
    "address1Kana": "アラヤサカエダテ",
    "address2Kana": ""
  },
  {
    "postalCode": "0360121",
    "regionId": 2,
    "region": "青森県",
    "locality": "平川市",
    "address1": "新屋滝の沢",
    "address2": "",
    "regionKana": "アオモリケン",
    "localityKana": "ヒラカワシ",
    "address1Kana": "アラヤタキノサワ",
    "address2Kana": ""
  },
  {
    "postalCode": "0360121",
    "regionId": 2,
    "region": "青森県",
    "locality": "平川市",
    "address1": "新屋富山",
    "address2": "",
    "regionKana": "アオモリケン",
    "localityKana": "ヒラカワシ",
    "address1Kana": "アラヤトミヤマ",
    "address2Kana": ""
  },
  {
    "postalCode": "0360121",
    "regionId": 2,
    "region": "青森県",
    "locality": "平川市",
    "address1": "新屋平岡",
    "address2": "",
    "regionKana": "アオモリケン",
    "localityKana": "ヒラカワシ",
    "address1Kana": "アラヤヒラオカ",
    "address2Kana": ""
  },
  {
    "postalCode": "0360121",
    "regionId": 2,
    "region": "青森県",
    "locality": "平川市",
    "address1": "新屋平野",
    "address2": "",
    "regionKana": "アオモリケン",
    "localityKana": "ヒラカワシ",
    "address1Kana": "アラヤヒラノ",
    "address2Kana": ""
  },
  {
    "postalCode": "0360121",
    "regionId": 2,
    "region": "青森県",
    "locality": "平川市",
    "address1": "新屋福嶋",
    "address2": "",
    "regionKana": "アオモリケン",
    "localityKana": "ヒラカワシ",
    "address1Kana": "アラヤフクシマ",
    "address2Kana": ""
  },
  {
    "postalCode": "0360121",
    "regionId": 2,
    "region": "青森県",
    "locality": "平川市",
    "address1": "新屋山下",
    "address2": "",
    "regionKana": "アオモリケン",
    "localityKana": "ヒラカワシ",
    "address1Kana": "アラヤヤマシタ",
    "address2Kana": ""
  }
]