[
  {
    "postalCode": "0360122",
    "regionId": 2,
    "region": "青森県",
    "locality": "平川市",
    "address1": "尾崎浅井",
    "address2": "",
    "regionKana": "アオモリケン",
    "localityKana": "ヒラカワシ",
    "address1Kana": "オサキアサイ",
    "address2Kana": ""
  },
  {
    "postalCode": "0360122",
    "regionId": 2,
    "region": "青森県",
    "locality": "平川市",
    "address1": "尾崎稲元",
    "address2": "",
    "regionKana": "アオモリケン",
    "localityKana": "ヒラカワシ",
    "address1Kana": "オサキイナモト",
    "address2Kana": ""
  },
  {
    "postalCode": "0360122",
    "regionId": 2,
    "region": "青森県",
    "locality": "平川市",
    "address1": "尾崎岡田",
    "address2": "",
    "regionKana": "アオモリケン",
    "localityKana": "ヒラカワシ",
    "address1Kana": "オサキオカダ",
    "address2Kana": ""
  },
  {
    "postalCode": "0360122",
    "regionId": 2,
    "region": "青森県",
    "locality": "平川市",
    "address1": "尾崎川合",
    "address2": "",
    "regionKana": "アオモリケン",
    "localityKana": "ヒラカワシ",
    "address1Kana": "オサキカワイ",
    "address2Kana": ""
  },
  {
    "postalCode": "0360122",
    "regionId": 2,
    "region": "青森県",
    "locality": "平川市",
    "address1": "尾崎木戸口",
    "address2": "",
    "regionKana": "アオモリケン",
    "localityKana": "ヒラカワシ",
    "address1Kana": "オサキキドグチ",
    "address2Kana": ""
  },
  {
    "postalCode": "0360122",
    "regionId": 2,
    "region": "青森県",
    "locality": "平川市",
    "address1": "尾崎里見",
    "address2": "",
    "regionKana": "アオモリケン",
    "localityKana": "ヒラカワシ",
    "address1Kana": "オサキサトミ",
    "address2Kana": ""
  },
  {
    "postalCode": "0360122",
    "regionId": 2,
    "region": "青森県",
    "locality": "平川市",
    "address1": "尾崎沢部",
    "address2": "",
    "regionKana": "アオモリケン",
    "localityKana": "ヒラカワシ",
    "address1Kana": "オサキサワベ",
    "address2Kana": ""
  },
  {
    "postalCode": "0360122",
    "regionId": 2,
    "region": "青森県",
    "locality": "平川市",
    "address1": "尾崎平山",
    "address2": "",
    "regionKana": "アオモリケン",
    "localityKana": "ヒラカワシ",
    "address1Kana": "オサキヒラヤマ",
    "address2Kana": ""
  },
  {
    "postalCode": "0360122",
    "regionId": 2,
    "region": "青森県",
    "locality": "平川市",
    "address1": "尾崎安田",
    "address2": "",
    "regionKana": "アオモリケン",
    "localityKana": "ヒラカワシ",
    "address1Kana": "オサキヤスタ",
    "address2Kana": ""
  }
]