[
  {
    "postalCode": "0360132",
    "regionId": 2,
    "region": "青森県",
    "locality": "平川市",
    "address1": "唐竹芦毛沢",
    "address2": "",
    "regionKana": "アオモリケン",
    "localityKana": "ヒラカワシ",
    "address1Kana": "カラタケアシゲサワ",
    "address2Kana": ""
  },
  {
    "postalCode": "0360132",
    "regionId": 2,
    "region": "青森県",
    "locality": "平川市",
    "address1": "唐竹阿蘇獄",
    "address2": "",
    "regionKana": "アオモリケン",
    "localityKana": "ヒラカワシ",
    "address1Kana": "カラタケアソダケ",
    "address2Kana": ""
  },
  {
    "postalCode": "0360132",
    "regionId": 2,
    "region": "青森県",
    "locality": "平川市",
    "address1": "唐竹井沢",
    "address2": "",
    "regionKana": "アオモリケン",
    "localityKana": "ヒラカワシ",
    "address1Kana": "カラタケイザワ",
    "address2Kana": ""
  },
  {
    "postalCode": "0360132",
    "regionId": 2,
    "region": "青森県",
    "locality": "平川市",
    "address1": "唐竹苺原",
    "address2": "",
    "regionKana": "アオモリケン",
    "localityKana": "ヒラカワシ",
    "address1Kana": "カラタケイチゴハラ",
    "address2Kana": ""
  },
  {
    "postalCode": "0360132",
    "regionId": 2,
    "region": "青森県",
    "locality": "平川市",
    "address1": "唐竹川原田",
    "address2": "",
    "regionKana": "アオモリケン",
    "localityKana": "ヒラカワシ",
    "address1Kana": "カラタケカワラダ",
    "address2Kana": ""
  },
  {
    "postalCode": "0360132",
    "regionId": 2,
    "region": "青森県",
    "locality": "平川市",
    "address1": "唐竹小金森",
    "address2": "",
    "regionKana": "アオモリケン",
    "localityKana": "ヒラカワシ",
    "address1Kana": "カラタケコガネモリ",
    "address2Kana": ""
  },
  {
    "postalCode": "0360132",
    "regionId": 2,
    "region": "青森県",
    "locality": "平川市",
    "address1": "唐竹小松原",
    "address2": "",
    "regionKana": "アオモリケン",
    "localityKana": "ヒラカワシ",
    "address1Kana": "カラタケコマツハラ",
    "address2Kana": ""
  },
  {
    "postalCode": "0360132",
    "regionId": 2,
    "region": "青森県",
    "locality": "平川市",
    "address1": "唐竹高田",
    "address2": "",
    "regionKana": "アオモリケン",
    "localityKana": "ヒラカワシ",
    "address1Kana": "カラタケタカダ",
    "address2Kana": ""
  },
  {
    "postalCode": "0360132",
    "regionId": 2,
    "region": "青森県",
    "locality": "平川市",
    "address1": "唐竹平山",
    "address2": "",
    "regionKana": "アオモリケン",
    "localityKana": "ヒラカワシ",
    "address1Kana": "カラタケヒラヤマ",
    "address2Kana": ""
  },
  {
    "postalCode": "0360132",
    "regionId": 2,
    "region": "青森県",
    "locality": "平川市",
    "address1": "唐竹堀合",
    "address2": "",
    "regionKana": "アオモリケン",
    "localityKana": "ヒラカワシ",
    "address1Kana": "カラタケホリアイ",
    "address2Kana": ""
  },
  {
    "postalCode": "0360132",
    "regionId": 2,
    "region": "青森県",
    "locality": "平川市",
    "address1": "唐竹水上",
    "address2": "",
    "regionKana": "アオモリケン",
    "localityKana": "ヒラカワシ",
    "address1Kana": "カラタケミズカミ",
    "address2Kana": ""
  },
  {
    "postalCode": "0360132",
    "regionId": 2,
    "region": "青森県",
    "locality": "平川市",
    "address1": "唐竹向川原田",
    "address2": "",
    "regionKana": "アオモリケン",
    "localityKana": "ヒラカワシ",
    "address1Kana": "カラタケムカイカワラダ",
    "address2Kana": ""
  },
  {
    "postalCode": "0360132",
    "regionId": 2,
    "region": "青森県",
    "locality": "平川市",
    "address1": "唐竹薬師沢",
    "address2": "",
    "regionKana": "アオモリケン",
    "localityKana": "ヒラカワシ",
    "address1Kana": "カラタケヤクシザワ",
    "address2Kana": ""
  }
]