[
  {
    "postalCode": "0360141",
    "regionId": 2,
    "region": "青森県",
    "locality": "平川市",
    "address1": "沖館長田",
    "address2": "",
    "regionKana": "アオモリケン",
    "localityKana": "ヒラカワシ",
    "address1Kana": "オキダテオサダ",
    "address2Kana": ""
  },
  {
    "postalCode": "0360141",
    "regionId": 2,
    "region": "青森県",
    "locality": "平川市",
    "address1": "沖館沢田",
    "address2": "",
    "regionKana": "アオモリケン",
    "localityKana": "ヒラカワシ",
    "address1Kana": "オキダテサワタ",
    "address2Kana": ""
  },
  {
    "postalCode": "0360141",
    "regionId": 2,
    "region": "青森県",
    "locality": "平川市",
    "address1": "沖館高田",
    "address2": "",
    "regionKana": "アオモリケン",
    "localityKana": "ヒラカワシ",
    "address1Kana": "オキダテタカダ",
    "address2Kana": ""
  },
  {
    "postalCode": "0360141",
    "regionId": 2,
    "region": "青森県",
    "locality": "平川市",
    "address1": "沖館永田",
    "address2": "",
    "regionKana": "アオモリケン",
    "localityKana": "ヒラカワシ",
    "address1Kana": "オキダテナガタ",
    "address2Kana": ""
  },
  {
    "postalCode": "0360141",
    "regionId": 2,
    "region": "青森県",
    "locality": "平川市",
    "address1": "沖館西田",
    "address2": "",
    "regionKana": "アオモリケン",
    "localityKana": "ヒラカワシ",
    "address1Kana": "オキダテニシタ",
    "address2Kana": ""
  },
  {
    "postalCode": "0360141",
    "regionId": 2,
    "region": "青森県",
    "locality": "平川市",
    "address1": "沖館比山館",
    "address2": "",
    "regionKana": "アオモリケン",
    "localityKana": "ヒラカワシ",
    "address1Kana": "オキダテヒヤマダテ",
    "address2Kana": ""
  },
  {
    "postalCode": "0360141",
    "regionId": 2,
    "region": "青森県",
    "locality": "平川市",
    "address1": "沖館宮崎",
    "address2": "",
    "regionKana": "アオモリケン",
    "localityKana": "ヒラカワシ",
    "address1Kana": "オキダテミヤザキ",
    "address2Kana": ""
  },
  {
    "postalCode": "0360141",
    "regionId": 2,
    "region": "青森県",
    "locality": "平川市",
    "address1": "沖館向野",
    "address2": "",
    "regionKana": "アオモリケン",
    "localityKana": "ヒラカワシ",
    "address1Kana": "オキダテムカイノ",
    "address2Kana": ""
  },
  {
    "postalCode": "0360141",
    "regionId": 2,
    "region": "青森県",
    "locality": "平川市",
    "address1": "沖館和田",
    "address2": "",
    "regionKana": "アオモリケン",
    "localityKana": "ヒラカワシ",
    "address1Kana": "オキダテワダ",
    "address2Kana": ""
  }
]