[
  {
    "postalCode": "0360155",
    "regionId": 2,
    "region": "青森県",
    "locality": "平川市",
    "address1": "館田稲村",
    "address2": "",
    "regionKana": "アオモリケン",
    "localityKana": "ヒラカワシ",
    "address1Kana": "タチタイナムラ",
    "address2Kana": ""
  },
  {
    "postalCode": "0360155",
    "regionId": 2,
    "region": "青森県",
    "locality": "平川市",
    "address1": "館田中前田",
    "address2": "",
    "regionKana": "アオモリケン",
    "localityKana": "ヒラカワシ",
    "address1Kana": "タチタナカマエダ",
    "address2Kana": ""
  },
  {
    "postalCode": "0360155",
    "regionId": 2,
    "region": "青森県",
    "locality": "平川市",
    "address1": "館田西川原田",
    "address2": "",
    "regionKana": "アオモリケン",
    "localityKana": "ヒラカワシ",
    "address1Kana": "タチタニシカワラダ",
    "address2Kana": ""
  },
  {
    "postalCode": "0360155",
    "regionId": 2,
    "region": "青森県",
    "locality": "平川市",
    "address1": "館田西和田",
    "address2": "",
    "regionKana": "アオモリケン",
    "localityKana": "ヒラカワシ",
    "address1Kana": "タチタニシワダ",
    "address2Kana": ""
  },
  {
    "postalCode": "0360155",
    "regionId": 2,
    "region": "青森県",
    "locality": "平川市",
    "address1": "館田東稲村",
    "address2": "",
    "regionKana": "アオモリケン",
    "localityKana": "ヒラカワシ",
    "address1Kana": "タチタヒガシイナムラ",
    "address2Kana": ""
  },
  {
    "postalCode": "0360155",
    "regionId": 2,
    "region": "青森県",
    "locality": "平川市",
    "address1": "館田東前田",
    "address2": "",
    "regionKana": "アオモリケン",
    "localityKana": "ヒラカワシ",
    "address1Kana": "タチタヒガシマエダ",
    "address2Kana": ""
  },
  {
    "postalCode": "0360155",
    "regionId": 2,
    "region": "青森県",
    "locality": "平川市",
    "address1": "館田東和田",
    "address2": "",
    "regionKana": "アオモリケン",
    "localityKana": "ヒラカワシ",
    "address1Kana": "タチタヒガシワダ",
    "address2Kana": ""
  },
  {
    "postalCode": "0360155",
    "regionId": 2,
    "region": "青森県",
    "locality": "平川市",
    "address1": "館田前田",
    "address2": "",
    "regionKana": "アオモリケン",
    "localityKana": "ヒラカワシ",
    "address1Kana": "タチタマエダ",
    "address2Kana": ""
  },
  {
    "postalCode": "0360155",
    "regionId": 2,
    "region": "青森県",
    "locality": "平川市",
    "address1": "館田南川原田",
    "address2": "",
    "regionKana": "アオモリケン",
    "localityKana": "ヒラカワシ",
    "address1Kana": "タチタミナミカワラダ",
    "address2Kana": ""
  },
  {
    "postalCode": "0360155",
    "regionId": 2,
    "region": "青森県",
    "locality": "平川市",
    "address1": "館田元川原田",
    "address2": "",
    "regionKana": "アオモリケン",
    "localityKana": "ヒラカワシ",
    "address1Kana": "タチタモトカワラダ",
    "address2Kana": ""
  },
  {
    "postalCode": "0360155",
    "regionId": 2,
    "region": "青森県",
    "locality": "平川市",
    "address1": "館田柳原",
    "address2": "",
    "regionKana": "アオモリケン",
    "localityKana": "ヒラカワシ",
    "address1Kana": "タチタヤナギハラ",
    "address2Kana": ""
  }
]