[
  {
    "postalCode": "0360172",
    "regionId": 2,
    "region": "青森県",
    "locality": "平川市",
    "address1": "葛川浅瀬石山",
    "address2": "",
    "regionKana": "アオモリケン",
    "localityKana": "ヒラカワシ",
    "address1Kana": "クズカワアセイシヤマ",
    "address2Kana": ""
  },
  {
    "postalCode": "0360172",
    "regionId": 2,
    "region": "青森県",
    "locality": "平川市",
    "address1": "葛川一本木平",
    "address2": "",
    "regionKana": "アオモリケン",
    "localityKana": "ヒラカワシ",
    "address1Kana": "クズカワイッポンギタイラ",
    "address2Kana": ""
  },
  {
    "postalCode": "0360172",
    "regionId": 2,
    "region": "青森県",
    "locality": "平川市",
    "address1": "葛川大川添",
    "address2": "",
    "regionKana": "アオモリケン",
    "localityKana": "ヒラカワシ",
    "address1Kana": "クズカワオオカワゾエ",
    "address2Kana": ""
  },
  {
    "postalCode": "0360172",
    "regionId": 2,
    "region": "青森県",
    "locality": "平川市",
    "address1": "葛川折戸",
    "address2": "",
    "regionKana": "アオモリケン",
    "localityKana": "ヒラカワシ",
    "address1Kana": "クズカワオリト",
    "address2Kana": ""
  },
  {
    "postalCode": "0360172",
    "regionId": 2,
    "region": "青森県",
    "locality": "平川市",
    "address1": "葛川上の平",
    "address2": "",
    "regionKana": "アオモリケン",
    "localityKana": "ヒラカワシ",
    "address1Kana": "クズカワカミノタイラ",
    "address2Kana": ""
  },
  {
    "postalCode": "0360172",
    "regionId": 2,
    "region": "青森県",
    "locality": "平川市",
    "address1": "葛川唐川平",
    "address2": "",
    "regionKana": "アオモリケン",
    "localityKana": "ヒラカワシ",
    "address1Kana": "クズカワカラカワタイラ",
    "address2Kana": ""
  },
  {
    "postalCode": "0360172",
    "regionId": 2,
    "region": "青森県",
    "locality": "平川市",
    "address1": "葛川葛川沢",
    "address2": "",
    "regionKana": "アオモリケン",
    "localityKana": "ヒラカワシ",
    "address1Kana": "クズカワクズカワサワ",
    "address2Kana": ""
  },
  {
    "postalCode": "0360172",
    "regionId": 2,
    "region": "青森県",
    "locality": "平川市",
    "address1": "葛川葛川平",
    "address2": "",
    "regionKana": "アオモリケン",
    "localityKana": "ヒラカワシ",
    "address1Kana": "クズカワクズカワタイラ",
    "address2Kana": ""
  },
  {
    "postalCode": "0360172",
    "regionId": 2,
    "region": "青森県",
    "locality": "平川市",
    "address1": "葛川葛川出口",
    "address2": "",
    "regionKana": "アオモリケン",
    "localityKana": "ヒラカワシ",
    "address1Kana": "クズカワクズカワデグチ",
    "address2Kana": ""
  },
  {
    "postalCode": "0360172",
    "regionId": 2,
    "region": "青森県",
    "locality": "平川市",
    "address1": "葛川毛無森",
    "address2": "",
    "regionKana": "アオモリケン",
    "localityKana": "ヒラカワシ",
    "address1Kana": "クズカワケナシモリ",
    "address2Kana": ""
  },
  {
    "postalCode": "0360172",
    "regionId": 2,
    "region": "青森県",
    "locality": "平川市",
    "address1": "葛川砂子沢",
    "address2": "",
    "regionKana": "アオモリケン",
    "localityKana": "ヒラカワシ",
    "address1Kana": "クズカワスナコザワ",
    "address2Kana": ""
  },
  {
    "postalCode": "0360172",
    "regionId": 2,
    "region": "青森県",
    "locality": "平川市",
    "address1": "葛川田の沢口",
    "address2": "",
    "regionKana": "アオモリケン",
    "localityKana": "ヒラカワシ",
    "address1Kana": "クズカワタノサワグチ",
    "address2Kana": ""
  },
  {
    "postalCode": "0360172",
    "regionId": 2,
    "region": "青森県",
    "locality": "平川市",
    "address1": "葛川長小股",
    "address2": "",
    "regionKana": "アオモリケン",
    "localityKana": "ヒラカワシ",
    "address1Kana": "クズカワナガコマタ",
    "address2Kana": ""
  },
  {
    "postalCode": "0360172",
    "regionId": 2,
    "region": "青森県",
    "locality": "平川市",
    "address1": "葛川平六沢上",
    "address2": "",
    "regionKana": "アオモリケン",
    "localityKana": "ヒラカワシ",
    "address1Kana": "クズカワヘイロクサワカミ",
    "address2Kana": ""
  },
  {
    "postalCode": "0360172",
    "regionId": 2,
    "region": "青森県",
    "locality": "平川市",
    "address1": "葛川平六村下",
    "address2": "",
    "regionKana": "アオモリケン",
    "localityKana": "ヒラカワシ",
    "address1Kana": "クズカワヘイロクムラシタ",
    "address2Kana": ""
  },
  {
    "postalCode": "0360172",
    "regionId": 2,
    "region": "青森県",
    "locality": "平川市",
    "address1": "葛川家岸",
    "address2": "",
    "regionKana": "アオモリケン",
    "localityKana": "ヒラカワシ",
    "address1Kana": "クズカワヤギシ",
    "address2Kana": ""
  }
]