[
  {
    "postalCode": "0360173",
    "regionId": 2,
    "region": "青森県",
    "locality": "平川市",
    "address1": "切明浅瀬石山",
    "address2": "",
    "regionKana": "アオモリケン",
    "localityKana": "ヒラカワシ",
    "address1Kana": "キリアケアセイシヤマ",
    "address2Kana": ""
  },
  {
    "postalCode": "0360173",
    "regionId": 2,
    "region": "青森県",
    "locality": "平川市",
    "address1": "切明上井戸",
    "address2": "",
    "regionKana": "アオモリケン",
    "localityKana": "ヒラカワシ",
    "address1Kana": "キリアケカミイド",
    "address2Kana": ""
  },
  {
    "postalCode": "0360173",
    "regionId": 2,
    "region": "青森県",
    "locality": "平川市",
    "address1": "切明誉田邸",
    "address2": "",
    "regionKana": "アオモリケン",
    "localityKana": "ヒラカワシ",
    "address1Kana": "キリアケコンタヤシキ",
    "address2Kana": ""
  },
  {
    "postalCode": "0360173",
    "regionId": 2,
    "region": "青森県",
    "locality": "平川市",
    "address1": "切明坂本",
    "address2": "",
    "regionKana": "アオモリケン",
    "localityKana": "ヒラカワシ",
    "address1Kana": "キリアケサカモト",
    "address2Kana": ""
  },
  {
    "postalCode": "0360173",
    "regionId": 2,
    "region": "青森県",
    "locality": "平川市",
    "address1": "切明滝の森",
    "address2": "",
    "regionKana": "アオモリケン",
    "localityKana": "ヒラカワシ",
    "address1Kana": "キリアケタキノモリ",
    "address2Kana": ""
  },
  {
    "postalCode": "0360173",
    "regionId": 2,
    "region": "青森県",
    "locality": "平川市",
    "address1": "切明滝候沢",
    "address2": "",
    "regionKana": "アオモリケン",
    "localityKana": "ヒラカワシ",
    "address1Kana": "キリアケタッコウサワ",
    "address2Kana": ""
  },
  {
    "postalCode": "0360173",
    "regionId": 2,
    "region": "青森県",
    "locality": "平川市",
    "address1": "切明津根川森",
    "address2": "",
    "regionKana": "アオモリケン",
    "localityKana": "ヒラカワシ",
    "address1Kana": "キリアケツネカワモリ",
    "address2Kana": ""
  },
  {
    "postalCode": "0360173",
    "regionId": 2,
    "region": "青森県",
    "locality": "平川市",
    "address1": "切明温川沢",
    "address2": "",
    "regionKana": "アオモリケン",
    "localityKana": "ヒラカワシ",
    "address1Kana": "キリアケヌルカワサワ",
    "address2Kana": ""
  },
  {
    "postalCode": "0360173",
    "regionId": 2,
    "region": "青森県",
    "locality": "平川市",
    "address1": "切明温川森",
    "address2": "",
    "regionKana": "アオモリケン",
    "localityKana": "ヒラカワシ",
    "address1Kana": "キリアケヌルカワモリ",
    "address2Kana": ""
  },
  {
    "postalCode": "0360173",
    "regionId": 2,
    "region": "青森県",
    "locality": "平川市",
    "address1": "切明螢沢",
    "address2": "",
    "regionKana": "アオモリケン",
    "localityKana": "ヒラカワシ",
    "address1Kana": "キリアケホタルサワ",
    "address2Kana": ""
  },
  {
    "postalCode": "0360173",
    "regionId": 2,
    "region": "青森県",
    "locality": "平川市",
    "address1": "切明山下",
    "address2": "",
    "regionKana": "アオモリケン",
    "localityKana": "ヒラカワシ",
    "address1Kana": "キリアケヤマシタ",
    "address2Kana": ""
  }
]