[
  {
    "postalCode": "0360203",
    "regionId": 2,
    "region": "青森県",
    "locality": "平川市",
    "address1": "南田中北林元",
    "address2": "",
    "regionKana": "アオモリケン",
    "localityKana": "ヒラカワシ",
    "address1Kana": "ミナミタナカキタハヤシモト",
    "address2Kana": ""
  },
  {
    "postalCode": "0360203",
    "regionId": 2,
    "region": "青森県",
    "locality": "平川市",
    "address1": "南田中北原",
    "address2": "",
    "regionKana": "アオモリケン",
    "localityKana": "ヒラカワシ",
    "address1Kana": "ミナミタナカキタハラ",
    "address2Kana": ""
  },
  {
    "postalCode": "0360203",
    "regionId": 2,
    "region": "青森県",
    "locality": "平川市",
    "address1": "南田中北細田",
    "address2": "",
    "regionKana": "アオモリケン",
    "localityKana": "ヒラカワシ",
    "address1Kana": "ミナミタナカキタホソダ",
    "address2Kana": ""
  },
  {
    "postalCode": "0360203",
    "regionId": 2,
    "region": "青森県",
    "locality": "平川市",
    "address1": "南田中北村井",
    "address2": "",
    "regionKana": "アオモリケン",
    "localityKana": "ヒラカワシ",
    "address1Kana": "ミナミタナカキタムライ",
    "address2Kana": ""
  },
  {
    "postalCode": "0360203",
    "regionId": 2,
    "region": "青森県",
    "locality": "平川市",
    "address1": "南田中中村井",
    "address2": "",
    "regionKana": "アオモリケン",
    "localityKana": "ヒラカワシ",
    "address1Kana": "ミナミタナカナカムライ",
    "address2Kana": ""
  },
  {
    "postalCode": "0360203",
    "regionId": 2,
    "region": "青森県",
    "locality": "平川市",
    "address1": "南田中西林元",
    "address2": "",
    "regionKana": "アオモリケン",
    "localityKana": "ヒラカワシ",
    "address1Kana": "ミナミタナカニシハヤシモト",
    "address2Kana": ""
  },
  {
    "postalCode": "0360203",
    "regionId": 2,
    "region": "青森県",
    "locality": "平川市",
    "address1": "南田中西原",
    "address2": "",
    "regionKana": "アオモリケン",
    "localityKana": "ヒラカワシ",
    "address1Kana": "ミナミタナカニシハラ",
    "address2Kana": ""
  },
  {
    "postalCode": "0360203",
    "regionId": 2,
    "region": "青森県",
    "locality": "平川市",
    "address1": "南田中東林元",
    "address2": "",
    "regionKana": "アオモリケン",
    "localityKana": "ヒラカワシ",
    "address1Kana": "ミナミタナカヒガシハヤシモト",
    "address2Kana": ""
  },
  {
    "postalCode": "0360203",
    "regionId": 2,
    "region": "青森県",
    "locality": "平川市",
    "address1": "南田中南林元",
    "address2": "",
    "regionKana": "アオモリケン",
    "localityKana": "ヒラカワシ",
    "address1Kana": "ミナミタナカミナミハヤシモト",
    "address2Kana": ""
  },
  {
    "postalCode": "0360203",
    "regionId": 2,
    "region": "青森県",
    "locality": "平川市",
    "address1": "南田中村内",
    "address2": "",
    "regionKana": "アオモリケン",
    "localityKana": "ヒラカワシ",
    "address1Kana": "ミナミタナカムラウチ",
    "address2Kana": ""
  }
]