[
  {
    "postalCode": "0360213",
    "regionId": 2,
    "region": "青森県",
    "locality": "平川市",
    "address1": "新屋町上沢田",
    "address2": "",
    "regionKana": "アオモリケン",
    "localityKana": "ヒラカワシ",
    "address1Kana": "アラヤマチカミサワダ",
    "address2Kana": ""
  },
  {
    "postalCode": "0360213",
    "regionId": 2,
    "region": "青森県",
    "locality": "平川市",
    "address1": "新屋町北鶉野",
    "address2": "",
    "regionKana": "アオモリケン",
    "localityKana": "ヒラカワシ",
    "address1Kana": "アラヤマチキタウズラノ",
    "address2Kana": ""
  },
  {
    "postalCode": "0360213",
    "regionId": 2,
    "region": "青森県",
    "locality": "平川市",
    "address1": "新屋町下沢田",
    "address2": "",
    "regionKana": "アオモリケン",
    "localityKana": "ヒラカワシ",
    "address1Kana": "アラヤマチシモサワダ",
    "address2Kana": ""
  },
  {
    "postalCode": "0360213",
    "regionId": 2,
    "region": "青森県",
    "locality": "平川市",
    "address1": "新屋町田川",
    "address2": "",
    "regionKana": "アオモリケン",
    "localityKana": "ヒラカワシ",
    "address1Kana": "アラヤマチタガワ",
    "address2Kana": ""
  },
  {
    "postalCode": "0360213",
    "regionId": 2,
    "region": "青森県",
    "locality": "平川市",
    "address1": "新屋町松居",
    "address2": "",
    "regionKana": "アオモリケン",
    "localityKana": "ヒラカワシ",
    "address1Kana": "アラヤマチマツイ",
    "address2Kana": ""
  },
  {
    "postalCode": "0360213",
    "regionId": 2,
    "region": "青森県",
    "locality": "平川市",
    "address1": "新屋町松下",
    "address2": "",
    "regionKana": "アオモリケン",
    "localityKana": "ヒラカワシ",
    "address1Kana": "アラヤマチマツシタ",
    "address2Kana": ""
  },
  {
    "postalCode": "0360213",
    "regionId": 2,
    "region": "青森県",
    "locality": "平川市",
    "address1": "新屋町松久",
    "address2": "",
    "regionKana": "アオモリケン",
    "localityKana": "ヒラカワシ",
    "address1Kana": "アラヤマチマツヒサ",
    "address2Kana": ""
  },
  {
    "postalCode": "0360213",
    "regionId": 2,
    "region": "青森県",
    "locality": "平川市",
    "address1": "新屋町道ノ下",
    "address2": "",
    "regionKana": "アオモリケン",
    "localityKana": "ヒラカワシ",
    "address1Kana": "アラヤマチミチノシタ",
    "address2Kana": ""
  },
  {
    "postalCode": "0360213",
    "regionId": 2,
    "region": "青森県",
    "locality": "平川市",
    "address1": "新屋町南鶉野",
    "address2": "",
    "regionKana": "アオモリケン",
    "localityKana": "ヒラカワシ",
    "address1Kana": "アラヤマチミナミウズラノ",
    "address2Kana": ""
  },
  {
    "postalCode": "0360213",
    "regionId": 2,
    "region": "青森県",
    "locality": "平川市",
    "address1": "新屋町村元",
    "address2": "",
    "regionKana": "アオモリケン",
    "localityKana": "ヒラカワシ",
    "address1Kana": "アラヤマチムラモト",
    "address2Kana": ""
  }
]