[
  {
    "postalCode": "0360233",
    "regionId": 2,
    "region": "青森県",
    "locality": "平川市",
    "address1": "日沼一本柳",
    "address2": "",
    "regionKana": "アオモリケン",
    "localityKana": "ヒラカワシ",
    "address1Kana": "ヒヌマイッポンヤナギ",
    "address2Kana": ""
  },
  {
    "postalCode": "0360233",
    "regionId": 2,
    "region": "青森県",
    "locality": "平川市",
    "address1": "日沼河原田",
    "address2": "",
    "regionKana": "アオモリケン",
    "localityKana": "ヒラカワシ",
    "address1Kana": "ヒヌマカワラダ",
    "address2Kana": ""
  },
  {
    "postalCode": "0360233",
    "regionId": 2,
    "region": "青森県",
    "locality": "平川市",
    "address1": "日沼下川原",
    "address2": "",
    "regionKana": "アオモリケン",
    "localityKana": "ヒラカワシ",
    "address1Kana": "ヒヌマシモカワラ",
    "address2Kana": ""
  },
  {
    "postalCode": "0360233",
    "regionId": 2,
    "region": "青森県",
    "locality": "平川市",
    "address1": "日沼下袋",
    "address2": "",
    "regionKana": "アオモリケン",
    "localityKana": "ヒラカワシ",
    "address1Kana": "ヒヌマシモフクロ",
    "address2Kana": ""
  },
  {
    "postalCode": "0360233",
    "regionId": 2,
    "region": "青森県",
    "locality": "平川市",
    "address1": "日沼李田",
    "address2": "",
    "regionKana": "アオモリケン",
    "localityKana": "ヒラカワシ",
    "address1Kana": "ヒヌマスモモダ",
    "address2Kana": ""
  },
  {
    "postalCode": "0360233",
    "regionId": 2,
    "region": "青森県",
    "locality": "平川市",
    "address1": "日沼高田",
    "address2": "",
    "regionKana": "アオモリケン",
    "localityKana": "ヒラカワシ",
    "address1Kana": "ヒヌマタカダ",
    "address2Kana": ""
  },
  {
    "postalCode": "0360233",
    "regionId": 2,
    "region": "青森県",
    "locality": "平川市",
    "address1": "日沼塚越",
    "address2": "",
    "regionKana": "アオモリケン",
    "localityKana": "ヒラカワシ",
    "address1Kana": "ヒヌマツカゴシ",
    "address2Kana": ""
  },
  {
    "postalCode": "0360233",
    "regionId": 2,
    "region": "青森県",
    "locality": "平川市",
    "address1": "日沼樋田",
    "address2": "",
    "regionKana": "アオモリケン",
    "localityKana": "ヒラカワシ",
    "address1Kana": "ヒヌマトイダ",
    "address2Kana": ""
  },
  {
    "postalCode": "0360233",
    "regionId": 2,
    "region": "青森県",
    "locality": "平川市",
    "address1": "日沼富田",
    "address2": "",
    "regionKana": "アオモリケン",
    "localityKana": "ヒラカワシ",
    "address1Kana": "ヒヌマトミタ",
    "address2Kana": ""
  },
  {
    "postalCode": "0360233",
    "regionId": 2,
    "region": "青森県",
    "locality": "平川市",
    "address1": "日沼富岳",
    "address2": "",
    "regionKana": "アオモリケン",
    "localityKana": "ヒラカワシ",
    "address1Kana": "ヒヌマトミタケ",
    "address2Kana": ""
  }
]