[
  {
    "postalCode": "0360242",
    "regionId": 2,
    "region": "青森県",
    "locality": "平川市",
    "address1": "猿賀浅井",
    "address2": "",
    "regionKana": "アオモリケン",
    "localityKana": "ヒラカワシ",
    "address1Kana": "サルカアサイ",
    "address2Kana": ""
  },
  {
    "postalCode": "0360242",
    "regionId": 2,
    "region": "青森県",
    "locality": "平川市",
    "address1": "猿賀浅田",
    "address2": "",
    "regionKana": "アオモリケン",
    "localityKana": "ヒラカワシ",
    "address1Kana": "サルカアサダ",
    "address2Kana": ""
  },
  {
    "postalCode": "0360242",
    "regionId": 2,
    "region": "青森県",
    "locality": "平川市",
    "address1": "猿賀池上",
    "address2": "",
    "regionKana": "アオモリケン",
    "localityKana": "ヒラカワシ",
    "address1Kana": "サルカイケガミ",
    "address2Kana": ""
  },
  {
    "postalCode": "0360242",
    "regionId": 2,
    "region": "青森県",
    "locality": "平川市",
    "address1": "猿賀池田",
    "address2": "",
    "regionKana": "アオモリケン",
    "localityKana": "ヒラカワシ",
    "address1Kana": "サルカイケダ",
    "address2Kana": ""
  },
  {
    "postalCode": "0360242",
    "regionId": 2,
    "region": "青森県",
    "locality": "平川市",
    "address1": "猿賀石林",
    "address2": "",
    "regionKana": "アオモリケン",
    "localityKana": "ヒラカワシ",
    "address1Kana": "サルカイシバヤシ",
    "address2Kana": ""
  },
  {
    "postalCode": "0360242",
    "regionId": 2,
    "region": "青森県",
    "locality": "平川市",
    "address1": "猿賀上岡",
    "address2": "",
    "regionKana": "アオモリケン",
    "localityKana": "ヒラカワシ",
    "address1Kana": "サルカカミオカ",
    "address2Kana": ""
  },
  {
    "postalCode": "0360242",
    "regionId": 2,
    "region": "青森県",
    "locality": "平川市",
    "address1": "猿賀上川",
    "address2": "",
    "regionKana": "アオモリケン",
    "localityKana": "ヒラカワシ",
    "address1Kana": "サルカカミカワ",
    "address2Kana": ""
  },
  {
    "postalCode": "0360242",
    "regionId": 2,
    "region": "青森県",
    "locality": "平川市",
    "address1": "猿賀下岡",
    "address2": "",
    "regionKana": "アオモリケン",
    "localityKana": "ヒラカワシ",
    "address1Kana": "サルカシモオカ",
    "address2Kana": ""
  },
  {
    "postalCode": "0360242",
    "regionId": 2,
    "region": "青森県",
    "locality": "平川市",
    "address1": "猿賀下川",
    "address2": "",
    "regionKana": "アオモリケン",
    "localityKana": "ヒラカワシ",
    "address1Kana": "サルカシモカワ",
    "address2Kana": ""
  },
  {
    "postalCode": "0360242",
    "regionId": 2,
    "region": "青森県",
    "locality": "平川市",
    "address1": "猿賀下野",
    "address2": "",
    "regionKana": "アオモリケン",
    "localityKana": "ヒラカワシ",
    "address1Kana": "サルカシモノ",
    "address2Kana": ""
  },
  {
    "postalCode": "0360242",
    "regionId": 2,
    "region": "青森県",
    "locality": "平川市",
    "address1": "猿賀遠林",
    "address2": "",
    "regionKana": "アオモリケン",
    "localityKana": "ヒラカワシ",
    "address1Kana": "サルカトオバヤシ",
    "address2Kana": ""
  },
  {
    "postalCode": "0360242",
    "regionId": 2,
    "region": "青森県",
    "locality": "平川市",
    "address1": "猿賀富岡",
    "address2": "",
    "regionKana": "アオモリケン",
    "localityKana": "ヒラカワシ",
    "address1Kana": "サルカトミオカ",
    "address2Kana": ""
  },
  {
    "postalCode": "0360242",
    "regionId": 2,
    "region": "青森県",
    "locality": "平川市",
    "address1": "猿賀平塚",
    "address2": "",
    "regionKana": "アオモリケン",
    "localityKana": "ヒラカワシ",
    "address1Kana": "サルカヒラツカ",
    "address2Kana": ""
  },
  {
    "postalCode": "0360242",
    "regionId": 2,
    "region": "青森県",
    "locality": "平川市",
    "address1": "猿賀松枝",
    "address2": "",
    "regionKana": "アオモリケン",
    "localityKana": "ヒラカワシ",
    "address1Kana": "サルカマツエダ",
    "address2Kana": ""
  },
  {
    "postalCode": "0360242",
    "regionId": 2,
    "region": "青森県",
    "locality": "平川市",
    "address1": "猿賀南田",
    "address2": "",
    "regionKana": "アオモリケン",
    "localityKana": "ヒラカワシ",
    "address1Kana": "サルカミナミタ",
    "address2Kana": ""
  },
  {
    "postalCode": "0360242",
    "regionId": 2,
    "region": "青森県",
    "locality": "平川市",
    "address1": "猿賀南野",
    "address2": "",
    "regionKana": "アオモリケン",
    "localityKana": "ヒラカワシ",
    "address1Kana": "サルカミナミノ",
    "address2Kana": ""
  },
  {
    "postalCode": "0360242",
    "regionId": 2,
    "region": "青森県",
    "locality": "平川市",
    "address1": "猿賀明堂",
    "address2": "",
    "regionKana": "アオモリケン",
    "localityKana": "ヒラカワシ",
    "address1Kana": "サルカミョウドウ",
    "address2Kana": ""
  },
  {
    "postalCode": "0360242",
    "regionId": 2,
    "region": "青森県",
    "locality": "平川市",
    "address1": "猿賀安岡",
    "address2": "",
    "regionKana": "アオモリケン",
    "localityKana": "ヒラカワシ",
    "address1Kana": "サルカヤスオカ",
    "address2Kana": ""
  },
  {
    "postalCode": "0360242",
    "regionId": 2,
    "region": "青森県",
    "locality": "平川市",
    "address1": "猿賀安田",
    "address2": "",
    "regionKana": "アオモリケン",
    "localityKana": "ヒラカワシ",
    "address1Kana": "サルカヤスタ",
    "address2Kana": ""
  }
]