[
  {
    "postalCode": "0380101",
    "regionId": 2,
    "region": "青森県",
    "locality": "平川市",
    "address1": "碇ケ関",
    "address2": "",
    "regionKana": "アオモリケン",
    "localityKana": "ヒラカワシ",
    "address1Kana": "イカリガセキ",
    "address2Kana": ""
  },
  {
    "postalCode": "0380101",
    "regionId": 2,
    "region": "青森県",
    "locality": "平川市",
    "address1": "碇ケ関相沢",
    "address2": "",
    "regionKana": "アオモリケン",
    "localityKana": "ヒラカワシ",
    "address1Kana": "イカリガセキアイザワ",
    "address2Kana": ""
  },
  {
    "postalCode": "0380101",
    "regionId": 2,
    "region": "青森県",
    "locality": "平川市",
    "address1": "碇ケ関阿原",
    "address2": "",
    "regionKana": "アオモリケン",
    "localityKana": "ヒラカワシ",
    "address1Kana": "イカリガセキアバラ",
    "address2Kana": ""
  },
  {
    "postalCode": "0380101",
    "regionId": 2,
    "region": "青森県",
    "locality": "平川市",
    "address1": "碇ケ関雷林",
    "address2": "",
    "regionKana": "アオモリケン",
    "localityKana": "ヒラカワシ",
    "address1Kana": "イカリガセキイカズチバヤシ",
    "address2Kana": ""
  },
  {
    "postalCode": "0380101",
    "regionId": 2,
    "region": "青森県",
    "locality": "平川市",
    "address1": "碇ケ関碇石",
    "address2": "",
    "regionKana": "アオモリケン",
    "localityKana": "ヒラカワシ",
    "address1Kana": "イカリガセキイカリイシ",
    "address2Kana": ""
  },
  {
    "postalCode": "0380101",
    "regionId": 2,
    "region": "青森県",
    "locality": "平川市",
    "address1": "碇ケ関岩井",
    "address2": "",
    "regionKana": "アオモリケン",
    "localityKana": "ヒラカワシ",
    "address1Kana": "イカリガセキイワイ",
    "address2Kana": ""
  },
  {
    "postalCode": "0380101",
    "regionId": 2,
    "region": "青森県",
    "locality": "平川市",
    "address1": "碇ケ関大葉平",
    "address2": "",
    "regionKana": "アオモリケン",
    "localityKana": "ヒラカワシ",
    "address1Kana": "イカリガセキオオバダイラ",
    "address2Kana": ""
  },
  {
    "postalCode": "0380101",
    "regionId": 2,
    "region": "青森県",
    "locality": "平川市",
    "address1": "碇ケ関大落前",
    "address2": "",
    "regionKana": "アオモリケン",
    "localityKana": "ヒラカワシ",
    "address1Kana": "イカリガセキオオラクマエ",
    "address2Kana": ""
  },
  {
    "postalCode": "0380101",
    "regionId": 2,
    "region": "青森県",
    "locality": "平川市",
    "address1": "碇ケ関折橋",
    "address2": "",
    "regionKana": "アオモリケン",
    "localityKana": "ヒラカワシ",
    "address1Kana": "イカリガセキオリハシ",
    "address2Kana": ""
  },
  {
    "postalCode": "0380101",
    "regionId": 2,
    "region": "青森県",
    "locality": "平川市",
    "address1": "碇ケ関鯨森",
    "address2": "",
    "regionKana": "アオモリケン",
    "localityKana": "ヒラカワシ",
    "address1Kana": "イカリガセキクジラモリ",
    "address2Kana": ""
  },
  {
    "postalCode": "0380101",
    "regionId": 2,
    "region": "青森県",
    "locality": "平川市",
    "address1": "碇ケ関小落前",
    "address2": "",
    "regionKana": "アオモリケン",
    "localityKana": "ヒラカワシ",
    "address1Kana": "イカリガセキコラクマエ",
    "address2Kana": ""
  },
  {
    "postalCode": "0380101",
    "regionId": 2,
    "region": "青森県",
    "locality": "平川市",
    "address1": "碇ケ関山神堂",
    "address2": "",
    "regionKana": "アオモリケン",
    "localityKana": "ヒラカワシ",
    "address1Kana": "イカリガセキサンジンドウ",
    "address2Kana": ""
  },
  {
    "postalCode": "0380101",
    "regionId": 2,
    "region": "青森県",
    "locality": "平川市",
    "address1": "碇ケ関白沢",
    "address2": "",
    "regionKana": "アオモリケン",
    "localityKana": "ヒラカワシ",
    "address1Kana": "イカリガセキシラサワ",
    "address2Kana": ""
  },
  {
    "postalCode": "0380101",
    "regionId": 2,
    "region": "青森県",
    "locality": "平川市",
    "address1": "碇ケ関諏訪平",
    "address2": "",
    "regionKana": "アオモリケン",
    "localityKana": "ヒラカワシ",
    "address1Kana": "イカリガセキスワダイラ",
    "address2Kana": ""
  },
  {
    "postalCode": "0380101",
    "regionId": 2,
    "region": "青森県",
    "locality": "平川市",
    "address1": "碇ケ関外白沢",
    "address2": "",
    "regionKana": "アオモリケン",
    "localityKana": "ヒラカワシ",
    "address1Kana": "イカリガセキソトシラサワ",
    "address2Kana": ""
  },
  {
    "postalCode": "0380101",
    "regionId": 2,
    "region": "青森県",
    "locality": "平川市",
    "address1": "碇ケ関高田",
    "address2": "",
    "regionKana": "アオモリケン",
    "localityKana": "ヒラカワシ",
    "address1Kana": "イカリガセキタカダ",
    "address2Kana": ""
  },
  {
    "postalCode": "0380101",
    "regionId": 2,
    "region": "青森県",
    "locality": "平川市",
    "address1": "碇ケ関樋ケ沢",
    "address2": "",
    "regionKana": "アオモリケン",
    "localityKana": "ヒラカワシ",
    "address1Kana": "イカリガセキトイガサワ",
    "address2Kana": ""
  },
  {
    "postalCode": "0380101",
    "regionId": 2,
    "region": "青森県",
    "locality": "平川市",
    "address1": "碇ケ関西碇ケ関山",
    "address2": "",
    "regionKana": "アオモリケン",
    "localityKana": "ヒラカワシ",
    "address1Kana": "イカリガセキニシイカリガセキヤマ",
    "address2Kana": ""
  },
  {
    "postalCode": "0380101",
    "regionId": 2,
    "region": "青森県",
    "locality": "平川市",
    "address1": "碇ケ関東碇ケ関山",
    "address2": "",
    "regionKana": "アオモリケン",
    "localityKana": "ヒラカワシ",
    "address1Kana": "イカリガセキヒガシイカリガセキヤマ",
    "address2Kana": ""
  },
  {
    "postalCode": "0380101",
    "regionId": 2,
    "region": "青森県",
    "locality": "平川市",
    "address1": "碇ケ関樋ノ口",
    "address2": "",
    "regionKana": "アオモリケン",
    "localityKana": "ヒラカワシ",
    "address1Kana": "イカリガセキヒノクチ",
    "address2Kana": ""
  },
  {
    "postalCode": "0380101",
    "regionId": 2,
    "region": "青森県",
    "locality": "平川市",
    "address1": "碇ケ関船岡",
    "address2": "",
    "regionKana": "アオモリケン",
    "localityKana": "ヒラカワシ",
    "address1Kana": "イカリガセキフナオカ",
    "address2Kana": ""
  },
  {
    "postalCode": "0380101",
    "regionId": 2,
    "region": "青森県",
    "locality": "平川市",
    "address1": "碇ケ関踏田切",
    "address2": "",
    "regionKana": "アオモリケン",
    "localityKana": "ヒラカワシ",
    "address1Kana": "イカリガセキフミタギリ",
    "address2Kana": ""
  },
  {
    "postalCode": "0380101",
    "regionId": 2,
    "region": "青森県",
    "locality": "平川市",
    "address1": "碇ケ関三笠山",
    "address2": "",
    "regionKana": "アオモリケン",
    "localityKana": "ヒラカワシ",
    "address1Kana": "イカリガセキミカサヤマ",
    "address2Kana": ""
  },
  {
    "postalCode": "0380101",
    "regionId": 2,
    "region": "青森県",
    "locality": "平川市",
    "address1": "碇ケ関水溜",
    "address2": "",
    "regionKana": "アオモリケン",
    "localityKana": "ヒラカワシ",
    "address1Kana": "イカリガセキミズタメ",
    "address2Kana": ""
  },
  {
    "postalCode": "0380101",
    "regionId": 2,
    "region": "青森県",
    "locality": "平川市",
    "address1": "碇ケ関湯向川添",
    "address2": "",
    "regionKana": "アオモリケン",
    "localityKana": "ヒラカワシ",
    "address1Kana": "イカリガセキユムカイカワゾエ",
    "address2Kana": ""
  },
  {
    "postalCode": "0380101",
    "regionId": 2,
    "region": "青森県",
    "locality": "平川市",
    "address1": "碇ケ関横町",
    "address2": "",
    "regionKana": "アオモリケン",
    "localityKana": "ヒラカワシ",
    "address1Kana": "イカリガセキヨコマチ",
    "address2Kana": ""
  }
]