[
  {
    "postalCode": "0380102",
    "regionId": 2,
    "region": "青森県",
    "locality": "平川市",
    "address1": "碇ケ関古懸上程森",
    "address2": "",
    "regionKana": "アオモリケン",
    "localityKana": "ヒラカワシ",
    "address1Kana": "イカリガセキコガケカミホドモリ",
    "address2Kana": ""
  },
  {
    "postalCode": "0380102",
    "regionId": 2,
    "region": "青森県",
    "locality": "平川市",
    "address1": "碇ケ関古懸沢田",
    "address2": "",
    "regionKana": "アオモリケン",
    "localityKana": "ヒラカワシ",
    "address1Kana": "イカリガセキコガケサワダ",
    "address2Kana": ""
  },
  {
    "postalCode": "0380102",
    "regionId": 2,
    "region": "青森県",
    "locality": "平川市",
    "address1": "碇ケ関古懸樋ケ沢",
    "address2": "",
    "regionKana": "アオモリケン",
    "localityKana": "ヒラカワシ",
    "address1Kana": "イカリガセキコガケトイガサワ",
    "address2Kana": ""
  },
  {
    "postalCode": "0380102",
    "regionId": 2,
    "region": "青森県",
    "locality": "平川市",
    "address1": "碇ケ関古懸堂ノ上",
    "address2": "",
    "regionKana": "アオモリケン",
    "localityKana": "ヒラカワシ",
    "address1Kana": "イカリガセキコガケドウノウエ",
    "address2Kana": ""
  },
  {
    "postalCode": "0380102",
    "regionId": 2,
    "region": "青森県",
    "locality": "平川市",
    "address1": "碇ケ関古懸鳥井",
    "address2": "",
    "regionKana": "アオモリケン",
    "localityKana": "ヒラカワシ",
    "address1Kana": "イカリガセキコガケトリイ",
    "address2Kana": ""
  },
  {
    "postalCode": "0380102",
    "regionId": 2,
    "region": "青森県",
    "locality": "平川市",
    "address1": "碇ケ関古懸西不動野",
    "address2": "",
    "regionKana": "アオモリケン",
    "localityKana": "ヒラカワシ",
    "address1Kana": "イカリガセキコガケニシフドウノ",
    "address2Kana": ""
  },
  {
    "postalCode": "0380102",
    "regionId": 2,
    "region": "青森県",
    "locality": "平川市",
    "address1": "碇ケ関古懸東不動野",
    "address2": "",
    "regionKana": "アオモリケン",
    "localityKana": "ヒラカワシ",
    "address1Kana": "イカリガセキコガケヒガシフドウノ",
    "address2Kana": ""
  },
  {
    "postalCode": "0380102",
    "regionId": 2,
    "region": "青森県",
    "locality": "平川市",
    "address1": "碇ケ関古懸不動沢大石",
    "address2": "",
    "regionKana": "アオモリケン",
    "localityKana": "ヒラカワシ",
    "address1Kana": "イカリガセキコガケフドウサワオオイシ",
    "address2Kana": ""
  },
  {
    "postalCode": "0380102",
    "regionId": 2,
    "region": "青森県",
    "locality": "平川市",
    "address1": "碇ケ関古懸不動野",
    "address2": "",
    "regionKana": "アオモリケン",
    "localityKana": "ヒラカワシ",
    "address1Kana": "イカリガセキコガケフドウノ",
    "address2Kana": ""
  },
  {
    "postalCode": "0380102",
    "regionId": 2,
    "region": "青森県",
    "locality": "平川市",
    "address1": "碇ケ関古懸南不動野",
    "address2": "",
    "regionKana": "アオモリケン",
    "localityKana": "ヒラカワシ",
    "address1Kana": "イカリガセキコガケミナミフドウノ",
    "address2Kana": ""
  },
  {
    "postalCode": "0380102",
    "regionId": 2,
    "region": "青森県",
    "locality": "平川市",
    "address1": "碇ケ関古懸向安田",
    "address2": "",
    "regionKana": "アオモリケン",
    "localityKana": "ヒラカワシ",
    "address1Kana": "イカリガセキコガケムカイヤスダ",
    "address2Kana": ""
  },
  {
    "postalCode": "0380102",
    "regionId": 2,
    "region": "青森県",
    "locality": "平川市",
    "address1": "碇ケ関古懸門前",
    "address2": "",
    "regionKana": "アオモリケン",
    "localityKana": "ヒラカワシ",
    "address1Kana": "イカリガセキコガケモンゼン",
    "address2Kana": ""
  },
  {
    "postalCode": "0380102",
    "regionId": 2,
    "region": "青森県",
    "locality": "平川市",
    "address1": "碇ケ関古懸門前屋岸",
    "address2": "",
    "regionKana": "アオモリケン",
    "localityKana": "ヒラカワシ",
    "address1Kana": "イカリガセキコガケモンゼンヤギシ",
    "address2Kana": ""
  },
  {
    "postalCode": "0380102",
    "regionId": 2,
    "region": "青森県",
    "locality": "平川市",
    "address1": "碇ケ関古懸安田",
    "address2": "",
    "regionKana": "アオモリケン",
    "localityKana": "ヒラカワシ",
    "address1Kana": "イカリガセキコガケヤスタ",
    "address2Kana": ""
  }
]