[
  {
    "postalCode": "4520961",
    "regionId": 23,
    "region": "愛知県",
    "locality": "清須市",
    "address1": "春日明河原",
    "address2": "",
    "regionKana": "アイチケン",
    "localityKana": "キヨスシ",
    "address1Kana": "ハルヒアケガワラ",
    "address2Kana": ""
  },
  {
    "postalCode": "4520961",
    "regionId": 23,
    "region": "愛知県",
    "locality": "清須市",
    "address1": "春日一番割",
    "address2": "",
    "regionKana": "アイチケン",
    "localityKana": "キヨスシ",
    "address1Kana": "ハルヒイチバンワリ",
    "address2Kana": ""
  },
  {
    "postalCode": "4520961",
    "regionId": 23,
    "region": "愛知県",
    "locality": "清須市",
    "address1": "春日壱屋敷",
    "address2": "",
    "regionKana": "アイチケン",
    "localityKana": "キヨスシ",
    "address1Kana": "ハルヒイチヤシキ",
    "address2Kana": ""
  },
  {
    "postalCode": "4520961",
    "regionId": 23,
    "region": "愛知県",
    "locality": "清須市",
    "address1": "春日一本松",
    "address2": "",
    "regionKana": "アイチケン",
    "localityKana": "キヨスシ",
    "address1Kana": "ハルヒイッポンマツ",
    "address2Kana": ""
  },
  {
    "postalCode": "4520961",
    "regionId": 23,
    "region": "愛知県",
    "locality": "清須市",
    "address1": "春日稲荷",
    "address2": "",
    "regionKana": "アイチケン",
    "localityKana": "キヨスシ",
    "address1Kana": "ハルヒイナリ",
    "address2Kana": ""
  },
  {
    "postalCode": "4520961",
    "regionId": 23,
    "region": "愛知県",
    "locality": "清須市",
    "address1": "春日杁前",
    "address2": "",
    "regionKana": "アイチケン",
    "localityKana": "キヨスシ",
    "address1Kana": "ハルヒイリマエ",
    "address2Kana": ""
  },
  {
    "postalCode": "4520961",
    "regionId": 23,
    "region": "愛知県",
    "locality": "清須市",
    "address1": "春日午",
    "address2": "",
    "regionKana": "アイチケン",
    "localityKana": "キヨスシ",
    "address1Kana": "ハルヒウマ",
    "address2Kana": ""
  },
  {
    "postalCode": "4520961",
    "regionId": 23,
    "region": "愛知県",
    "locality": "清須市",
    "address1": "春日落合",
    "address2": "",
    "regionKana": "アイチケン",
    "localityKana": "キヨスシ",
    "address1Kana": "ハルヒオチアイ",
    "address2Kana": ""
  },
  {
    "postalCode": "4520961",
    "regionId": 23,
    "region": "愛知県",
    "locality": "清須市",
    "address1": "春日上丑",
    "address2": "",
    "regionKana": "アイチケン",
    "localityKana": "キヨスシ",
    "address1Kana": "ハルヒカミウシ",
    "address2Kana": ""
  },
  {
    "postalCode": "4520961",
    "regionId": 23,
    "region": "愛知県",
    "locality": "清須市",
    "address1": "春日上川畑",
    "address2": "",
    "regionKana": "アイチケン",
    "localityKana": "キヨスシ",
    "address1Kana": "ハルヒカミカワバタ",
    "address2Kana": ""
  },
  {
    "postalCode": "4520961",
    "regionId": 23,
    "region": "愛知県",
    "locality": "清須市",
    "address1": "春日上河原",
    "address2": "",
    "regionKana": "アイチケン",
    "localityKana": "キヨスシ",
    "address1Kana": "ハルヒカミガワラ",
    "address2Kana": ""
  },
  {
    "postalCode": "4520961",
    "regionId": 23,
    "region": "愛知県",
    "locality": "清須市",
    "address1": "春日上須ケ田",
    "address2": "",
    "regionKana": "アイチケン",
    "localityKana": "キヨスシ",
    "address1Kana": "ハルヒカミスカタ",
    "address2Kana": ""
  },
  {
    "postalCode": "4520961",
    "regionId": 23,
    "region": "愛知県",
    "locality": "清須市",
    "address1": "春日上高畑",
    "address2": "",
    "regionKana": "アイチケン",
    "localityKana": "キヨスシ",
    "address1Kana": "ハルヒカミタカバタ",
    "address2Kana": ""
  },
  {
    "postalCode": "4520961",
    "regionId": 23,
    "region": "愛知県",
    "locality": "清須市",
    "address1": "春日上堤クロ",
    "address2": "",
    "regionKana": "アイチケン",
    "localityKana": "キヨスシ",
    "address1Kana": "ハルヒカミツツミクロ",
    "address2Kana": ""
  },
  {
    "postalCode": "4520961",
    "regionId": 23,
    "region": "愛知県",
    "locality": "清須市",
    "address1": "春日上中割",
    "address2": "",
    "regionKana": "アイチケン",
    "localityKana": "キヨスシ",
    "address1Kana": "ハルヒカミナカワリ",
    "address2Kana": ""
  },
  {
    "postalCode": "4520961",
    "regionId": 23,
    "region": "愛知県",
    "locality": "清須市",
    "address1": "春日河原",
    "address2": "",
    "regionKana": "アイチケン",
    "localityKana": "キヨスシ",
    "address1Kana": "ハルヒカワラ",
    "address2Kana": ""
  },
  {
    "postalCode": "4520961",
    "regionId": 23,
    "region": "愛知県",
    "locality": "清須市",
    "address1": "春日桑",
    "address2": "",
    "regionKana": "アイチケン",
    "localityKana": "キヨスシ",
    "address1Kana": "ハルヒクワ",
    "address2Kana": ""
  },
  {
    "postalCode": "4520961",
    "regionId": 23,
    "region": "愛知県",
    "locality": "清須市",
    "address1": "春日郷裏",
    "address2": "",
    "regionKana": "アイチケン",
    "localityKana": "キヨスシ",
    "address1Kana": "ハルヒゴウウラ",
    "address2Kana": ""
  },
  {
    "postalCode": "4520961",
    "regionId": 23,
    "region": "愛知県",
    "locality": "清須市",
    "address1": "春日郷前",
    "address2": "",
    "regionKana": "アイチケン",
    "localityKana": "キヨスシ",
    "address1Kana": "ハルヒゴウマエ",
    "address2Kana": ""
  },
  {
    "postalCode": "4520961",
    "regionId": 23,
    "region": "愛知県",
    "locality": "清須市",
    "address1": "春日小塚西",
    "address2": "",
    "regionKana": "アイチケン",
    "localityKana": "キヨスシ",
    "address1Kana": "ハルヒコヅカニシ",
    "address2Kana": ""
  },
  {
    "postalCode": "4520961",
    "regionId": 23,
    "region": "愛知県",
    "locality": "清須市",
    "address1": "春日小塚南",
    "address2": "",
    "regionKana": "アイチケン",
    "localityKana": "キヨスシ",
    "address1Kana": "ハルヒコヅカミナミ",
    "address2Kana": ""
  },
  {
    "postalCode": "4520961",
    "regionId": 23,
    "region": "愛知県",
    "locality": "清須市",
    "address1": "春日小松生",
    "address2": "",
    "regionKana": "アイチケン",
    "localityKana": "キヨスシ",
    "address1Kana": "ハルヒコマツバエ",
    "address2Kana": ""
  },
  {
    "postalCode": "4520961",
    "regionId": 23,
    "region": "愛知県",
    "locality": "清須市",
    "address1": "春日三番割",
    "address2": "",
    "regionKana": "アイチケン",
    "localityKana": "キヨスシ",
    "address1Kana": "ハルヒサンバンワリ",
    "address2Kana": ""
  },
  {
    "postalCode": "4520961",
    "regionId": 23,
    "region": "愛知県",
    "locality": "清須市",
    "address1": "春日下丑",
    "address2": "",
    "regionKana": "アイチケン",
    "localityKana": "キヨスシ",
    "address1Kana": "ハルヒシモウシ",
    "address2Kana": ""
  },
  {
    "postalCode": "4520961",
    "regionId": 23,
    "region": "愛知県",
    "locality": "清須市",
    "address1": "春日下河原",
    "address2": "",
    "regionKana": "アイチケン",
    "localityKana": "キヨスシ",
    "address1Kana": "ハルヒシモガワラ",
    "address2Kana": ""
  },
  {
    "postalCode": "4520961",
    "regionId": 23,
    "region": "愛知県",
    "locality": "清須市",
    "address1": "春日下堤クロ",
    "address2": "",
    "regionKana": "アイチケン",
    "localityKana": "キヨスシ",
    "address1Kana": "ハルヒシモツツミクロ",
    "address2Kana": ""
  },
  {
    "postalCode": "4520961",
    "regionId": 23,
    "region": "愛知県",
    "locality": "清須市",
    "address1": "春日下中割",
    "address2": "",
    "regionKana": "アイチケン",
    "localityKana": "キヨスシ",
    "address1Kana": "ハルヒシモナカワリ",
    "address2Kana": ""
  },
  {
    "postalCode": "4520961",
    "regionId": 23,
    "region": "愛知県",
    "locality": "清須市",
    "address1": "春日定ノ割",
    "address2": "",
    "regionKana": "アイチケン",
    "localityKana": "キヨスシ",
    "address1Kana": "ハルヒジョウノワリ",
    "address2Kana": ""
  },
  {
    "postalCode": "4520961",
    "regionId": 23,
    "region": "愛知県",
    "locality": "清須市",
    "address1": "春日新田畑",
    "address2": "",
    "regionKana": "アイチケン",
    "localityKana": "キヨスシ",
    "address1Kana": "ハルヒシンデンバタ",
    "address2Kana": ""
  },
  {
    "postalCode": "4520961",
    "regionId": 23,
    "region": "愛知県",
    "locality": "清須市",
    "address1": "春日新堀",
    "address2": "",
    "regionKana": "アイチケン",
    "localityKana": "キヨスシ",
    "address1Kana": "ハルヒシンボリ",
    "address2Kana": ""
  },
  {
    "postalCode": "4520961",
    "regionId": 23,
    "region": "愛知県",
    "locality": "清須市",
    "address1": "春日新堀北",
    "address2": "",
    "regionKana": "アイチケン",
    "localityKana": "キヨスシ",
    "address1Kana": "ハルヒシンボリキタ",
    "address2Kana": ""
  },
  {
    "postalCode": "4520961",
    "regionId": 23,
    "region": "愛知県",
    "locality": "清須市",
    "address1": "春日須ケ田",
    "address2": "",
    "regionKana": "アイチケン",
    "localityKana": "キヨスシ",
    "address1Kana": "ハルヒスカタ",
    "address2Kana": ""
  },
  {
    "postalCode": "4520961",
    "regionId": 23,
    "region": "愛知県",
    "locality": "清須市",
    "address1": "春日須ケ畑",
    "address2": "",
    "regionKana": "アイチケン",
    "localityKana": "キヨスシ",
    "address1Kana": "ハルヒスカバタ",
    "address2Kana": ""
  },
  {
    "postalCode": "4520961",
    "regionId": 23,
    "region": "愛知県",
    "locality": "清須市",
    "address1": "春日大河戸",
    "address2": "",
    "regionKana": "アイチケン",
    "localityKana": "キヨスシ",
    "address1Kana": "ハルヒタイコウド",
    "address2Kana": ""
  },
  {
    "postalCode": "4520961",
    "regionId": 23,
    "region": "愛知県",
    "locality": "清須市",
    "address1": "春日高畑",
    "address2": "",
    "regionKana": "アイチケン",
    "localityKana": "キヨスシ",
    "address1Kana": "ハルヒタカバタ",
    "address2Kana": ""
  },
  {
    "postalCode": "4520961",
    "regionId": 23,
    "region": "愛知県",
    "locality": "清須市",
    "address1": "春日堤クロ",
    "address2": "",
    "regionKana": "アイチケン",
    "localityKana": "キヨスシ",
    "address1Kana": "ハルヒツツミクロ",
    "address2Kana": ""
  },
  {
    "postalCode": "4520961",
    "regionId": 23,
    "region": "愛知県",
    "locality": "清須市",
    "address1": "春日寺廻り",
    "address2": "",
    "regionKana": "アイチケン",
    "localityKana": "キヨスシ",
    "address1Kana": "ハルヒテラマワリ",
    "address2Kana": ""
  },
  {
    "postalCode": "4520961",
    "regionId": 23,
    "region": "愛知県",
    "locality": "清須市",
    "address1": "春日樋",
    "address2": "",
    "regionKana": "アイチケン",
    "localityKana": "キヨスシ",
    "address1Kana": "ハルヒトイ",
    "address2Kana": ""
  },
  {
    "postalCode": "4520961",
    "regionId": 23,
    "region": "愛知県",
    "locality": "清須市",
    "address1": "春日酉",
    "address2": "",
    "regionKana": "アイチケン",
    "localityKana": "キヨスシ",
    "address1Kana": "ハルヒトリ",
    "address2Kana": ""
  },
  {
    "postalCode": "4520961",
    "regionId": 23,
    "region": "愛知県",
    "locality": "清須市",
    "address1": "春日中河原",
    "address2": "",
    "regionKana": "アイチケン",
    "localityKana": "キヨスシ",
    "address1Kana": "ハルヒナカガワラ",
    "address2Kana": ""
  },
  {
    "postalCode": "4520961",
    "regionId": 23,
    "region": "愛知県",
    "locality": "清須市",
    "address1": "春日長畑",
    "address2": "",
    "regionKana": "アイチケン",
    "localityKana": "キヨスシ",
    "address1Kana": "ハルヒナガハタ",
    "address2Kana": ""
  },
  {
    "postalCode": "4520961",
    "regionId": 23,
    "region": "愛知県",
    "locality": "清須市",
    "address1": "春日西須ケ畑",
    "address2": "",
    "regionKana": "アイチケン",
    "localityKana": "キヨスシ",
    "address1Kana": "ハルヒニシスカバタ",
    "address2Kana": ""
  },
  {
    "postalCode": "4520961",
    "regionId": 23,
    "region": "愛知県",
    "locality": "清須市",
    "address1": "春日西牧前",
    "address2": "",
    "regionKana": "アイチケン",
    "localityKana": "キヨスシ",
    "address1Kana": "ハルヒニシマキマエ",
    "address2Kana": ""
  },
  {
    "postalCode": "4520961",
    "regionId": 23,
    "region": "愛知県",
    "locality": "清須市",
    "address1": "春日西牧南",
    "address2": "",
    "regionKana": "アイチケン",
    "localityKana": "キヨスシ",
    "address1Kana": "ハルヒニシマキミナミ",
    "address2Kana": ""
  },
  {
    "postalCode": "4520961",
    "regionId": 23,
    "region": "愛知県",
    "locality": "清須市",
    "address1": "春日西余部",
    "address2": "",
    "regionKana": "アイチケン",
    "localityKana": "キヨスシ",
    "address1Kana": "ハルヒニシヨベ",
    "address2Kana": ""
  },
  {
    "postalCode": "4520961",
    "regionId": 23,
    "region": "愛知県",
    "locality": "清須市",
    "address1": "春日二番割",
    "address2": "",
    "regionKana": "アイチケン",
    "localityKana": "キヨスシ",
    "address1Kana": "ハルヒニバンワリ",
    "address2Kana": ""
  },
  {
    "postalCode": "4520961",
    "regionId": 23,
    "region": "愛知県",
    "locality": "清須市",
    "address1": "春日弐屋敷",
    "address2": "",
    "regionKana": "アイチケン",
    "localityKana": "キヨスシ",
    "address1Kana": "ハルヒニヤシキ",
    "address2Kana": ""
  },
  {
    "postalCode": "4520961",
    "regionId": 23,
    "region": "愛知県",
    "locality": "清須市",
    "address1": "春日野方",
    "address2": "",
    "regionKana": "アイチケン",
    "localityKana": "キヨスシ",
    "address1Kana": "ハルヒノカタ",
    "address2Kana": ""
  },
  {
    "postalCode": "4520961",
    "regionId": 23,
    "region": "愛知県",
    "locality": "清須市",
    "address1": "春日八幡",
    "address2": "",
    "regionKana": "アイチケン",
    "localityKana": "キヨスシ",
    "address1Kana": "ハルヒハチマン",
    "address2Kana": ""
  },
  {
    "postalCode": "4520961",
    "regionId": 23,
    "region": "愛知県",
    "locality": "清須市",
    "address1": "春日八幡裏",
    "address2": "",
    "regionKana": "アイチケン",
    "localityKana": "キヨスシ",
    "address1Kana": "ハルヒハチマンウラ",
    "address2Kana": ""
  },
  {
    "postalCode": "4520961",
    "regionId": 23,
    "region": "愛知県",
    "locality": "清須市",
    "address1": "春日八幡前",
    "address2": "",
    "regionKana": "アイチケン",
    "localityKana": "キヨスシ",
    "address1Kana": "ハルヒハチマンマエ",
    "address2Kana": ""
  },
  {
    "postalCode": "4520961",
    "regionId": 23,
    "region": "愛知県",
    "locality": "清須市",
    "address1": "春日八幡南",
    "address2": "",
    "regionKana": "アイチケン",
    "localityKana": "キヨスシ",
    "address1Kana": "ハルヒハチマンミナミ",
    "address2Kana": ""
  },
  {
    "postalCode": "4520961",
    "regionId": 23,
    "region": "愛知県",
    "locality": "清須市",
    "address1": "春日東小塚",
    "address2": "",
    "regionKana": "アイチケン",
    "localityKana": "キヨスシ",
    "address1Kana": "ハルヒヒガシコヅカ",
    "address2Kana": ""
  },
  {
    "postalCode": "4520961",
    "regionId": 23,
    "region": "愛知県",
    "locality": "清須市",
    "address1": "春日東須ケ畑",
    "address2": "",
    "regionKana": "アイチケン",
    "localityKana": "キヨスシ",
    "address1Kana": "ハルヒヒガシスカバタ",
    "address2Kana": ""
  },
  {
    "postalCode": "4520961",
    "regionId": 23,
    "region": "愛知県",
    "locality": "清須市",
    "address1": "春日東出",
    "address2": "",
    "regionKana": "アイチケン",
    "localityKana": "キヨスシ",
    "address1Kana": "ハルヒヒガシデ",
    "address2Kana": ""
  },
  {
    "postalCode": "4520961",
    "regionId": 23,
    "region": "愛知県",
    "locality": "清須市",
    "address1": "春日二ツ池",
    "address2": "",
    "regionKana": "アイチケン",
    "localityKana": "キヨスシ",
    "address1Kana": "ハルヒフタツイケ",
    "address2Kana": ""
  },
  {
    "postalCode": "4520961",
    "regionId": 23,
    "region": "愛知県",
    "locality": "清須市",
    "address1": "春日振形",
    "address2": "",
    "regionKana": "アイチケン",
    "localityKana": "キヨスシ",
    "address1Kana": "ハルヒフリカタ",
    "address2Kana": ""
  },
  {
    "postalCode": "4520961",
    "regionId": 23,
    "region": "愛知県",
    "locality": "清須市",
    "address1": "春日堀田",
    "address2": "",
    "regionKana": "アイチケン",
    "localityKana": "キヨスシ",
    "address1Kana": "ハルヒホリタ",
    "address2Kana": ""
  },
  {
    "postalCode": "4520961",
    "regionId": 23,
    "region": "愛知県",
    "locality": "清須市",
    "address1": "春日宮越",
    "address2": "",
    "regionKana": "アイチケン",
    "localityKana": "キヨスシ",
    "address1Kana": "ハルヒミヤコシ",
    "address2Kana": ""
  },
  {
    "postalCode": "4520961",
    "regionId": 23,
    "region": "愛知県",
    "locality": "清須市",
    "address1": "春日宮重",
    "address2": "",
    "regionKana": "アイチケン",
    "localityKana": "キヨスシ",
    "address1Kana": "ハルヒミヤシゲ",
    "address2Kana": ""
  },
  {
    "postalCode": "4520961",
    "regionId": 23,
    "region": "愛知県",
    "locality": "清須市",
    "address1": "春日宮重町",
    "address2": "",
    "regionKana": "アイチケン",
    "localityKana": "キヨスシ",
    "address1Kana": "ハルヒミヤシゲマチ",
    "address2Kana": ""
  },
  {
    "postalCode": "4520961",
    "regionId": 23,
    "region": "愛知県",
    "locality": "清須市",
    "address1": "春日向河原",
    "address2": "",
    "regionKana": "アイチケン",
    "localityKana": "キヨスシ",
    "address1Kana": "ハルヒムコウガワラ",
    "address2Kana": ""
  },
  {
    "postalCode": "4520961",
    "regionId": 23,
    "region": "愛知県",
    "locality": "清須市",
    "address1": "春日屋敷",
    "address2": "",
    "regionKana": "アイチケン",
    "localityKana": "キヨスシ",
    "address1Kana": "ハルヒヤシキ",
    "address2Kana": ""
  },
  {
    "postalCode": "4520961",
    "regionId": 23,
    "region": "愛知県",
    "locality": "清須市",
    "address1": "春日夢の森",
    "address2": "",
    "regionKana": "アイチケン",
    "localityKana": "キヨスシ",
    "address1Kana": "ハルヒユメノモリ",
    "address2Kana": ""
  },
  {
    "postalCode": "4520961",
    "regionId": 23,
    "region": "愛知県",
    "locality": "清須市",
    "address1": "春日四番割",
    "address2": "",
    "regionKana": "アイチケン",
    "localityKana": "キヨスシ",
    "address1Kana": "ハルヒヨンバンワリ",
    "address2Kana": ""
  },
  {
    "postalCode": "4520961",
    "regionId": 23,
    "region": "愛知県",
    "locality": "清須市",
    "address1": "春日蓮花寺前",
    "address2": "",
    "regionKana": "アイチケン",
    "localityKana": "キヨスシ",
    "address1Kana": "ハルヒレンゲジマエ",
    "address2Kana": ""
  }
]