[
  {
    "postalCode": "4520962",
    "regionId": 23,
    "region": "愛知県",
    "locality": "清須市",
    "address1": "春日県",
    "address2": "",
    "regionKana": "アイチケン",
    "localityKana": "キヨスシ",
    "address1Kana": "ハルヒアガタ",
    "address2Kana": ""
  },
  {
    "postalCode": "4520962",
    "regionId": 23,
    "region": "愛知県",
    "locality": "清須市",
    "address1": "春日江先",
    "address2": "",
    "regionKana": "アイチケン",
    "localityKana": "キヨスシ",
    "address1Kana": "ハルヒエサキ",
    "address2Kana": ""
  },
  {
    "postalCode": "4520962",
    "regionId": 23,
    "region": "愛知県",
    "locality": "清須市",
    "address1": "春日川中",
    "address2": "",
    "regionKana": "アイチケン",
    "localityKana": "キヨスシ",
    "address1Kana": "ハルヒカワナカ",
    "address2Kana": ""
  },
  {
    "postalCode": "4520962",
    "regionId": 23,
    "region": "愛知県",
    "locality": "清須市",
    "address1": "春日郷ケ島",
    "address2": "",
    "regionKana": "アイチケン",
    "localityKana": "キヨスシ",
    "address1Kana": "ハルヒゴウガシマ",
    "address2Kana": ""
  },
  {
    "postalCode": "4520962",
    "regionId": 23,
    "region": "愛知県",
    "locality": "清須市",
    "address1": "春日高札",
    "address2": "",
    "regionKana": "アイチケン",
    "localityKana": "キヨスシ",
    "address1Kana": "ハルヒコウサツ",
    "address2Kana": ""
  },
  {
    "postalCode": "4520962",
    "regionId": 23,
    "region": "愛知県",
    "locality": "清須市",
    "address1": "春日五反地",
    "address2": "",
    "regionKana": "アイチケン",
    "localityKana": "キヨスシ",
    "address1Kana": "ハルヒゴタンジ",
    "address2Kana": ""
  },
  {
    "postalCode": "4520962",
    "regionId": 23,
    "region": "愛知県",
    "locality": "清須市",
    "address1": "春日社子地",
    "address2": "",
    "regionKana": "アイチケン",
    "localityKana": "キヨスシ",
    "address1Kana": "ハルヒシャゴジ",
    "address2Kana": ""
  },
  {
    "postalCode": "4520962",
    "regionId": 23,
    "region": "愛知県",
    "locality": "清須市",
    "address1": "春日白弓",
    "address2": "",
    "regionKana": "アイチケン",
    "localityKana": "キヨスシ",
    "address1Kana": "ハルヒシラユミ",
    "address2Kana": ""
  },
  {
    "postalCode": "4520962",
    "regionId": 23,
    "region": "愛知県",
    "locality": "清須市",
    "address1": "春日新田",
    "address2": "",
    "regionKana": "アイチケン",
    "localityKana": "キヨスシ",
    "address1Kana": "ハルヒシンデン",
    "address2Kana": ""
  },
  {
    "postalCode": "4520962",
    "regionId": 23,
    "region": "愛知県",
    "locality": "清須市",
    "address1": "春日新町",
    "address2": "",
    "regionKana": "アイチケン",
    "localityKana": "キヨスシ",
    "address1Kana": "ハルヒシンマチ",
    "address2Kana": ""
  },
  {
    "postalCode": "4520962",
    "regionId": 23,
    "region": "愛知県",
    "locality": "清須市",
    "address1": "春日神明",
    "address2": "",
    "regionKana": "アイチケン",
    "localityKana": "キヨスシ",
    "address1Kana": "ハルヒシンメイ",
    "address2Kana": ""
  },
  {
    "postalCode": "4520962",
    "regionId": 23,
    "region": "愛知県",
    "locality": "清須市",
    "address1": "春日砂賀東",
    "address2": "",
    "regionKana": "アイチケン",
    "localityKana": "キヨスシ",
    "address1Kana": "ハルヒスカヒガシ",
    "address2Kana": ""
  },
  {
    "postalCode": "4520962",
    "regionId": 23,
    "region": "愛知県",
    "locality": "清須市",
    "address1": "春日立作",
    "address2": "",
    "regionKana": "アイチケン",
    "localityKana": "キヨスシ",
    "address1Kana": "ハルヒタテツクリ",
    "address2Kana": ""
  },
  {
    "postalCode": "4520962",
    "regionId": 23,
    "region": "愛知県",
    "locality": "清須市",
    "address1": "春日長久寺",
    "address2": "",
    "regionKana": "アイチケン",
    "localityKana": "キヨスシ",
    "address1Kana": "ハルヒチョウキュウジ",
    "address2Kana": ""
  },
  {
    "postalCode": "4520962",
    "regionId": 23,
    "region": "愛知県",
    "locality": "清須市",
    "address1": "春日天神",
    "address2": "",
    "regionKana": "アイチケン",
    "localityKana": "キヨスシ",
    "address1Kana": "ハルヒテンジン",
    "address2Kana": ""
  },
  {
    "postalCode": "4520962",
    "regionId": 23,
    "region": "愛知県",
    "locality": "清須市",
    "address1": "春日鳥出",
    "address2": "",
    "regionKana": "アイチケン",
    "localityKana": "キヨスシ",
    "address1Kana": "ハルヒトリデ",
    "address2Kana": ""
  },
  {
    "postalCode": "4520962",
    "regionId": 23,
    "region": "愛知県",
    "locality": "清須市",
    "address1": "春日中沼",
    "address2": "",
    "regionKana": "アイチケン",
    "localityKana": "キヨスシ",
    "address1Kana": "ハルヒナカヌマ",
    "address2Kana": ""
  },
  {
    "postalCode": "4520962",
    "regionId": 23,
    "region": "愛知県",
    "locality": "清須市",
    "address1": "春日流",
    "address2": "",
    "regionKana": "アイチケン",
    "localityKana": "キヨスシ",
    "address1Kana": "ハルヒナガレ",
    "address2Kana": ""
  },
  {
    "postalCode": "4520962",
    "regionId": 23,
    "region": "愛知県",
    "locality": "清須市",
    "address1": "春日野田町",
    "address2": "",
    "regionKana": "アイチケン",
    "localityKana": "キヨスシ",
    "address1Kana": "ハルヒノダマチ",
    "address2Kana": ""
  },
  {
    "postalCode": "4520962",
    "regionId": 23,
    "region": "愛知県",
    "locality": "清須市",
    "address1": "春日冨士塚",
    "address2": "",
    "regionKana": "アイチケン",
    "localityKana": "キヨスシ",
    "address1Kana": "ハルヒフジヅカ",
    "address2Kana": ""
  },
  {
    "postalCode": "4520962",
    "regionId": 23,
    "region": "愛知県",
    "locality": "清須市",
    "address1": "春日舟付",
    "address2": "",
    "regionKana": "アイチケン",
    "localityKana": "キヨスシ",
    "address1Kana": "ハルヒフナツキ",
    "address2Kana": ""
  },
  {
    "postalCode": "4520962",
    "regionId": 23,
    "region": "愛知県",
    "locality": "清須市",
    "address1": "春日焼田",
    "address2": "",
    "regionKana": "アイチケン",
    "localityKana": "キヨスシ",
    "address1Kana": "ハルヒヤケタ",
    "address2Kana": ""
  }
]