[
  {
    "postalCode": "4380078",
    "regionId": 22,
    "region": "静岡県",
    "locality": "磐田市",
    "address1": "旭ケ丘",
    "address2": "",
    "regionKana": "シズオカケン",
    "localityKana": "イワタシ",
    "address1Kana": "アサヒガオカ",
    "address2Kana": ""
  },
  {
    "postalCode": "4380078",
    "regionId": 22,
    "region": "静岡県",
    "locality": "磐田市",
    "address1": "石原町",
    "address2": "",
    "regionKana": "シズオカケン",
    "localityKana": "イワタシ",
    "address1Kana": "イシワラチョウ",
    "address2Kana": ""
  },
  {
    "postalCode": "4380078",
    "regionId": 22,
    "region": "静岡県",
    "locality": "磐田市",
    "address1": "泉町",
    "address2": "",
    "regionKana": "シズオカケン",
    "localityKana": "イワタシ",
    "address1Kana": "イズミチョウ",
    "address2Kana": ""
  },
  {
    "postalCode": "4380078",
    "regionId": 22,
    "region": "静岡県",
    "locality": "磐田市",
    "address1": "久保町",
    "address2": "",
    "regionKana": "シズオカケン",
    "localityKana": "イワタシ",
    "address1Kana": "クボチョウ",
    "address2Kana": ""
  },
  {
    "postalCode": "4380078",
    "regionId": 22,
    "region": "静岡県",
    "locality": "磐田市",
    "address1": "御殿",
    "address2": "",
    "regionKana": "シズオカケン",
    "localityKana": "イワタシ",
    "address1Kana": "ゴテン",
    "address2Kana": ""
  },
  {
    "postalCode": "4380078",
    "regionId": 22,
    "region": "静岡県",
    "locality": "磐田市",
    "address1": "坂上町",
    "address2": "",
    "regionKana": "シズオカケン",
    "localityKana": "イワタシ",
    "address1Kana": "サカウエチョウ",
    "address2Kana": ""
  },
  {
    "postalCode": "4380078",
    "regionId": 22,
    "region": "静岡県",
    "locality": "磐田市",
    "address1": "栄町",
    "address2": "",
    "regionKana": "シズオカケン",
    "localityKana": "イワタシ",
    "address1Kana": "サカエチョウ",
    "address2Kana": ""
  },
  {
    "postalCode": "4380078",
    "regionId": 22,
    "region": "静岡県",
    "locality": "磐田市",
    "address1": "桜ケ丘",
    "address2": "",
    "regionKana": "シズオカケン",
    "localityKana": "イワタシ",
    "address1Kana": "サクラガオカ",
    "address2Kana": ""
  },
  {
    "postalCode": "4380078",
    "regionId": 22,
    "region": "静岡県",
    "locality": "磐田市",
    "address1": "七軒町",
    "address2": "",
    "regionKana": "シズオカケン",
    "localityKana": "イワタシ",
    "address1Kana": "シチケンチョウ",
    "address2Kana": ""
  },
  {
    "postalCode": "4380078",
    "regionId": 22,
    "region": "静岡県",
    "locality": "磐田市",
    "address1": "田町",
    "address2": "",
    "regionKana": "シズオカケン",
    "localityKana": "イワタシ",
    "address1Kana": "タマチ",
    "address2Kana": ""
  },
  {
    "postalCode": "4380078",
    "regionId": 22,
    "region": "静岡県",
    "locality": "磐田市",
    "address1": "中央町",
    "address2": "",
    "regionKana": "シズオカケン",
    "localityKana": "イワタシ",
    "address1Kana": "チュウオウチョウ",
    "address2Kana": ""
  },
  {
    "postalCode": "4380078",
    "regionId": 22,
    "region": "静岡県",
    "locality": "磐田市",
    "address1": "中泉",
    "address2": "",
    "regionKana": "シズオカケン",
    "localityKana": "イワタシ",
    "address1Kana": "ナカイズミ",
    "address2Kana": ""
  },
  {
    "postalCode": "4380078",
    "regionId": 22,
    "region": "静岡県",
    "locality": "磐田市",
    "address1": "中町",
    "address2": "",
    "regionKana": "シズオカケン",
    "localityKana": "イワタシ",
    "address1Kana": "ナカマチ",
    "address2Kana": ""
  },
  {
    "postalCode": "4380078",
    "regionId": 22,
    "region": "静岡県",
    "locality": "磐田市",
    "address1": "西新町",
    "address2": "",
    "regionKana": "シズオカケン",
    "localityKana": "イワタシ",
    "address1Kana": "ニシシンマチ",
    "address2Kana": ""
  },
  {
    "postalCode": "4380078",
    "regionId": 22,
    "region": "静岡県",
    "locality": "磐田市",
    "address1": "西町",
    "address2": "",
    "regionKana": "シズオカケン",
    "localityKana": "イワタシ",
    "address1Kana": "ニシマチ",
    "address2Kana": ""
  },
  {
    "postalCode": "4380078",
    "regionId": 22,
    "region": "静岡県",
    "locality": "磐田市",
    "address1": "東町",
    "address2": "",
    "regionKana": "シズオカケン",
    "localityKana": "イワタシ",
    "address1Kana": "ヒガシマチ",
    "address2Kana": ""
  },
  {
    "postalCode": "4380078",
    "regionId": 22,
    "region": "静岡県",
    "locality": "磐田市",
    "address1": "本町",
    "address2": "",
    "regionKana": "シズオカケン",
    "localityKana": "イワタシ",
    "address1Kana": "ホンマチ",
    "address2Kana": ""
  }
]