[
  {
    "postalCode": "4380086",
    "regionId": 22,
    "region": "静岡県",
    "locality": "磐田市",
    "address1": "一番町",
    "address2": "",
    "regionKana": "シズオカケン",
    "localityKana": "イワタシ",
    "address1Kana": "イチバンチョウ",
    "address2Kana": ""
  },
  {
    "postalCode": "4380086",
    "regionId": 22,
    "region": "静岡県",
    "locality": "磐田市",
    "address1": "梅屋町",
    "address2": "",
    "regionKana": "シズオカケン",
    "localityKana": "イワタシ",
    "address1Kana": "ウメヤチョウ",
    "address2Kana": ""
  },
  {
    "postalCode": "4380086",
    "regionId": 22,
    "region": "静岡県",
    "locality": "磐田市",
    "address1": "加茂川通",
    "address2": "",
    "regionKana": "シズオカケン",
    "localityKana": "イワタシ",
    "address1Kana": "カモガワドオリ",
    "address2Kana": ""
  },
  {
    "postalCode": "4380086",
    "regionId": 22,
    "region": "静岡県",
    "locality": "磐田市",
    "address1": "河原町",
    "address2": "",
    "regionKana": "シズオカケン",
    "localityKana": "イワタシ",
    "address1Kana": "カワラチョウ",
    "address2Kana": ""
  },
  {
    "postalCode": "4380086",
    "regionId": 22,
    "region": "静岡県",
    "locality": "磐田市",
    "address1": "北見町",
    "address2": "",
    "regionKana": "シズオカケン",
    "localityKana": "イワタシ",
    "address1Kana": "キタミチョウ",
    "address2Kana": ""
  },
  {
    "postalCode": "4380086",
    "regionId": 22,
    "region": "静岡県",
    "locality": "磐田市",
    "address1": "権現町",
    "address2": "",
    "regionKana": "シズオカケン",
    "localityKana": "イワタシ",
    "address1Kana": "ゴンゲンチョウ",
    "address2Kana": ""
  },
  {
    "postalCode": "4380086",
    "regionId": 22,
    "region": "静岡県",
    "locality": "磐田市",
    "address1": "幸町",
    "address2": "",
    "regionKana": "シズオカケン",
    "localityKana": "イワタシ",
    "address1Kana": "サイワイチョウ",
    "address2Kana": ""
  },
  {
    "postalCode": "4380086",
    "regionId": 22,
    "region": "静岡県",
    "locality": "磐田市",
    "address1": "清水町",
    "address2": "",
    "regionKana": "シズオカケン",
    "localityKana": "イワタシ",
    "address1Kana": "シミズチョウ",
    "address2Kana": ""
  },
  {
    "postalCode": "4380086",
    "regionId": 22,
    "region": "静岡県",
    "locality": "磐田市",
    "address1": "宿町",
    "address2": "",
    "regionKana": "シズオカケン",
    "localityKana": "イワタシ",
    "address1Kana": "シュクマチ",
    "address2Kana": ""
  },
  {
    "postalCode": "4380086",
    "regionId": 22,
    "region": "静岡県",
    "locality": "磐田市",
    "address1": "地脇町",
    "address2": "",
    "regionKana": "シズオカケン",
    "localityKana": "イワタシ",
    "address1Kana": "ジワキチョウ",
    "address2Kana": ""
  },
  {
    "postalCode": "4380086",
    "regionId": 22,
    "region": "静岡県",
    "locality": "磐田市",
    "address1": "新通町",
    "address2": "",
    "regionKana": "シズオカケン",
    "localityKana": "イワタシ",
    "address1Kana": "シンドオリチョウ",
    "address2Kana": ""
  },
  {
    "postalCode": "4380086",
    "regionId": 22,
    "region": "静岡県",
    "locality": "磐田市",
    "address1": "住吉町",
    "address2": "",
    "regionKana": "シズオカケン",
    "localityKana": "イワタシ",
    "address1Kana": "スミヨシチョウ",
    "address2Kana": ""
  },
  {
    "postalCode": "4380086",
    "regionId": 22,
    "region": "静岡県",
    "locality": "磐田市",
    "address1": "天王町",
    "address2": "",
    "regionKana": "シズオカケン",
    "localityKana": "イワタシ",
    "address1Kana": "テンノウチョウ",
    "address2Kana": ""
  },
  {
    "postalCode": "4380086",
    "regionId": 22,
    "region": "静岡県",
    "locality": "磐田市",
    "address1": "中川町",
    "address2": "",
    "regionKana": "シズオカケン",
    "localityKana": "イワタシ",
    "address1Kana": "ナカガワチョウ",
    "address2Kana": ""
  },
  {
    "postalCode": "4380086",
    "regionId": 22,
    "region": "静岡県",
    "locality": "磐田市",
    "address1": "西坂町",
    "address2": "",
    "regionKana": "シズオカケン",
    "localityKana": "イワタシ",
    "address1Kana": "ニシザカチョウ",
    "address2Kana": ""
  },
  {
    "postalCode": "4380086",
    "regionId": 22,
    "region": "静岡県",
    "locality": "磐田市",
    "address1": "二番町",
    "address2": "",
    "regionKana": "シズオカケン",
    "localityKana": "イワタシ",
    "address1Kana": "ニバンチョウ",
    "address2Kana": ""
  },
  {
    "postalCode": "4380086",
    "regionId": 22,
    "region": "静岡県",
    "locality": "磐田市",
    "address1": "馬場町",
    "address2": "",
    "regionKana": "シズオカケン",
    "localityKana": "イワタシ",
    "address1Kana": "ババチョウ",
    "address2Kana": ""
  },
  {
    "postalCode": "4380086",
    "regionId": 22,
    "region": "静岡県",
    "locality": "磐田市",
    "address1": "東坂町",
    "address2": "",
    "regionKana": "シズオカケン",
    "localityKana": "イワタシ",
    "address1Kana": "ヒガシザカチョウ",
    "address2Kana": ""
  },
  {
    "postalCode": "4380086",
    "regionId": 22,
    "region": "静岡県",
    "locality": "磐田市",
    "address1": "見付",
    "address2": "",
    "regionKana": "シズオカケン",
    "localityKana": "イワタシ",
    "address1Kana": "ミツケ",
    "address2Kana": ""
  },
  {
    "postalCode": "4380086",
    "regionId": 22,
    "region": "静岡県",
    "locality": "磐田市",
    "address1": "美登里町",
    "address2": "",
    "regionKana": "シズオカケン",
    "localityKana": "イワタシ",
    "address1Kana": "ミドリチョウ",
    "address2Kana": ""
  },
  {
    "postalCode": "4380086",
    "regionId": 22,
    "region": "静岡県",
    "locality": "磐田市",
    "address1": "元倉町",
    "address2": "",
    "regionKana": "シズオカケン",
    "localityKana": "イワタシ",
    "address1Kana": "モトクラチョウ",
    "address2Kana": ""
  },
  {
    "postalCode": "4380086",
    "regionId": 22,
    "region": "静岡県",
    "locality": "磐田市",
    "address1": "元宮町",
    "address2": "",
    "regionKana": "シズオカケン",
    "localityKana": "イワタシ",
    "address1Kana": "モトミヤチョウ",
    "address2Kana": ""
  }
]