[
  {
    "postalCode": "0288401",
    "regionId": 3,
    "region": "岩手県",
    "locality": "下閉伊郡田野畑村",
    "address1": "一の渡",
    "address2": "",
    "regionKana": "イワテケン",
    "localityKana": "シモヘイグンタノハタムラ",
    "address1Kana": "イチノワタリ",
    "address2Kana": ""
  },
  {
    "postalCode": "0288401",
    "regionId": 3,
    "region": "岩手県",
    "locality": "下閉伊郡田野畑村",
    "address1": "蝦夷森",
    "address2": "",
    "regionKana": "イワテケン",
    "localityKana": "シモヘイグンタノハタムラ",
    "address1Kana": "エゾモリ",
    "address2Kana": ""
  },
  {
    "postalCode": "0288401",
    "regionId": 3,
    "region": "岩手県",
    "locality": "下閉伊郡田野畑村",
    "address1": "大森",
    "address2": "",
    "regionKana": "イワテケン",
    "localityKana": "シモヘイグンタノハタムラ",
    "address1Kana": "オオモリ",
    "address2Kana": ""
  },
  {
    "postalCode": "0288401",
    "regionId": 3,
    "region": "岩手県",
    "locality": "下閉伊郡田野畑村",
    "address1": "尾肝要",
    "address2": "",
    "regionKana": "イワテケン",
    "localityKana": "シモヘイグンタノハタムラ",
    "address1Kana": "オカンヨウ",
    "address2Kana": ""
  },
  {
    "postalCode": "0288401",
    "regionId": 3,
    "region": "岩手県",
    "locality": "下閉伊郡田野畑村",
    "address1": "奥地",
    "address2": "",
    "regionKana": "イワテケン",
    "localityKana": "シモヘイグンタノハタムラ",
    "address1Kana": "オクチ",
    "address2Kana": ""
  },
  {
    "postalCode": "0288401",
    "regionId": 3,
    "region": "岩手県",
    "locality": "下閉伊郡田野畑村",
    "address1": "奥地向",
    "address2": "",
    "regionKana": "イワテケン",
    "localityKana": "シモヘイグンタノハタムラ",
    "address1Kana": "オクチムカイ",
    "address2Kana": ""
  },
  {
    "postalCode": "0288401",
    "regionId": 3,
    "region": "岩手県",
    "locality": "下閉伊郡田野畑村",
    "address1": "茅刈沢",
    "address2": "",
    "regionKana": "イワテケン",
    "localityKana": "シモヘイグンタノハタムラ",
    "address1Kana": "カヤカリサワ",
    "address2Kana": ""
  },
  {
    "postalCode": "0288401",
    "regionId": 3,
    "region": "岩手県",
    "locality": "下閉伊郡田野畑村",
    "address1": "巣合",
    "address2": "",
    "regionKana": "イワテケン",
    "localityKana": "シモヘイグンタノハタムラ",
    "address1Kana": "スゴウ",
    "address2Kana": ""
  },
  {
    "postalCode": "0288401",
    "regionId": 3,
    "region": "岩手県",
    "locality": "下閉伊郡田野畑村",
    "address1": "千丈",
    "address2": "",
    "regionKana": "イワテケン",
    "localityKana": "シモヘイグンタノハタムラ",
    "address1Kana": "センジョウ",
    "address2Kana": ""
  },
  {
    "postalCode": "0288401",
    "regionId": 3,
    "region": "岩手県",
    "locality": "下閉伊郡田野畑村",
    "address1": "千足",
    "address2": "",
    "regionKana": "イワテケン",
    "localityKana": "シモヘイグンタノハタムラ",
    "address1Kana": "センゾク",
    "address2Kana": ""
  },
  {
    "postalCode": "0288401",
    "regionId": 3,
    "region": "岩手県",
    "locality": "下閉伊郡田野畑村",
    "address1": "滝ノ沢",
    "address2": "",
    "regionKana": "イワテケン",
    "localityKana": "シモヘイグンタノハタムラ",
    "address1Kana": "タキノサワ",
    "address2Kana": ""
  },
  {
    "postalCode": "0288401",
    "regionId": 3,
    "region": "岩手県",
    "locality": "下閉伊郡田野畑村",
    "address1": "田代",
    "address2": "",
    "regionKana": "イワテケン",
    "localityKana": "シモヘイグンタノハタムラ",
    "address1Kana": "タシロ",
    "address2Kana": ""
  },
  {
    "postalCode": "0288401",
    "regionId": 3,
    "region": "岩手県",
    "locality": "下閉伊郡田野畑村",
    "address1": "長根",
    "address2": "",
    "regionKana": "イワテケン",
    "localityKana": "シモヘイグンタノハタムラ",
    "address1Kana": "ナガネ",
    "address2Kana": ""
  },
  {
    "postalCode": "0288401",
    "regionId": 3,
    "region": "岩手県",
    "locality": "下閉伊郡田野畑村",
    "address1": "沼袋",
    "address2": "",
    "regionKana": "イワテケン",
    "localityKana": "シモヘイグンタノハタムラ",
    "address1Kana": "ヌマブクロ",
    "address2Kana": ""
  },
  {
    "postalCode": "0288401",
    "regionId": 3,
    "region": "岩手県",
    "locality": "下閉伊郡田野畑村",
    "address1": "子木地",
    "address2": "",
    "regionKana": "イワテケン",
    "localityKana": "シモヘイグンタノハタムラ",
    "address1Kana": "ネギチ",
    "address2Kana": ""
  },
  {
    "postalCode": "0288401",
    "regionId": 3,
    "region": "岩手県",
    "locality": "下閉伊郡田野畑村",
    "address1": "子木屋敷",
    "address2": "",
    "regionKana": "イワテケン",
    "localityKana": "シモヘイグンタノハタムラ",
    "address1Kana": "ネギヤシキ",
    "address2Kana": ""
  },
  {
    "postalCode": "0288401",
    "regionId": 3,
    "region": "岩手県",
    "locality": "下閉伊郡田野畑村",
    "address1": "萩牛",
    "address2": "",
    "regionKana": "イワテケン",
    "localityKana": "シモヘイグンタノハタムラ",
    "address1Kana": "ハギュウ",
    "address2Kana": ""
  },
  {
    "postalCode": "0288401",
    "regionId": 3,
    "region": "岩手県",
    "locality": "下閉伊郡田野畑村",
    "address1": "日蔭",
    "address2": "",
    "regionKana": "イワテケン",
    "localityKana": "シモヘイグンタノハタムラ",
    "address1Kana": "ヒカゲ",
    "address2Kana": ""
  },
  {
    "postalCode": "0288401",
    "regionId": 3,
    "region": "岩手県",
    "locality": "下閉伊郡田野畑村",
    "address1": "姫松",
    "address2": "",
    "regionKana": "イワテケン",
    "localityKana": "シモヘイグンタノハタムラ",
    "address1Kana": "ヒメマツ",
    "address2Kana": ""
  },
  {
    "postalCode": "0288401",
    "regionId": 3,
    "region": "岩手県",
    "locality": "下閉伊郡田野畑村",
    "address1": "三沢",
    "address2": "",
    "regionKana": "イワテケン",
    "localityKana": "シモヘイグンタノハタムラ",
    "address1Kana": "ミサワ",
    "address2Kana": ""
  }
]