[
  {
    "postalCode": "6780091",
    "regionId": 28,
    "region": "兵庫県",
    "locality": "相生市",
    "address1": "矢野町瓜生",
    "address2": "",
    "regionKana": "ヒョウゴケン",
    "localityKana": "アイオイシ",
    "address1Kana": "ヤノチョウウリュウ",
    "address2Kana": ""
  },
  {
    "postalCode": "6780091",
    "regionId": 28,
    "region": "兵庫県",
    "locality": "相生市",
    "address1": "矢野町金坂",
    "address2": "",
    "regionKana": "ヒョウゴケン",
    "localityKana": "アイオイシ",
    "address1Kana": "ヤノチョウカネサカ",
    "address2Kana": ""
  },
  {
    "postalCode": "6780091",
    "regionId": 28,
    "region": "兵庫県",
    "locality": "相生市",
    "address1": "矢野町釜出",
    "address2": "",
    "regionKana": "ヒョウゴケン",
    "localityKana": "アイオイシ",
    "address1Kana": "ヤノチョウカマデ",
    "address2Kana": ""
  },
  {
    "postalCode": "6780091",
    "regionId": 28,
    "region": "兵庫県",
    "locality": "相生市",
    "address1": "矢野町上",
    "address2": "",
    "regionKana": "ヒョウゴケン",
    "localityKana": "アイオイシ",
    "address1Kana": "ヤノチョウカミ",
    "address2Kana": ""
  },
  {
    "postalCode": "6780091",
    "regionId": 28,
    "region": "兵庫県",
    "locality": "相生市",
    "address1": "矢野町榊",
    "address2": "",
    "regionKana": "ヒョウゴケン",
    "localityKana": "アイオイシ",
    "address1Kana": "ヤノチョウサカキ",
    "address2Kana": ""
  },
  {
    "postalCode": "6780091",
    "regionId": 28,
    "region": "兵庫県",
    "locality": "相生市",
    "address1": "矢野町菅谷",
    "address2": "",
    "regionKana": "ヒョウゴケン",
    "localityKana": "アイオイシ",
    "address1Kana": "ヤノチョウスガタニ",
    "address2Kana": ""
  },
  {
    "postalCode": "6780091",
    "regionId": 28,
    "region": "兵庫県",
    "locality": "相生市",
    "address1": "矢野町中野",
    "address2": "",
    "regionKana": "ヒョウゴケン",
    "localityKana": "アイオイシ",
    "address1Kana": "ヤノチョウナカノ",
    "address2Kana": ""
  },
  {
    "postalCode": "6780091",
    "regionId": 28,
    "region": "兵庫県",
    "locality": "相生市",
    "address1": "矢野町能下",
    "address2": "",
    "regionKana": "ヒョウゴケン",
    "localityKana": "アイオイシ",
    "address1Kana": "ヤノチョウノウゲ",
    "address2Kana": ""
  },
  {
    "postalCode": "6780091",
    "regionId": 28,
    "region": "兵庫県",
    "locality": "相生市",
    "address1": "矢野町二木",
    "address2": "",
    "regionKana": "ヒョウゴケン",
    "localityKana": "アイオイシ",
    "address1Kana": "ヤノチョウフタツギ",
    "address2Kana": ""
  },
  {
    "postalCode": "6780091",
    "regionId": 28,
    "region": "兵庫県",
    "locality": "相生市",
    "address1": "矢野町真広",
    "address2": "",
    "regionKana": "ヒョウゴケン",
    "localityKana": "アイオイシ",
    "address1Kana": "ヤノチョウマヒロ",
    "address2Kana": ""
  },
  {
    "postalCode": "6780091",
    "regionId": 28,
    "region": "兵庫県",
    "locality": "相生市",
    "address1": "矢野町森",
    "address2": "",
    "regionKana": "ヒョウゴケン",
    "localityKana": "アイオイシ",
    "address1Kana": "ヤノチョウモリ",
    "address2Kana": ""
  }
]