[
  {
    "postalCode": "9870134",
    "regionId": 4,
    "region": "宮城県",
    "locality": "遠田郡涌谷町",
    "address1": "北五反田",
    "address2": "",
    "regionKana": "ミヤギケン",
    "localityKana": "トオダグンワクヤチョウ",
    "address1Kana": "キタゴタンダ",
    "address2Kana": ""
  },
  {
    "postalCode": "9870134",
    "regionId": 4,
    "region": "宮城県",
    "locality": "遠田郡涌谷町",
    "address1": "九軒",
    "address2": "",
    "regionKana": "ミヤギケン",
    "localityKana": "トオダグンワクヤチョウ",
    "address1Kana": "クケン",
    "address2Kana": ""
  },
  {
    "postalCode": "9870134",
    "regionId": 4,
    "region": "宮城県",
    "locality": "遠田郡涌谷町",
    "address1": "五反田",
    "address2": "",
    "regionKana": "ミヤギケン",
    "localityKana": "トオダグンワクヤチョウ",
    "address1Kana": "ゴタンダ",
    "address2Kana": ""
  },
  {
    "postalCode": "9870134",
    "regionId": 4,
    "region": "宮城県",
    "locality": "遠田郡涌谷町",
    "address1": "佐山木",
    "address2": "",
    "regionKana": "ミヤギケン",
    "localityKana": "トオダグンワクヤチョウ",
    "address1Kana": "サヤマギ",
    "address2Kana": ""
  },
  {
    "postalCode": "9870134",
    "regionId": 4,
    "region": "宮城県",
    "locality": "遠田郡涌谷町",
    "address1": "地不足道",
    "address2": "",
    "regionKana": "ミヤギケン",
    "localityKana": "トオダグンワクヤチョウ",
    "address1Kana": "ジブソクミチ",
    "address2Kana": ""
  },
  {
    "postalCode": "9870134",
    "regionId": 4,
    "region": "宮城県",
    "locality": "遠田郡涌谷町",
    "address1": "西谷地",
    "address2": "",
    "regionKana": "ミヤギケン",
    "localityKana": "トオダグンワクヤチョウ",
    "address1Kana": "ニシヤチ",
    "address2Kana": ""
  },
  {
    "postalCode": "9870134",
    "regionId": 4,
    "region": "宮城県",
    "locality": "遠田郡涌谷町",
    "address1": "二歩",
    "address2": "",
    "regionKana": "ミヤギケン",
    "localityKana": "トオダグンワクヤチョウ",
    "address1Kana": "ニブ",
    "address2Kana": ""
  },
  {
    "postalCode": "9870134",
    "regionId": 4,
    "region": "宮城県",
    "locality": "遠田郡涌谷町",
    "address1": "蘭場谷地",
    "address2": "",
    "regionKana": "ミヤギケン",
    "localityKana": "トオダグンワクヤチョウ",
    "address1Kana": "ランバヤチ",
    "address2Kana": ""
  }
]