[
  {
    "postalCode": "9870145",
    "regionId": 4,
    "region": "宮城県",
    "locality": "遠田郡涌谷町",
    "address1": "市道",
    "address2": "",
    "regionKana": "ミヤギケン",
    "localityKana": "トオダグンワクヤチョウ",
    "address1Kana": "イチミチ",
    "address2Kana": ""
  },
  {
    "postalCode": "9870145",
    "regionId": 4,
    "region": "宮城県",
    "locality": "遠田郡涌谷町",
    "address1": "烏鴉",
    "address2": "",
    "regionKana": "ミヤギケン",
    "localityKana": "トオダグンワクヤチョウ",
    "address1Kana": "ウガラス",
    "address2Kana": ""
  },
  {
    "postalCode": "9870145",
    "regionId": 4,
    "region": "宮城県",
    "locality": "遠田郡涌谷町",
    "address1": "尾切",
    "address2": "",
    "regionKana": "ミヤギケン",
    "localityKana": "トオダグンワクヤチョウ",
    "address1Kana": "オギレ",
    "address2Kana": ""
  },
  {
    "postalCode": "9870145",
    "regionId": 4,
    "region": "宮城県",
    "locality": "遠田郡涌谷町",
    "address1": "鞍掛",
    "address2": "",
    "regionKana": "ミヤギケン",
    "localityKana": "トオダグンワクヤチョウ",
    "address1Kana": "クラガケ",
    "address2Kana": ""
  },
  {
    "postalCode": "9870145",
    "regionId": 4,
    "region": "宮城県",
    "locality": "遠田郡涌谷町",
    "address1": "花勝山",
    "address2": "",
    "regionKana": "ミヤギケン",
    "localityKana": "トオダグンワクヤチョウ",
    "address1Kana": "ケカツヤマ",
    "address2Kana": ""
  },
  {
    "postalCode": "9870145",
    "regionId": 4,
    "region": "宮城県",
    "locality": "遠田郡涌谷町",
    "address1": "新尾切",
    "address2": "",
    "regionKana": "ミヤギケン",
    "localityKana": "トオダグンワクヤチョウ",
    "address1Kana": "シンオギレ",
    "address2Kana": ""
  },
  {
    "postalCode": "9870145",
    "regionId": 4,
    "region": "宮城県",
    "locality": "遠田郡涌谷町",
    "address1": "新名鰭",
    "address2": "",
    "regionKana": "ミヤギケン",
    "localityKana": "トオダグンワクヤチョウ",
    "address1Kana": "シンナビレ",
    "address2Kana": ""
  },
  {
    "postalCode": "9870145",
    "regionId": 4,
    "region": "宮城県",
    "locality": "遠田郡涌谷町",
    "address1": "名鰭",
    "address2": "",
    "regionKana": "ミヤギケン",
    "localityKana": "トオダグンワクヤチョウ",
    "address1Kana": "ナビレ",
    "address2Kana": ""
  }
]