[
  {
    "postalCode": "9870402",
    "regionId": 4,
    "region": "宮城県",
    "locality": "登米市",
    "address1": "南方町板倉",
    "address2": "",
    "regionKana": "ミヤギケン",
    "localityKana": "トメシ",
    "address1Kana": "ミナミカタマチイタクラ",
    "address2Kana": ""
  },
  {
    "postalCode": "9870402",
    "regionId": 4,
    "region": "宮城県",
    "locality": "登米市",
    "address1": "南方町板倉後",
    "address2": "",
    "regionKana": "ミヤギケン",
    "localityKana": "トメシ",
    "address1Kana": "ミナミカタマチイタクラウシロ",
    "address2Kana": ""
  },
  {
    "postalCode": "9870402",
    "regionId": 4,
    "region": "宮城県",
    "locality": "登米市",
    "address1": "南方町後屋敷待井",
    "address2": "",
    "regionKana": "ミヤギケン",
    "localityKana": "トメシ",
    "address1Kana": "ミナミカタマチウシロヤシキマチイ",
    "address2Kana": ""
  },
  {
    "postalCode": "9870402",
    "regionId": 4,
    "region": "宮城県",
    "locality": "登米市",
    "address1": "南方町沢田",
    "address2": "",
    "regionKana": "ミヤギケン",
    "localityKana": "トメシ",
    "address1Kana": "ミナミカタマチサワダ",
    "address2Kana": ""
  },
  {
    "postalCode": "9870402",
    "regionId": 4,
    "region": "宮城県",
    "locality": "登米市",
    "address1": "南方町沢田前",
    "address2": "",
    "regionKana": "ミヤギケン",
    "localityKana": "トメシ",
    "address1Kana": "ミナミカタマチサワダマエ",
    "address2Kana": ""
  },
  {
    "postalCode": "9870402",
    "regionId": 4,
    "region": "宮城県",
    "locality": "登米市",
    "address1": "南方町沢田待井",
    "address2": "",
    "regionKana": "ミヤギケン",
    "localityKana": "トメシ",
    "address1Kana": "ミナミカタマチサワダマチイ",
    "address2Kana": ""
  },
  {
    "postalCode": "9870402",
    "regionId": 4,
    "region": "宮城県",
    "locality": "登米市",
    "address1": "南方町沢田屋敷",
    "address2": "",
    "regionKana": "ミヤギケン",
    "localityKana": "トメシ",
    "address1Kana": "ミナミカタマチサワダヤシキ",
    "address2Kana": ""
  },
  {
    "postalCode": "9870402",
    "regionId": 4,
    "region": "宮城県",
    "locality": "登米市",
    "address1": "南方町新沢田",
    "address2": "",
    "regionKana": "ミヤギケン",
    "localityKana": "トメシ",
    "address1Kana": "ミナミカタマチシンサワダ",
    "address2Kana": ""
  },
  {
    "postalCode": "9870402",
    "regionId": 4,
    "region": "宮城県",
    "locality": "登米市",
    "address1": "南方町鶴代",
    "address2": "",
    "regionKana": "ミヤギケン",
    "localityKana": "トメシ",
    "address1Kana": "ミナミカタマチツルシロ",
    "address2Kana": ""
  },
  {
    "postalCode": "9870402",
    "regionId": 4,
    "region": "宮城県",
    "locality": "登米市",
    "address1": "南方町戸根屋敷",
    "address2": "",
    "regionKana": "ミヤギケン",
    "localityKana": "トメシ",
    "address1Kana": "ミナミカタマチトネヤシキ",
    "address2Kana": ""
  },
  {
    "postalCode": "9870402",
    "regionId": 4,
    "region": "宮城県",
    "locality": "登米市",
    "address1": "南方町中山",
    "address2": "",
    "regionKana": "ミヤギケン",
    "localityKana": "トメシ",
    "address1Kana": "ミナミカタマチナカヤマ",
    "address2Kana": ""
  },
  {
    "postalCode": "9870402",
    "regionId": 4,
    "region": "宮城県",
    "locality": "登米市",
    "address1": "南方町待井",
    "address2": "",
    "regionKana": "ミヤギケン",
    "localityKana": "トメシ",
    "address1Kana": "ミナミカタマチマチイ",
    "address2Kana": ""
  },
  {
    "postalCode": "9870402",
    "regionId": 4,
    "region": "宮城県",
    "locality": "登米市",
    "address1": "南方町松島屋敷",
    "address2": "",
    "regionKana": "ミヤギケン",
    "localityKana": "トメシ",
    "address1Kana": "ミナミカタマチマツシマヤシキ",
    "address2Kana": ""
  }
]