[
  {
    "postalCode": "9870403",
    "regionId": 4,
    "region": "宮城県",
    "locality": "登米市",
    "address1": "南方町内ノ目",
    "address2": "",
    "regionKana": "ミヤギケン",
    "localityKana": "トメシ",
    "address1Kana": "ミナミカタマチウチノメ",
    "address2Kana": ""
  },
  {
    "postalCode": "9870403",
    "regionId": 4,
    "region": "宮城県",
    "locality": "登米市",
    "address1": "南方町王塚",
    "address2": "",
    "regionKana": "ミヤギケン",
    "localityKana": "トメシ",
    "address1Kana": "ミナミカタマチオオツカ",
    "address2Kana": ""
  },
  {
    "postalCode": "9870403",
    "regionId": 4,
    "region": "宮城県",
    "locality": "登米市",
    "address1": "南方町河面",
    "address2": "",
    "regionKana": "ミヤギケン",
    "localityKana": "トメシ",
    "address1Kana": "ミナミカタマチカワヅラ",
    "address2Kana": ""
  },
  {
    "postalCode": "9870403",
    "regionId": 4,
    "region": "宮城県",
    "locality": "登米市",
    "address1": "南方町鴻ノ木",
    "address2": "",
    "regionKana": "ミヤギケン",
    "localityKana": "トメシ",
    "address1Kana": "ミナミカタマチコウノキ",
    "address2Kana": ""
  },
  {
    "postalCode": "9870403",
    "regionId": 4,
    "region": "宮城県",
    "locality": "登米市",
    "address1": "南方町小山",
    "address2": "",
    "regionKana": "ミヤギケン",
    "localityKana": "トメシ",
    "address1Kana": "ミナミカタマチコヤマ",
    "address2Kana": ""
  },
  {
    "postalCode": "9870403",
    "regionId": 4,
    "region": "宮城県",
    "locality": "登米市",
    "address1": "南方町鶴江",
    "address2": "",
    "regionKana": "ミヤギケン",
    "localityKana": "トメシ",
    "address1Kana": "ミナミカタマチツルエ",
    "address2Kana": ""
  },
  {
    "postalCode": "9870403",
    "regionId": 4,
    "region": "宮城県",
    "locality": "登米市",
    "address1": "南方町二ツ橋",
    "address2": "",
    "regionKana": "ミヤギケン",
    "localityKana": "トメシ",
    "address1Kana": "ミナミカタマチフタツバシ",
    "address2Kana": ""
  },
  {
    "postalCode": "9870403",
    "regionId": 4,
    "region": "宮城県",
    "locality": "登米市",
    "address1": "南方町峯",
    "address2": "",
    "regionKana": "ミヤギケン",
    "localityKana": "トメシ",
    "address1Kana": "ミナミカタマチミネ",
    "address2Kana": ""
  },
  {
    "postalCode": "9870403",
    "regionId": 4,
    "region": "宮城県",
    "locality": "登米市",
    "address1": "南方町薬師島屋敷",
    "address2": "",
    "regionKana": "ミヤギケン",
    "localityKana": "トメシ",
    "address1Kana": "ミナミカタマチヤクシジマヤシキ",
    "address2Kana": ""
  }
]