[
  {
    "postalCode": "9870414",
    "regionId": 4,
    "region": "宮城県",
    "locality": "登米市",
    "address1": "南方町内鰐丸",
    "address2": "",
    "regionKana": "ミヤギケン",
    "localityKana": "トメシ",
    "address1Kana": "ミナミカタマチウチワニマル",
    "address2Kana": ""
  },
  {
    "postalCode": "9870414",
    "regionId": 4,
    "region": "宮城県",
    "locality": "登米市",
    "address1": "南方町大村",
    "address2": "",
    "regionKana": "ミヤギケン",
    "localityKana": "トメシ",
    "address1Kana": "ミナミカタマチオオムラ",
    "address2Kana": ""
  },
  {
    "postalCode": "9870414",
    "regionId": 4,
    "region": "宮城県",
    "locality": "登米市",
    "address1": "南方町大村前",
    "address2": "",
    "regionKana": "ミヤギケン",
    "localityKana": "トメシ",
    "address1Kana": "ミナミカタマチオオムラマエ",
    "address2Kana": ""
  },
  {
    "postalCode": "9870414",
    "regionId": 4,
    "region": "宮城県",
    "locality": "登米市",
    "address1": "南方町新山成浦",
    "address2": "",
    "regionKana": "ミヤギケン",
    "localityKana": "トメシ",
    "address1Kana": "ミナミカタマチシンヤマナリウラ",
    "address2Kana": ""
  },
  {
    "postalCode": "9870414",
    "regionId": 4,
    "region": "宮城県",
    "locality": "登米市",
    "address1": "南方町松葉",
    "address2": "",
    "regionKana": "ミヤギケン",
    "localityKana": "トメシ",
    "address1Kana": "ミナミカタマチマツバ",
    "address2Kana": ""
  },
  {
    "postalCode": "9870414",
    "regionId": 4,
    "region": "宮城県",
    "locality": "登米市",
    "address1": "南方町松葉表",
    "address2": "",
    "regionKana": "ミヤギケン",
    "localityKana": "トメシ",
    "address1Kana": "ミナミカタマチマツバオモテ",
    "address2Kana": ""
  },
  {
    "postalCode": "9870414",
    "regionId": 4,
    "region": "宮城県",
    "locality": "登米市",
    "address1": "南方町松葉前",
    "address2": "",
    "regionKana": "ミヤギケン",
    "localityKana": "トメシ",
    "address1Kana": "ミナミカタマチマツバマエ",
    "address2Kana": ""
  },
  {
    "postalCode": "9870414",
    "regionId": 4,
    "region": "宮城県",
    "locality": "登米市",
    "address1": "南方町山成浦",
    "address2": "",
    "regionKana": "ミヤギケン",
    "localityKana": "トメシ",
    "address1Kana": "ミナミカタマチヤマナリウラ",
    "address2Kana": ""
  },
  {
    "postalCode": "9870414",
    "regionId": 4,
    "region": "宮城県",
    "locality": "登米市",
    "address1": "南方町鰐丸",
    "address2": "",
    "regionKana": "ミヤギケン",
    "localityKana": "トメシ",
    "address1Kana": "ミナミカタマチワニマル",
    "address2Kana": ""
  }
]