[
  {
    "postalCode": "9870422",
    "regionId": 4,
    "region": "宮城県",
    "locality": "登米市",
    "address1": "南方町大畠前",
    "address2": "",
    "regionKana": "ミヤギケン",
    "localityKana": "トメシ",
    "address1Kana": "ミナミカタマチオオハタマエ",
    "address2Kana": ""
  },
  {
    "postalCode": "9870422",
    "regionId": 4,
    "region": "宮城県",
    "locality": "登米市",
    "address1": "南方町川前",
    "address2": "",
    "regionKana": "ミヤギケン",
    "localityKana": "トメシ",
    "address1Kana": "ミナミカタマチカワマエ",
    "address2Kana": ""
  },
  {
    "postalCode": "9870422",
    "regionId": 4,
    "region": "宮城県",
    "locality": "登米市",
    "address1": "南方町新大畑前",
    "address2": "",
    "regionKana": "ミヤギケン",
    "localityKana": "トメシ",
    "address1Kana": "ミナミカタマチシンオオバタマエ",
    "address2Kana": ""
  },
  {
    "postalCode": "9870422",
    "regionId": 4,
    "region": "宮城県",
    "locality": "登米市",
    "address1": "南方町新田",
    "address2": "",
    "regionKana": "ミヤギケン",
    "localityKana": "トメシ",
    "address1Kana": "ミナミカタマチシンデン",
    "address2Kana": ""
  },
  {
    "postalCode": "9870422",
    "regionId": 4,
    "region": "宮城県",
    "locality": "登米市",
    "address1": "南方町瀬川",
    "address2": "",
    "regionKana": "ミヤギケン",
    "localityKana": "トメシ",
    "address1Kana": "ミナミカタマチセガワ",
    "address2Kana": ""
  },
  {
    "postalCode": "9870422",
    "regionId": 4,
    "region": "宮城県",
    "locality": "登米市",
    "address1": "南方町東川前",
    "address2": "",
    "regionKana": "ミヤギケン",
    "localityKana": "トメシ",
    "address1Kana": "ミナミカタマチヒガシカワマエ",
    "address2Kana": ""
  },
  {
    "postalCode": "9870422",
    "regionId": 4,
    "region": "宮城県",
    "locality": "登米市",
    "address1": "南方町蛇沼",
    "address2": "",
    "regionKana": "ミヤギケン",
    "localityKana": "トメシ",
    "address1Kana": "ミナミカタマチヘビヌマ",
    "address2Kana": ""
  },
  {
    "postalCode": "9870422",
    "regionId": 4,
    "region": "宮城県",
    "locality": "登米市",
    "address1": "南方町室田",
    "address2": "",
    "regionKana": "ミヤギケン",
    "localityKana": "トメシ",
    "address1Kana": "ミナミカタマチムロタ",
    "address2Kana": ""
  },
  {
    "postalCode": "9870422",
    "regionId": 4,
    "region": "宮城県",
    "locality": "登米市",
    "address1": "南方町山崎",
    "address2": "",
    "regionKana": "ミヤギケン",
    "localityKana": "トメシ",
    "address1Kana": "ミナミカタマチヤマザキ",
    "address2Kana": ""
  }
]