[
  {
    "postalCode": "9870423",
    "regionId": 4,
    "region": "宮城県",
    "locality": "登米市",
    "address1": "南方町大嶽",
    "address2": "",
    "regionKana": "ミヤギケン",
    "localityKana": "トメシ",
    "address1Kana": "ミナミカタマチオオダケ",
    "address2Kana": ""
  },
  {
    "postalCode": "9870423",
    "regionId": 4,
    "region": "宮城県",
    "locality": "登米市",
    "address1": "南方町大嶽前",
    "address2": "",
    "regionKana": "ミヤギケン",
    "localityKana": "トメシ",
    "address1Kana": "ミナミカタマチオオダケマエ",
    "address2Kana": ""
  },
  {
    "postalCode": "9870423",
    "regionId": 4,
    "region": "宮城県",
    "locality": "登米市",
    "address1": "南方町大嶽山",
    "address2": "",
    "regionKana": "ミヤギケン",
    "localityKana": "トメシ",
    "address1Kana": "ミナミカタマチオオダケヤマ",
    "address2Kana": ""
  },
  {
    "postalCode": "9870423",
    "regionId": 4,
    "region": "宮城県",
    "locality": "登米市",
    "address1": "南方町烏田",
    "address2": "",
    "regionKana": "ミヤギケン",
    "localityKana": "トメシ",
    "address1Kana": "ミナミカタマチカラスダ",
    "address2Kana": ""
  },
  {
    "postalCode": "9870423",
    "regionId": 4,
    "region": "宮城県",
    "locality": "登米市",
    "address1": "南方町ぜん荷前",
    "address2": "",
    "regionKana": "ミヤギケン",
    "localityKana": "トメシ",
    "address1Kana": "ミナミカタマチゼンカマエ",
    "address2Kana": ""
  },
  {
    "postalCode": "9870423",
    "regionId": 4,
    "region": "宮城県",
    "locality": "登米市",
    "address1": "南方町ぜん荷山",
    "address2": "",
    "regionKana": "ミヤギケン",
    "localityKana": "トメシ",
    "address1Kana": "ミナミカタマチゼンカヤマ",
    "address2Kana": ""
  },
  {
    "postalCode": "9870423",
    "regionId": 4,
    "region": "宮城県",
    "locality": "登米市",
    "address1": "南方町館",
    "address2": "",
    "regionKana": "ミヤギケン",
    "localityKana": "トメシ",
    "address1Kana": "ミナミカタマチタテ",
    "address2Kana": ""
  },
  {
    "postalCode": "9870423",
    "regionId": 4,
    "region": "宮城県",
    "locality": "登米市",
    "address1": "南方町堂地",
    "address2": "",
    "regionKana": "ミヤギケン",
    "localityKana": "トメシ",
    "address1Kana": "ミナミカタマチドウチ",
    "address2Kana": ""
  },
  {
    "postalCode": "9870423",
    "regionId": 4,
    "region": "宮城県",
    "locality": "登米市",
    "address1": "南方町堂地前",
    "address2": "",
    "regionKana": "ミヤギケン",
    "localityKana": "トメシ",
    "address1Kana": "ミナミカタマチドウチマエ",
    "address2Kana": ""
  },
  {
    "postalCode": "9870423",
    "regionId": 4,
    "region": "宮城県",
    "locality": "登米市",
    "address1": "南方町堀切",
    "address2": "",
    "regionKana": "ミヤギケン",
    "localityKana": "トメシ",
    "address1Kana": "ミナミカタマチホッキリ",
    "address2Kana": ""
  },
  {
    "postalCode": "9870423",
    "regionId": 4,
    "region": "宮城県",
    "locality": "登米市",
    "address1": "南方町本郷大嶽",
    "address2": "",
    "regionKana": "ミヤギケン",
    "localityKana": "トメシ",
    "address1Kana": "ミナミカタマチホンゴウオオダケ",
    "address2Kana": ""
  }
]