[
  {
    "postalCode": "9870425",
    "regionId": 4,
    "region": "宮城県",
    "locality": "登米市",
    "address1": "南方町梶沼",
    "address2": "",
    "regionKana": "ミヤギケン",
    "localityKana": "トメシ",
    "address1Kana": "ミナミカタマチカジヌマ",
    "address2Kana": ""
  },
  {
    "postalCode": "9870425",
    "regionId": 4,
    "region": "宮城県",
    "locality": "登米市",
    "address1": "南方町梶沼川前",
    "address2": "",
    "regionKana": "ミヤギケン",
    "localityKana": "トメシ",
    "address1Kana": "ミナミカタマチカジヌマカワマエ",
    "address2Kana": ""
  },
  {
    "postalCode": "9870425",
    "regionId": 4,
    "region": "宮城県",
    "locality": "登米市",
    "address1": "南方町梶沼前",
    "address2": "",
    "regionKana": "ミヤギケン",
    "localityKana": "トメシ",
    "address1Kana": "ミナミカタマチカジヌママエ",
    "address2Kana": ""
  },
  {
    "postalCode": "9870425",
    "regionId": 4,
    "region": "宮城県",
    "locality": "登米市",
    "address1": "南方町上砥落",
    "address2": "",
    "regionKana": "ミヤギケン",
    "localityKana": "トメシ",
    "address1Kana": "ミナミカタマチカミトオトシ",
    "address2Kana": ""
  },
  {
    "postalCode": "9870425",
    "regionId": 4,
    "region": "宮城県",
    "locality": "登米市",
    "address1": "南方町下砥落",
    "address2": "",
    "regionKana": "ミヤギケン",
    "localityKana": "トメシ",
    "address1Kana": "ミナミカタマチシモトオトシ",
    "address2Kana": ""
  },
  {
    "postalCode": "9870425",
    "regionId": 4,
    "region": "宮城県",
    "locality": "登米市",
    "address1": "南方町十二山",
    "address2": "",
    "regionKana": "ミヤギケン",
    "localityKana": "トメシ",
    "address1Kana": "ミナミカタマチジュウニヤマ",
    "address2Kana": ""
  },
  {
    "postalCode": "9870425",
    "regionId": 4,
    "region": "宮城県",
    "locality": "登米市",
    "address1": "南方町新上砥落",
    "address2": "",
    "regionKana": "ミヤギケン",
    "localityKana": "トメシ",
    "address1Kana": "ミナミカタマチシンカミトオトシ",
    "address2Kana": ""
  },
  {
    "postalCode": "9870425",
    "regionId": 4,
    "region": "宮城県",
    "locality": "登米市",
    "address1": "南方町新砥落",
    "address2": "",
    "regionKana": "ミヤギケン",
    "localityKana": "トメシ",
    "address1Kana": "ミナミカタマチシントオトシ",
    "address2Kana": ""
  },
  {
    "postalCode": "9870425",
    "regionId": 4,
    "region": "宮城県",
    "locality": "登米市",
    "address1": "南方町田中浦",
    "address2": "",
    "regionKana": "ミヤギケン",
    "localityKana": "トメシ",
    "address1Kana": "ミナミカタマチタナカウラ",
    "address2Kana": ""
  },
  {
    "postalCode": "9870425",
    "regionId": 4,
    "region": "宮城県",
    "locality": "登米市",
    "address1": "南方町砥落",
    "address2": "",
    "regionKana": "ミヤギケン",
    "localityKana": "トメシ",
    "address1Kana": "ミナミカタマチトオトシ",
    "address2Kana": ""
  },
  {
    "postalCode": "9870425",
    "regionId": 4,
    "region": "宮城県",
    "locality": "登米市",
    "address1": "南方町沼向",
    "address2": "",
    "regionKana": "ミヤギケン",
    "localityKana": "トメシ",
    "address1Kana": "ミナミカタマチヌマムカイ",
    "address2Kana": ""
  },
  {
    "postalCode": "9870425",
    "regionId": 4,
    "region": "宮城県",
    "locality": "登米市",
    "address1": "南方町米袋",
    "address2": "",
    "regionKana": "ミヤギケン",
    "localityKana": "トメシ",
    "address1Kana": "ミナミカタマチヨネブクロ",
    "address2Kana": ""
  },
  {
    "postalCode": "9870425",
    "regionId": 4,
    "region": "宮城県",
    "locality": "登米市",
    "address1": "南方町米袋浦",
    "address2": "",
    "regionKana": "ミヤギケン",
    "localityKana": "トメシ",
    "address1Kana": "ミナミカタマチヨネブクロウラ",
    "address2Kana": ""
  },
  {
    "postalCode": "9870425",
    "regionId": 4,
    "region": "宮城県",
    "locality": "登米市",
    "address1": "南方町米袋前",
    "address2": "",
    "regionKana": "ミヤギケン",
    "localityKana": "トメシ",
    "address1Kana": "ミナミカタマチヨネブクロマエ",
    "address2Kana": ""
  }
]