[
  {
    "postalCode": "9870432",
    "regionId": 4,
    "region": "宮城県",
    "locality": "登米市",
    "address1": "南方町青笹",
    "address2": "",
    "regionKana": "ミヤギケン",
    "localityKana": "トメシ",
    "address1Kana": "ミナミカタマチアオザサ",
    "address2Kana": ""
  },
  {
    "postalCode": "9870432",
    "regionId": 4,
    "region": "宮城県",
    "locality": "登米市",
    "address1": "南方町狼掛",
    "address2": "",
    "regionKana": "ミヤギケン",
    "localityKana": "トメシ",
    "address1Kana": "ミナミカタマチオイノガケ",
    "address2Kana": ""
  },
  {
    "postalCode": "9870432",
    "regionId": 4,
    "region": "宮城県",
    "locality": "登米市",
    "address1": "南方町上窪田",
    "address2": "",
    "regionKana": "ミヤギケン",
    "localityKana": "トメシ",
    "address1Kana": "ミナミカタマチカミクボタ",
    "address2Kana": ""
  },
  {
    "postalCode": "9870432",
    "regionId": 4,
    "region": "宮城県",
    "locality": "登米市",
    "address1": "南方町窪田",
    "address2": "",
    "regionKana": "ミヤギケン",
    "localityKana": "トメシ",
    "address1Kana": "ミナミカタマチクボタ",
    "address2Kana": ""
  },
  {
    "postalCode": "9870432",
    "regionId": 4,
    "region": "宮城県",
    "locality": "登米市",
    "address1": "南方町新畑岡下",
    "address2": "",
    "regionKana": "ミヤギケン",
    "localityKana": "トメシ",
    "address1Kana": "ミナミカタマチシンハタオカシタ",
    "address2Kana": ""
  },
  {
    "postalCode": "9870432",
    "regionId": 4,
    "region": "宮城県",
    "locality": "登米市",
    "address1": "南方町堤田",
    "address2": "",
    "regionKana": "ミヤギケン",
    "localityKana": "トメシ",
    "address1Kana": "ミナミカタマチツツミタ",
    "address2Kana": ""
  },
  {
    "postalCode": "9870432",
    "regionId": 4,
    "region": "宮城県",
    "locality": "登米市",
    "address1": "南方町畑岡",
    "address2": "",
    "regionKana": "ミヤギケン",
    "localityKana": "トメシ",
    "address1Kana": "ミナミカタマチハタオカ",
    "address2Kana": ""
  },
  {
    "postalCode": "9870432",
    "regionId": 4,
    "region": "宮城県",
    "locality": "登米市",
    "address1": "南方町畑岡下",
    "address2": "",
    "regionKana": "ミヤギケン",
    "localityKana": "トメシ",
    "address1Kana": "ミナミカタマチハタオカシタ",
    "address2Kana": ""
  }
]