[
  {
    "postalCode": "9870443",
    "regionId": 4,
    "region": "宮城県",
    "locality": "登米市",
    "address1": "南方町板ケ沢",
    "address2": "",
    "regionKana": "ミヤギケン",
    "localityKana": "トメシ",
    "address1Kana": "ミナミカタマチイタガサワ",
    "address2Kana": ""
  },
  {
    "postalCode": "9870443",
    "regionId": 4,
    "region": "宮城県",
    "locality": "登米市",
    "address1": "南方町一網",
    "address2": "",
    "regionKana": "ミヤギケン",
    "localityKana": "トメシ",
    "address1Kana": "ミナミカタマチイチアジ",
    "address2Kana": ""
  },
  {
    "postalCode": "9870443",
    "regionId": 4,
    "region": "宮城県",
    "locality": "登米市",
    "address1": "南方町大坂前",
    "address2": "",
    "regionKana": "ミヤギケン",
    "localityKana": "トメシ",
    "address1Kana": "ミナミカタマチオオザカマエ",
    "address2Kana": ""
  },
  {
    "postalCode": "9870443",
    "regionId": 4,
    "region": "宮城県",
    "locality": "登米市",
    "address1": "南方町大西",
    "address2": "",
    "regionKana": "ミヤギケン",
    "localityKana": "トメシ",
    "address1Kana": "ミナミカタマチオオニシ",
    "address2Kana": ""
  },
  {
    "postalCode": "9870443",
    "regionId": 4,
    "region": "宮城県",
    "locality": "登米市",
    "address1": "南方町表前",
    "address2": "",
    "regionKana": "ミヤギケン",
    "localityKana": "トメシ",
    "address1Kana": "ミナミカタマチオモテマエ",
    "address2Kana": ""
  },
  {
    "postalCode": "9870443",
    "regionId": 4,
    "region": "宮城県",
    "locality": "登米市",
    "address1": "南方町苔野谷地",
    "address2": "",
    "regionKana": "ミヤギケン",
    "localityKana": "トメシ",
    "address1Kana": "ミナミカタマチコケノヤチ",
    "address2Kana": ""
  },
  {
    "postalCode": "9870443",
    "regionId": 4,
    "region": "宮城県",
    "locality": "登米市",
    "address1": "南方町新野谷地",
    "address2": "",
    "regionKana": "ミヤギケン",
    "localityKana": "トメシ",
    "address1Kana": "ミナミカタマチシンノヤチ",
    "address2Kana": ""
  },
  {
    "postalCode": "9870443",
    "regionId": 4,
    "region": "宮城県",
    "locality": "登米市",
    "address1": "南方町外浦",
    "address2": "",
    "regionKana": "ミヤギケン",
    "localityKana": "トメシ",
    "address1Kana": "ミナミカタマチソトウラ",
    "address2Kana": ""
  },
  {
    "postalCode": "9870443",
    "regionId": 4,
    "region": "宮城県",
    "locality": "登米市",
    "address1": "南方町長根",
    "address2": "",
    "regionKana": "ミヤギケン",
    "localityKana": "トメシ",
    "address1Kana": "ミナミカタマチナガネ",
    "address2Kana": ""
  },
  {
    "postalCode": "9870443",
    "regionId": 4,
    "region": "宮城県",
    "locality": "登米市",
    "address1": "南方町長根下",
    "address2": "",
    "regionKana": "ミヤギケン",
    "localityKana": "トメシ",
    "address1Kana": "ミナミカタマチナガネシタ",
    "address2Kana": ""
  },
  {
    "postalCode": "9870443",
    "regionId": 4,
    "region": "宮城県",
    "locality": "登米市",
    "address1": "南方町野谷地",
    "address2": "",
    "regionKana": "ミヤギケン",
    "localityKana": "トメシ",
    "address1Kana": "ミナミカタマチノヤチ",
    "address2Kana": ""
  }
]