[
  {
    "postalCode": "9870444",
    "regionId": 4,
    "region": "宮城県",
    "locality": "登米市",
    "address1": "南方町尼池",
    "address2": "",
    "regionKana": "ミヤギケン",
    "localityKana": "トメシ",
    "address1Kana": "ミナミカタマチアマイケ",
    "address2Kana": ""
  },
  {
    "postalCode": "9870444",
    "regionId": 4,
    "region": "宮城県",
    "locality": "登米市",
    "address1": "南方町大上",
    "address2": "",
    "regionKana": "ミヤギケン",
    "localityKana": "トメシ",
    "address1Kana": "ミナミカタマチオオガミ",
    "address2Kana": ""
  },
  {
    "postalCode": "9870444",
    "regionId": 4,
    "region": "宮城県",
    "locality": "登米市",
    "address1": "南方町大森前",
    "address2": "",
    "regionKana": "ミヤギケン",
    "localityKana": "トメシ",
    "address1Kana": "ミナミカタマチオオモリマエ",
    "address2Kana": ""
  },
  {
    "postalCode": "9870444",
    "regionId": 4,
    "region": "宮城県",
    "locality": "登米市",
    "address1": "南方町三代前",
    "address2": "",
    "regionKana": "ミヤギケン",
    "localityKana": "トメシ",
    "address1Kana": "ミナミカタマチサンダイマエ",
    "address2Kana": ""
  },
  {
    "postalCode": "9870444",
    "regionId": 4,
    "region": "宮城県",
    "locality": "登米市",
    "address1": "南方町下新山",
    "address2": "",
    "regionKana": "ミヤギケン",
    "localityKana": "トメシ",
    "address1Kana": "ミナミカタマチシモシンザン",
    "address2Kana": ""
  },
  {
    "postalCode": "9870444",
    "regionId": 4,
    "region": "宮城県",
    "locality": "登米市",
    "address1": "南方町角欠前",
    "address2": "",
    "regionKana": "ミヤギケン",
    "localityKana": "トメシ",
    "address1Kana": "ミナミカタマチツノガケマエ",
    "address2Kana": ""
  },
  {
    "postalCode": "9870444",
    "regionId": 4,
    "region": "宮城県",
    "locality": "登米市",
    "address1": "南方町間内",
    "address2": "",
    "regionKana": "ミヤギケン",
    "localityKana": "トメシ",
    "address1Kana": "ミナミカタマチマウチ",
    "address2Kana": ""
  },
  {
    "postalCode": "9870444",
    "regionId": 4,
    "region": "宮城県",
    "locality": "登米市",
    "address1": "南方町間内前",
    "address2": "",
    "regionKana": "ミヤギケン",
    "localityKana": "トメシ",
    "address1Kana": "ミナミカタマチマウチマエ",
    "address2Kana": ""
  },
  {
    "postalCode": "9870444",
    "regionId": 4,
    "region": "宮城県",
    "locality": "登米市",
    "address1": "南方町実沢",
    "address2": "",
    "regionKana": "ミヤギケン",
    "localityKana": "トメシ",
    "address1Kana": "ミナミカタマチミサワ",
    "address2Kana": ""
  },
  {
    "postalCode": "9870444",
    "regionId": 4,
    "region": "宮城県",
    "locality": "登米市",
    "address1": "南方町柳沢",
    "address2": "",
    "regionKana": "ミヤギケン",
    "localityKana": "トメシ",
    "address1Kana": "ミナミカタマチヤナギサワ",
    "address2Kana": ""
  },
  {
    "postalCode": "9870444",
    "regionId": 4,
    "region": "宮城県",
    "locality": "登米市",
    "address1": "南方町柳沢前",
    "address2": "",
    "regionKana": "ミヤギケン",
    "localityKana": "トメシ",
    "address1Kana": "ミナミカタマチヤナギサワマエ",
    "address2Kana": ""
  },
  {
    "postalCode": "9870444",
    "regionId": 4,
    "region": "宮城県",
    "locality": "登米市",
    "address1": "南方町横代",
    "address2": "",
    "regionKana": "ミヤギケン",
    "localityKana": "トメシ",
    "address1Kana": "ミナミカタマチヨコダイ",
    "address2Kana": ""
  }
]